{
  "type": "FeatureCollection",
  "crs": {
    "type": "name",
    "properties": {
      "name": "EPSG:4326"
    }
  },
  "features": 
    {
      "type": "Feature",
      "id": 54,
      "geometry": {
        "type": "Polygon",
        "coordinates": [
          [
            [
              148.959635416944,
              -35.5144114128691
            ],
            [
              148.955163964411,
              -35.5137715576879
            ],
            [
              148.955900269755,
              -35.5103026517522
            ],
            [
              148.953430739125,
              -35.5099787820797
            ],
            [
              148.953448518171,
              -35.5098874754261
            ],
            [
              148.938405115875,
              -35.507733172064
            ],
            [
              148.937845253629,
              -35.5103457204265
            ],
            [
              148.937736056594,
              -35.5103300752642
            ],
            [
              148.934626087071,
              -35.5248392153996
            ],
            [
              148.906669738677,
              -35.520830364538
            ],
            [
              148.906483023265,
              -35.5206161736413
            ],
            [
              148.905276064088,
              -35.5196660600347
            ],
            [
              148.904253152115,
              -35.5186006468883
            ],
            [
              148.904120730455,
              -35.5176958830753
            ],
            [
              148.903454591927,
              -35.5161902562372
            ],
            [
              148.90211960155,
              -35.5153582380485
            ],
            [
              148.900874559059,
              -35.5137259083814
            ],
            [
              148.899557597108,
              -35.5124929239611
            ],
            [
              148.898398852003,
              -35.5121369614034
            ],
            [
              148.89760640276,
              -35.5116934576324
            ],
            [
              148.896317985064,
              -35.5117807571395
            ],
            [
              148.894999266997,
              -35.5121686637548
            ],
            [
              148.893234618523,
              -35.5125207083146
            ],
            [
              148.892192101888,
              -35.5119964490754
            ],
            [
              148.890888245206,
              -35.5111812794457
            ],
            [
              148.889830677013,
              -35.5113148791342
            ],
            [
              148.888685248116,
              -35.5113807000544
            ],
            [
              148.887209983482,
              -35.5112587217213
            ],
            [
              148.886196460791,
              -35.5113444785214
            ],
            [
              148.885560285366,
              -35.5118253522346
            ],
            [
              148.884905081149,
              -35.5126324457663
            ],
            [
              148.884373360473,
              -35.5136964219526
            ],
            [
              148.884305651813,
              -35.5144258024983
            ],
            [
              148.882934234994,
              -35.5145454974484
            ],
            [
              148.881697044267,
              -35.5156565756332
            ],
            [
              148.880178510946,
              -35.5146349531822
            ],
            [
              148.87978118772,
              -35.5139185948227
            ],
            [
              148.880396503483,
              -35.5130732746235
            ],
            [
              148.881089160117,
              -35.5123811517238
            ],
            [
              148.882000569288,
              -35.5117072808295
            ],
            [
              148.882770721526,
              -35.5109229444544
            ],
            [
              148.882921200356,
              -35.5103446060928
            ],
            [
              148.882910903993,
              -35.5096709299493
            ],
            [
              148.882639941034,
              -35.5089947269204
            ],
            [
              148.88225586694,
              -35.5084778308335
            ],
            [
              148.882009817944,
              -35.5080145216277
            ],
            [
              148.881012547498,
              -35.5075364465554
            ],
            [
              148.879962627988,
              -35.5071134618038
            ],
            [
              148.878741887677,
              -35.5066873980027
            ],
            [
              148.877133945702,
              -35.506209078925
            ],
            [
              148.87534543069,
              -35.5056337452851
            ],
            [
              148.873767506461,
              -35.5050912473334
            ],
            [
              148.872416310734,
              -35.5042904244543
            ],
            [
              148.871360702576,
              -35.5031204215296
            ],
            [
              148.870882433221,
              -35.5021917013209
            ],
            [
              148.870500809898,
              -35.5014020591112
            ],
            [
              148.871586288015,
              -35.5010017168352
            ],
            [
              148.871997447377,
              -35.5004372074646
            ],
            [
              148.872193105684,
              -35.4996365104372
            ],
            [
              148.871793610747,
              -35.4992451037389
            ],
            [
              148.871791412505,
              -35.4987894408307
            ],
            [
              148.872199799797,
              -35.4982271797948
            ],
            [
              148.872551680121,
              -35.4968656462024
            ],
            [
              148.87275240456,
              -35.4955376453881
            ],
            [
              148.872610117284,
              -35.4945720903207
            ],
            [
              148.872814106901,
              -35.4930035545488
            ],
            [
              148.872707293532,
              -35.491460172083
            ],
            [
              148.872935550162,
              -35.4900674035438
            ],
            [
              148.87348128657,
              -35.4895115104285
            ],
            [
              148.874091453291,
              -35.4887073100694
            ],
            [
              148.873802467646,
              -35.4881527299394
            ],
            [
              148.874192087043,
              -35.4869134382072
            ],
            [
              148.874731288046,
              -35.4860296653628
            ],
            [
              148.875788545243,
              -35.4848992584313
            ],
            [
              148.876928174655,
              -35.4833768966038
            ],
            [
              148.877225460201,
              -35.4821611044509
            ],
            [
              148.877403914798,
              -35.4815805476937
            ],
            [
              148.876897389255,
              -35.4808517100837
            ],
            [
              148.876662023186,
              -35.4803264853782
            ],
            [
              148.876538485903,
              -35.4792696579529
            ],
            [
              148.876228205441,
              -35.4785438269423
            ],
            [
              148.875809690635,
              -35.4779119631603
            ],
            [
              148.87502207266,
              -35.4771585618165
            ],
            [
              148.873875792519,
              -35.4760437207457
            ],
            [
              148.873230902188,
              -35.4752808256109
            ],
            [
              148.872609210395,
              -35.4748131950224
            ],
            [
              148.870086875441,
              -35.4743174280503
            ],
            [
              148.869681439961,
              -35.4737435965267
            ],
            [
              148.869832130837,
              -35.4724825896376
            ],
            [
              148.869802886697,
              -35.47180942679
            ],
            [
              148.869855948456,
              -35.4706846622718
            ],
            [
              148.869549593372,
              -35.4700359630334
            ],
            [
              148.869300366243,
              -35.469544502829
            ],
            [
              148.869485008203,
              -35.4691611535963
            ],
            [
              148.870232191054,
              -35.467987082771
            ],
            [
              148.870283839718,
              -35.467293734794
            ],
            [
              148.870046750795,
              -35.4667290207295
            ],
            [
              148.870176864012,
              -35.4662752200137
            ],
            [
              148.870540511802,
              -35.4653754889328
            ],
            [
              148.871244762117,
              -35.4640256218611
            ],
            [
              148.871894864859,
              -35.4628918936496
            ],
            [
              148.87196742809,
              -35.4621321471907
            ],
            [
              148.872236806596,
              -35.4612610523583
            ],
            [
              148.871984830637,
              -35.4606434217958
            ],
            [
              148.871485672582,
              -35.4595107248136
            ],
            [
              148.870849586812,
              -35.4582635028086
            ],
            [
              148.870415339804,
              -35.4577701194846
            ],
            [
              148.870420436091,
              -35.4573685361729
            ],
            [
              148.870059414907,
              -35.4570205147878
            ],
            [
              148.869728829201,
              -35.4563994540241
            ],
            [
              148.869571025234,
              -35.4553583469897
            ],
            [
              148.86928508618,
              -35.4548488193741
            ],
            [
              148.869339710578,
              -35.4542811058976
            ],
            [
              148.86957110438,
              -35.4537203569761
            ],
            [
              148.870259992336,
              -35.4526712158241
            ],
            [
              148.871372521316,
              -35.4510102572662
            ],
            [
              148.872061720933,
              -35.4489720023189
            ],
            [
              148.871508647363,
              -35.4480441830073
            ],
            [
              148.870989181348,
              -35.4472426618829
            ],
            [
              148.870050348761,
              -35.4463684665262
            ],
            [
              148.869056909125,
              -35.4458119751129
            ],
            [
              148.868107091455,
              -35.4454475800872
            ],
            [
              148.867671589613,
              -35.4455298937243
            ],
            [
              148.868446807499,
              -35.4448413567104
            ],
            [
              148.869065596801,
              -35.444169485954
            ],
            [
              148.870569435944,
              -35.4437251133207
            ],
            [
              148.871069559456,
              -35.4435206558604
            ],
            [
              148.871914470136,
              -35.4428152328372
            ],
            [
              148.872339603327,
              -35.441886903599
            ],
            [
              148.872708688237,
              -35.4410784638133
            ],
            [
              148.873552998166,
              -35.4412315448577
            ],
            [
              148.87453298974,
              -35.441054018161
            ],
            [
              148.875409860249,
              -35.4411648554553
            ],
            [
              148.876648393109,
              -35.4412750020495
            ],
            [
              148.877316500268,
              -35.4405563683083
            ],
            [
              148.877957148406,
              -35.4401244750862
            ],
            [
              148.878228917602,
              -35.4398662055637
            ],
            [
              148.878831379237,
              -35.4393430607474
            ],
            [
              148.879397499408,
              -35.4390896127734
            ],
            [
              148.88087878783,
              -35.4383955349565
            ],
            [
              148.880571973257,
              -35.4375717491254
            ],
            [
              148.880382605335,
              -35.4365440032311
            ],
            [
              148.880880026698,
              -35.4362985415398
            ],
            [
              148.881775520446,
              -35.4356066204714
            ],
            [
              148.882297722916,
              -35.4347566745304
            ],
            [
              148.882800379051,
              -35.4337951329978
            ],
            [
              148.882868394008,
              -35.4333259306173
            ],
            [
              148.883843619595,
              -35.4328093683099
            ],
            [
              148.886655992576,
              -35.4327327700178
            ],
            [
              148.887844849774,
              -35.4326297894621
            ],
            [
              148.889030996095,
              -35.4322749889809
            ],
            [
              148.889617748967,
              -35.4319382396048
            ],
            [
              148.890079442347,
              -35.4309056088586
            ],
            [
              148.89107760484,
              -35.4297873446752
            ],
            [
              148.891331555113,
              -35.4292372978403
            ],
            [
              148.891796539756,
              -35.4277326853027
            ],
            [
              148.892304279175,
              -35.4268780847431
            ],
            [
              148.892975266382,
              -35.4254317064654
            ],
            [
              148.893638043388,
              -35.4246279894713
            ],
            [
              148.894196065086,
              -35.4240027030455
            ],
            [
              148.894584039352,
              -35.4234826071674
            ],
            [
              148.894803080407,
              -35.4227506500365
            ],
            [
              148.894880413875,
              -35.4215543298576
            ],
            [
              148.895213779126,
              -35.4208662798777
            ],
            [
              148.895034754718,
              -35.4198544702082
            ],
            [
              148.894611637732,
              -35.4185405137367
            ],
            [
              148.894595297488,
              -35.4174860492955
            ],
            [
              148.894315959034,
              -35.4167299140788
            ],
            [
              148.895149462304,
              -35.4161983435864
            ],
            [
              148.895831983966,
              -35.4156126411189
            ],
            [
              148.895053831796,
              -35.4142212045328
            ],
            [
              148.895396030428,
              -35.4134915245323
            ],
            [
              148.896167039878,
              -35.4130624484889
            ],
            [
              148.897457385692,
              -35.4125128128257
            ],
            [
              148.897970377559,
              -35.4121279175579
            ],
            [
              148.89984210092,
              -35.4110650843649
            ],
            [
              148.901162558559,
              -35.4099346780824
            ],
            [
              148.902214042068,
              -35.409140271496
            ],
            [
              148.902652224665,
              -35.4083514434422
            ],
            [
              148.902766428321,
              -35.4073956883998
            ],
            [
              148.902053170039,
              -35.4062634597289
            ],
            [
              148.901455154635,
              -35.4057300234695
            ],
            [
              148.901450500436,
              -35.4049273742297
            ],
            [
              148.901389005445,
              -35.4042385009931
            ],
            [
              148.901370662907,
              -35.4033828459091
            ],
            [
              148.901557715949,
              -35.4027786410068
            ],
            [
              148.902020433126,
              -35.4023931415988
            ],
            [
              148.902398959432,
              -35.4013260478909
            ],
            [
              148.903059173416,
              -35.400072823524
            ],
            [
              148.903871344662,
              -35.3990951474145
            ],
            [
              148.903580860693,
              -35.3975841425448
            ],
            [
              148.903207398919,
              -35.3969969254662
            ],
            [
              148.902818447186,
              -35.3958891376061
            ],
            [
              148.901897927129,
              -35.3950051042129
            ],
            [
              148.901567978857,
              -35.3945722144127
            ],
            [
              148.901645794584,
              -35.393579294804
            ],
            [
              148.901434933712,
              -35.3929859092681
            ],
            [
              148.90154396864,
              -35.3919383120351
            ],
            [
              148.902119495231,
              -35.3910922865804
            ],
            [
              148.902154085857,
              -35.3899037589096
            ],
            [
              148.901963001544,
              -35.3892580283986
            ],
            [
              148.902176184696,
              -35.3885068518394
            ],
            [
              148.902182105718,
              -35.388107515389
            ],
            [
              148.901725310532,
              -35.3877426467791
            ],
            [
              148.901128706052,
              -35.3869985885229
            ],
            [
              148.901291845053,
              -35.3865565845035
            ],
            [
              148.902014683766,
              -35.3862180904195
            ],
            [
              148.902764708434,
              -35.3859556822171
            ],
            [
              148.903413473591,
              -35.3857827627411
            ],
            [
              148.905066935296,
              -35.386096302153
            ],
            [
              148.90569630571,
              -35.3855099539857
            ],
            [
              148.906289073,
              -35.3849690842224
            ],
            [
              148.907642127407,
              -35.3842875385969
            ],
            [
              148.908224725231,
              -35.3835884824838
            ],
            [
              148.909533342194,
              -35.382856138661
            ],
            [
              148.91050847538,
              -35.3821381978926
            ],
            [
              148.911495100286,
              -35.3813673556617
            ],
            [
              148.912069565089,
              -35.3798807670224
            ],
            [
              148.912149083097,
              -35.3789998637852
            ],
            [
              148.911873266737,
              -35.3780341385003
            ],
            [
              148.912933832439,
              -35.3778626717328
            ],
            [
              148.914284495328,
              -35.3778513044432
            ],
            [
              148.915892254782,
              -35.3776137286155
            ],
            [
              148.918128966779,
              -35.3772087965872
            ],
            [
              148.919788621897,
              -35.3767903287113
            ],
            [
              148.92112362487,
              -35.3762872451721
            ],
            [
              148.922019852777,
              -35.3760203158583
            ],
            [
              148.922550537901,
              -35.3762567346362
            ],
            [
              148.923165445697,
              -35.3757316589882
            ],
            [
              148.924453276834,
              -35.3754740030253
            ],
            [
              148.925845175791,
              -35.3751290759255
            ],
            [
              148.926422265589,
              -35.3742186747397
            ],
            [
              148.926933797329,
              -35.3735971653828
            ],
            [
              148.926419752697,
              -35.3728031767554
            ],
            [
              148.925586039712,
              -35.3721457730668
            ],
            [
              148.925718268528,
              -35.3713234781503
            ],
            [
              148.925261112418,
              -35.3709761814387
            ],
            [
              148.924342555238,
              -35.3705654711623
            ],
            [
              148.92333568294,
              -35.3700217577089
            ],
            [
              148.922594865778,
              -35.3691797345308
            ],
            [
              148.922225513785,
              -35.368037139537
            ],
            [
              148.921900073378,
              -35.3669965051142
            ],
            [
              148.921906580102,
              -35.3650442295893
            ],
            [
              148.920998977096,
              -35.3635429929356
            ],
            [
              148.920239174728,
              -35.3617320093926
            ],
            [
              148.920083597786,
              -35.359441645344
            ],
            [
              148.92115575761,
              -35.3585867875834
            ],
            [
              148.921403680465,
              -35.3576198392094
            ],
            [
              148.92124654341,
              -35.356338239854
            ],
            [
              148.922232979794,
              -35.3552523201031
            ],
            [
              148.923278022124,
              -35.3545828111579
            ],
            [
              148.922960509692,
              -35.3528493930914
            ],
            [
              148.923736938309,
              -35.3514991543374
            ],
            [
              148.923908365273,
              -35.3503147641907
            ],
            [
              148.923709921501,
              -35.3485391628562
            ],
            [
              148.922314438406,
              -35.3473101231461
            ],
            [
              148.921096739848,
              -35.3450843254946
            ],
            [
              148.921234987044,
              -35.3433793509891
            ],
            [
              148.920874435553,
              -35.3411507466129
            ],
            [
              148.921727893817,
              -35.3397956178886
            ],
            [
              148.921331798013,
              -35.3385989194125
            ],
            [
              148.922358830445,
              -35.3379157940818
            ],
            [
              148.922960980879,
              -35.3375314815958
            ],
            [
              148.923786315866,
              -35.3371197464536
            ],
            [
              148.924802222457,
              -35.3365211290342
            ],
            [
              148.925662729947,
              -35.3360057615633
            ],
            [
              148.92470228599,
              -35.3362715029207
            ],
            [
              148.923655421896,
              -35.3365045501178
            ],
            [
              148.92281577404,
              -35.3362132985874
            ],
            [
              148.921567257808,
              -35.3361820257786
            ],
            [
              148.919906096537,
              -35.3353369663095
            ],
            [
              148.919083401674,
              -35.3342638659032
            ],
            [
              148.919774974231,
              -35.3329643251633
            ],
            [
              148.919383909068,
              -35.3326440898298
            ],
            [
              148.918220114553,
              -35.3324343086115
            ],
            [
              148.919076927696,
              -35.3314812465694
            ],
            [
              148.919647001076,
              -35.3306356661317
            ],
            [
              148.919909031008,
              -35.3299790271519
            ],
            [
              148.92089787055,
              -35.3285287389388
            ],
            [
              148.921306029803,
              -35.3276768126499
            ],
            [
              148.922373371734,
              -35.3274252353605
            ],
            [
              148.923312348982,
              -35.3278151580969
            ],
            [
              148.924032624079,
              -35.3281789635771
            ],
            [
              148.925347901538,
              -35.3290417519578
            ],
            [
              148.925852042973,
              -35.3283852688037
            ],
            [
              148.926425522634,
              -35.3277756052899
            ],
            [
              148.927832113488,
              -35.3269801255161
            ],
            [
              148.929584261794,
              -35.3261290696177
            ],
            [
              148.931281651211,
              -35.3256901861361
            ],
            [
              148.93217908933,
              -35.3247996941205
            ],
            [
              148.933169419436,
              -35.3243902516994
            ],
            [
              148.934982169976,
              -35.3242471802315
            ],
            [
              148.935961741066,
              -35.3237943582726
            ],
            [
              148.937104170129,
              -35.3233336950589
            ],
            [
              148.93792556554,
              -35.3227804528634
            ],
            [
              148.938654615943,
              -35.3220559139372
            ],
            [
              148.938220524983,
              -35.3213667408082
            ],
            [
              148.937705015744,
              -35.3208606527068
            ],
            [
              148.937827299869,
              -35.3202326415338
            ],
            [
              148.938066978199,
              -35.3199540619359
            ],
            [
              148.938508538094,
              -35.319507760324
            ],
            [
              148.939476600647,
              -35.3200224430155
            ],
            [
              148.940596231449,
              -35.3205576181693
            ],
            [
              148.941525101008,
              -35.3209467630503
            ],
            [
              148.942293616637,
              -35.3213769996347
            ],
            [
              148.942708051896,
              -35.3220745286011
            ],
            [
              148.942628152927,
              -35.3226867965026
            ],
            [
              148.942127210179,
              -35.3235371217395
            ],
            [
              148.941414509192,
              -35.3243258603318
            ],
            [
              148.940698396853,
              -35.3249698515272
            ],
            [
              148.939814889583,
              -35.3257522649956
            ],
            [
              148.938897071357,
              -35.3263871168139
            ],
            [
              148.938172406332,
              -35.3272102568994
            ],
            [
              148.937648541938,
              -35.3279049935287
            ],
            [
              148.937609417619,
              -35.3282486178368
            ],
            [
              148.938009260551,
              -35.328650452451
            ],
            [
              148.938468807239,
              -35.3288203380885
            ],
            [
              148.939014329936,
              -35.3285118883932
            ],
            [
              148.939888200303,
              -35.3279840791272
            ],
            [
              148.940833268267,
              -35.3273880795326
            ],
            [
              148.941795032979,
              -35.3267994719001
            ],
            [
              148.942644701444,
              -35.3263701365339
            ],
            [
              148.943362297528,
              -35.3263322269805
            ],
            [
              148.9444388002,
              -35.3266189572275
            ],
            [
              148.945548396351,
              -35.3269265146896
            ],
            [
              148.946695491643,
              -35.3268195954052
            ],
            [
              148.947758826726,
              -35.3265120040557
            ],
            [
              148.948596785817,
              -35.3261074050335
            ],
            [
              148.949224715699,
              -35.3255219042402
            ],
            [
              148.949280573121,
              -35.3255320262688
            ],
            [
              148.949607229347,
              -35.3248743634398
            ],
            [
              148.949956297611,
              -35.3243894816439
            ],
            [
              148.950340399063,
              -35.3239632860422
            ],
            [
              148.950402279324,
              -35.3243102990286
            ],
            [
              148.950686052481,
              -35.3249976422387
            ],
            [
              148.950928852747,
              -35.3259328097136
            ],
            [
              148.951236979177,
              -35.3267193014053
            ],
            [
              148.951698412177,
              -35.327662413264
            ],
            [
              148.952373692406,
              -35.328854099467
            ],
            [
              148.953120881893,
              -35.3297799447053
            ],
            [
              148.953618632422,
              -35.3307439741982
            ],
            [
              148.954336192469,
              -35.3319452220259
            ],
            [
              148.954637196318,
              -35.3326116542092
            ],
            [
              148.955193174619,
              -35.3332270085698
            ],
            [
              148.95598392586,
              -35.3344171030754
            ],
            [
              148.956707096759,
              -35.3352093496578
            ],
            [
              148.95717205665,
              -35.335631427226
            ],
            [
              148.957873185094,
              -35.3363572352299
            ],
            [
              148.958588768843,
              -35.337030141515
            ],
            [
              148.959018113526,
              -35.3378053967764
            ],
            [
              148.959360100817,
              -35.3386374839608
            ],
            [
              148.959410698872,
              -35.3395252372234
            ],
            [
              148.95969670446,
              -35.3403708186863
            ],
            [
              148.959863541307,
              -35.3414844717551
            ],
            [
              148.960273394151,
              -35.3427205244166
            ],
            [
              148.960847931056,
              -35.3435741497939
            ],
            [
              148.961878849835,
              -35.3444363342932
            ],
            [
              148.963048398561,
              -35.3450856884476
            ],
            [
              148.96464430301,
              -35.3455628703984
            ],
            [
              148.966467648442,
              -35.3459347558466
            ],
            [
              148.968390569678,
              -35.3465042919913
            ],
            [
              148.969410529819,
              -35.346850443229
            ],
            [
              148.970641327172,
              -35.3475138934925
            ],
            [
              148.971380887998,
              -35.3479230249785
            ],
            [
              148.972587725221,
              -35.3483706878589
            ],
            [
              148.973912641786,
              -35.3487383428488
            ],
            [
              148.974846826936,
              -35.3488844358988
            ],
            [
              148.975760684219,
              -35.34871859325
            ],
            [
              148.97640142497,
              -35.348769419664
            ],
            [
              148.976835767575,
              -35.3491818585579
            ],
            [
              148.977225633173,
              -35.349974521875
            ],
            [
              148.977316590344,
              -35.3511286864119
            ],
            [
              148.977275881536,
              -35.3522592023875
            ],
            [
              148.97690229035,
              -35.3533794448662
            ],
            [
              148.976506005173,
              -35.3545521333102
            ],
            [
              148.976303368946,
              -35.3556268164698
            ],
            [
              148.976307176474,
              -35.3568124998918
            ],
            [
              148.9766148318,
              -35.3577566410115
            ],
            [
              148.977019546133,
              -35.3583775297434
            ],
            [
              148.977284949326,
              -35.3593733902179
            ],
            [
              148.977501560883,
              -35.3605209155982
            ],
            [
              148.977941942597,
              -35.361708425237
            ],
            [
              148.978401820145,
              -35.3628727755928
            ],
            [
              148.978918171747,
              -35.363986577713
            ],
            [
              148.979581465342,
              -35.3652755263748
            ],
            [
              148.980293129672,
              -35.3664270431564
            ],
            [
              148.980865216354,
              -35.3675047097915
            ],
            [
              148.981608631913,
              -35.368908034241
            ],
            [
              148.981896195879,
              -35.3693885541001
            ],
            [
              148.982208370064,
              -35.3699902072444
            ],
            [
              148.982295954967,
              -35.3703169284205
            ],
            [
              148.982379011377,
              -35.3706994362026
            ],
            [
              148.982570569783,
              -35.3713883007679
            ],
            [
              148.982806665081,
              -35.3721645960164
            ],
            [
              148.98276878053,
              -35.3729362353168
            ],
            [
              148.982652652063,
              -35.3737299368455
            ],
            [
              148.982782570742,
              -35.3745061183209
            ],
            [
              148.983192046282,
              -35.3750999485341
            ],
            [
              148.983912309275,
              -35.3755929931156
            ],
            [
              148.984599276853,
              -35.3759603033264
            ],
            [
              148.985280676611,
              -35.3761993614232
            ],
            [
              148.985761681864,
              -35.3761194257416
            ],
            [
              148.986726818608,
              -35.3757844370329
            ],
            [
              148.987560463208,
              -35.3754077795217
            ],
            [
              148.988282787373,
              -35.374858688321
            ],
            [
              148.988993650792,
              -35.3743332938567
            ],
            [
              148.98990612233,
              -35.3736795007609
            ],
            [
              148.990611118421,
              -35.3732199766815
            ],
            [
              148.991587204726,
              -35.3728844096878
            ],
            [
              148.992305868163,
              -35.3727566270381
            ],
            [
              148.992773116522,
              -35.3725533706994
            ],
            [
              148.993486298886,
              -35.3722994055247
            ],
            [
              148.994067721454,
              -35.3722819960443
            ],
            [
              148.99470551469,
              -35.3720832604453
            ],
            [
              148.995653511413,
              -35.3717493698383
            ],
            [
              148.996744294144,
              -35.3716013237047
            ],
            [
              148.997585698882,
              -35.3717185702658
            ],
            [
              148.998225860302,
              -35.3718037092247
            ],
            [
              148.999048028983,
              -35.3718065759179
            ],
            [
              148.99990376244,
              -35.3717728489927
            ],
            [
              149.000555375577,
              -35.3718094886609
            ],
            [
              149.001081098591,
              -35.3719684154102
            ],
            [
              149.001726980484,
              -35.3721171638553
            ],
            [
              149.002644202698,
              -35.3723560486426
            ],
            [
              149.0035390853,
              -35.3726934311668
            ],
            [
              149.004132059254,
              -35.3727278858618
            ],
            [
              149.004834070237,
              -35.3728929328491
            ],
            [
              149.005482825501,
              -35.3730906884602
            ],
            [
              149.006034099092,
              -35.3731503677613
            ],
            [
              149.006627073155,
              -35.3732974657402
            ],
            [
              149.007147312525,
              -35.3735723559849
            ],
            [
              149.007740289393,
              -35.3738821239102
            ],
            [
              149.008028246855,
              -35.3742944477986
            ],
            [
              149.008481260998,
              -35.374876926777
            ],
            [
              149.008713438312,
              -35.375147842423
            ],
            [
              149.008909083455,
              -35.3754981575421
            ],
            [
              149.008894776659,
              -35.3758603682364
            ],
            [
              149.009037386578,
              -35.3760553083953
            ],
            [
              149.008941870209,
              -35.3765227834555
            ],
            [
              149.008681292199,
              -35.3769356436234
            ],
            [
              149.008479586064,
              -35.3771761844808
            ],
            [
              149.008619334915,
              -35.3774234869119
            ],
            [
              149.008644312363,
              -35.3777146791261
            ],
            [
              149.008761393237,
              -35.3780909497013
            ],
            [
              149.008965408832,
              -35.3784209865582
            ],
            [
              149.009236773197,
              -35.3786046614477
            ],
            [
              149.009348355937,
              -35.3788615159082
            ],
            [
              149.009670122665,
              -35.3791093577457
            ],
            [
              149.010232556505,
              -35.3794348848041
            ],
            [
              149.010668778059,
              -35.3799435438683
            ],
            [
              149.010962603512,
              -35.3803159346033
            ],
            [
              149.0113003464,
              -35.3809095801547
            ],
            [
              149.011684969274,
              -35.3813821860429
            ],
            [
              149.012176781646,
              -35.3818186485581
            ],
            [
              149.012545564738,
              -35.3822248303524
            ],
            [
              149.01316518704,
              -35.3834200428034
            ],
            [
              149.013212973337,
              -35.3839349216434
            ],
            [
              149.013333292968,
              -35.3846519484598
            ],
            [
              149.013609112941,
              -35.3852748782491
            ],
            [
              149.013751020526,
              -35.3862173048256
            ],
            [
              149.013955887164,
              -35.3872542682448
            ],
            [
              149.014113183867,
              -35.3877544520004
            ],
            [
              149.014199632909,
              -35.3881076427823
            ],
            [
              149.014260695006,
              -35.3883571082704
            ],
            [
              149.014377061892,
              -35.3889733735621
            ],
            [
              149.014588510015,
              -35.3894392174319
            ],
            [
              149.01445503975,
              -35.3899016511707
            ],
            [
              149.013979078125,
              -35.3905758909639
            ],
            [
              149.013490448027,
              -35.3911837066232
            ],
            [
              149.013349371617,
              -35.3915926960987
            ],
            [
              149.012733268332,
              -35.3919215784115
            ],
            [
              149.011871501913,
              -35.3921740375812
            ],
            [
              149.010865660705,
              -35.3924961580803
            ],
            [
              149.010497176207,
              -35.3925869173649
            ],
            [
              149.010125499861,
              -35.3927687911288
            ],
            [
              149.009366624242,
              -35.3931237037426
            ],
            [
              149.008632835247,
              -35.3935011421216
            ],
            [
              149.008274247085,
              -35.3937776404799
            ],
            [
              149.007999524165,
              -35.3941212817581
            ],
            [
              149.007726770987,
              -35.3948816565816
            ],
            [
              149.007711455383,
              -35.3956860154305
            ],
            [
              149.008040762348,
              -35.3962729984366
            ],
            [
              149.008641389169,
              -35.3969567764298
            ],
            [
              149.009275487264,
              -35.3977758279057
            ],
            [
              149.009920714307,
              -35.3985029483766
            ],
            [
              149.010359456793,
              -35.3988702019295
            ],
            [
              149.010692643345,
              -35.3991895992545
            ],
            [
              149.011535465008,
              -35.3996182175079
            ],
            [
              149.012314220332,
              -35.3996672290677
            ],
            [
              149.013169371332,
              -35.3998508774566
            ],
            [
              149.013879349998,
              -35.4001815190458
            ],
            [
              149.014533635931,
              -35.4004799842587
            ],
            [
              149.015258275883,
              -35.4009440905159
            ],
            [
              149.016277478838,
              -35.4013946573518
            ],
            [
              149.016990436581,
              -35.4015190755815
            ],
            [
              149.01760116654,
              -35.4019155825207
            ],
            [
              149.018576576528,
              -35.4022923207861
            ],
            [
              149.019624210653,
              -35.4027114033658
            ],
            [
              149.020567836537,
              -35.4031477914725
            ],
            [
              149.021103517012,
              -35.4035014779628
            ],
            [
              149.021949626636,
              -35.4039046974981
            ],
            [
              149.023042379569,
              -35.4046728869057
            ],
            [
              149.023561023653,
              -35.4050497266039
            ],
            [
              149.024009584925,
              -35.4056140305026
            ],
            [
              149.024262061951,
              -35.4059671955138
            ],
            [
              149.024873909591,
              -35.4060995113854
            ],
            [
              149.0260633442,
              -35.4062029954383
            ],
            [
              149.027074286306,
              -35.4060479277576
            ],
            [
              149.028043176185,
              -35.4059103429754
            ],
            [
              149.028813129297,
              -35.4061428310883
            ],
            [
              149.029730980677,
              -35.4065967253445
            ],
            [
              149.03084932635,
              -35.4071513350133
            ],
            [
              149.032060149683,
              -35.4076861809174
            ],
            [
              149.033161467506,
              -35.4082543810299
            ],
            [
              149.033944733705,
              -35.4083398417995
            ],
            [
              149.034540960662,
              -35.4087536591957
            ],
            [
              149.034891196883,
              -35.4089428465397
            ],
            [
              149.035376065244,
              -35.409129209727
            ],
            [
              149.036047503848,
              -35.4095734642127
            ],
            [
              149.03692413205,
              -35.4099675602785
            ],
            [
              149.038042754248,
              -35.4101019455168
            ],
            [
              149.03869090993,
              -35.4100257253665
            ],
            [
              149.039475336345,
              -35.4102119983501
            ],
            [
              149.040043534705,
              -35.4100456668596
            ],
            [
              149.040944210312,
              -35.4099395389517
            ],
            [
              149.041628691833,
              -35.4098706834404
            ],
            [
              149.042145225013,
              -35.4101780481289
            ],
            [
              149.042822108864,
              -35.4106341600103
            ],
            [
              149.043228481266,
              -35.411002924681
            ],
            [
              149.043545993822,
              -35.4113177285703
            ],
            [
              149.04391064294,
              -35.4116719022902
            ],
            [
              149.044272385275,
              -35.4124255051
            ],
            [
              149.044809345809,
              -35.4130629765028
            ],
            [
              149.045868731149,
              -35.4137864465363
            ],
            [
              149.047085766313,
              -35.414465427114
            ],
            [
              149.047578841675,
              -35.4146488540564
            ],
            [
              149.048184003857,
              -35.4146273019823
            ],
            [
              149.049818062214,
              -35.4143473814328
            ],
            [
              149.050333833334,
              -35.4141184725679
            ],
            [
              149.051098621914,
              -35.4140956796134
            ],
            [
              149.051854623326,
              -35.4139011087261
            ],
            [
              149.052723337605,
              -35.413676031377
            ],
            [
              149.053471277411,
              -35.4138549263844
            ],
            [
              149.054000050131,
              -35.4142703844978
            ],
            [
              149.054468030902,
              -35.4152289489731
            ],
            [
              149.054694925376,
              -35.4162004908805
            ],
            [
              149.054824997361,
              -35.4172723762233
            ],
            [
              149.054738666605,
              -35.4182249283123
            ],
            [
              149.054252005193,
              -35.4191533856744
            ],
            [
              149.05394701976,
              -35.4197256961074
            ],
            [
              149.053288417615,
              -35.4203472510363
            ],
            [
              149.052749522073,
              -35.4210368938604
            ],
            [
              149.052194391316,
              -35.4220672976687
            ],
            [
              149.052254537635,
              -35.4229572490185
            ],
            [
              149.051891354301,
              -35.423882318617
            ],
            [
              149.051620566878,
              -35.4242231723466
            ],
            [
              149.051324114438,
              -35.4245494338011
            ],
            [
              149.051237965859,
              -35.4250986780084
            ],
            [
              149.051103797709,
              -35.4256225236743
            ],
            [
              149.051215495177,
              -35.4259311590475
            ],
            [
              149.05132856216,
              -35.426331090092
            ],
            [
              149.051505585608,
              -35.4266982827382
            ],
            [
              149.052043991686,
              -35.4270749007965
            ],
            [
              149.053008399046,
              -35.4276282763065
            ],
            [
              149.054113816328,
              -35.4280812849187
            ],
            [
              149.055009164674,
              -35.4283575395324
            ],
            [
              149.055870707426,
              -35.4286208228157
            ],
            [
              149.05655830963,
              -35.4283659565178
            ],
            [
              149.057492440965,
              -35.4282934888192
            ],
            [
              149.058222654682,
              -35.4284159437843
            ],
            [
              149.058678355107,
              -35.4285205726981
            ],
            [
              149.059154598748,
              -35.428368789051
            ],
            [
              149.059638857036,
              -35.428182212707
            ],
            [
              149.060278527797,
              -35.4282483651828
            ],
            [
              149.060854007617,
              -35.428491456152
            ],
            [
              149.061462849466,
              -35.4287277696007
            ],
            [
              149.062123613555,
              -35.4288806932853
            ],
            [
              149.062474448102,
              -35.4290810647992
            ],
            [
              149.062586781113,
              -35.4294466472817
            ],
            [
              149.062950237333,
              -35.4300773526481
            ],
            [
              149.063077917799,
              -35.4305002466022
            ],
            [
              149.063093284169,
              -35.4309215677958
            ],
            [
              149.063473483281,
              -35.4313804881047
            ],
            [
              149.064105735591,
              -35.4319970102416
            ],
            [
              149.064721958405,
              -35.4325059285203
            ],
            [
              149.065109618002,
              -35.4327423244735
            ],
            [
              149.065927238639,
              -35.4332258183954
            ],
            [
              149.066557124609,
              -35.4338743224173
            ],
            [
              149.067187007506,
              -35.434350595986
            ],
            [
              149.067821038783,
              -35.4349186104027
            ],
            [
              149.068578058898,
              -35.4353024387214
            ],
            [
              149.069279152319,
              -35.435846800051
            ],
            [
              149.069826895151,
              -35.4364412529516
            ],
            [
              149.070161218962,
              -35.4371682925191
            ],
            [
              149.07037976091,
              -35.4378305911325
            ],
            [
              149.070572275343,
              -35.4384382875251
            ],
            [
              149.070505726564,
              -35.4389750974605
            ],
            [
              149.070885098745,
              -35.4395461080461
            ],
            [
              149.071389209553,
              -35.440207627358
            ],
            [
              149.071920154797,
              -35.4409532157997
            ],
            [
              149.072541152705,
              -35.4420670004426
            ],
            [
              149.072939979606,
              -35.4431122240098
            ],
            [
              149.073639643967,
              -35.4442293854469
            ],
            [
              149.074308818082,
              -35.4452051550013
            ],
            [
              149.074511389664,
              -35.4460714025914
            ],
            [
              149.074520191428,
              -35.4475634823445
            ],
            [
              149.074692215195,
              -35.4487783436418
            ],
            [
              149.074460054443,
              -35.4496110294627
            ],
            [
              149.074484625317,
              -35.4507178225765
            ],
            [
              149.074236526831,
              -35.4516006247833
            ],
            [
              149.073746226115,
              -35.4520785407243
            ],
            [
              149.072766234519,
              -35.4524310818966
            ],
            [
              149.071453269734,
              -35.4526390482157
            ],
            [
              149.070030221029,
              -35.4526414838492
            ],
            [
              149.06843850639,
              -35.4524422898704
            ],
            [
              149.06669029417,
              -35.4521001223158
            ],
            [
              149.064838114991,
              -35.4515850313143
            ],
            [
              149.063938230083,
              -35.4515448865688
            ],
            [
              149.063059097339,
              -35.4512427362987
            ],
            [
              149.061809317045,
              -35.4508929762278
            ],
            [
              149.059931854799,
              -35.4505383299839
            ],
            [
              149.058787795358,
              -35.4503061954849
            ],
            [
              149.057424861036,
              -35.4503878567366
            ],
            [
              149.056099584965,
              -35.4510310470832
            ],
            [
              149.055305894595,
              -35.4519753948117
            ],
            [
              149.054877306304,
              -35.4533003715382
            ],
            [
              149.054600519718,
              -35.4544912750845
            ],
            [
              149.054773505065,
              -35.455768168751
            ],
            [
              149.055396776927,
              -35.4568341816202
            ],
            [
              149.05621775657,
              -35.4576635411224
            ],
            [
              149.057508957557,
              -35.4586233868519
            ],
            [
              149.059114699075,
              -35.4596225643467
            ],
            [
              149.06057739836,
              -35.4602888648776
            ],
            [
              149.06190482017,
              -35.4609044671211
            ],
            [
              149.063009930745,
              -35.461961848199
            ],
            [
              149.063790331213,
              -35.4631888870098
            ],
            [
              149.06386600558,
              -35.4646527247053
            ],
            [
              149.063456291888,
              -35.4660875800426
            ],
            [
              149.063063420874,
              -35.4670295428633
            ],
            [
              149.062530414908,
              -35.4676409946187
            ],
            [
              149.062178362083,
              -35.4681931528956
            ],
            [
              149.061817805149,
              -35.4690590332944
            ],
            [
              149.061361492653,
              -35.4699035943319
            ],
            [
              149.060769271489,
              -35.470824726738
            ],
            [
              149.060226352387,
              -35.4716817574291
            ],
            [
              149.059842829377,
              -35.4725251104207
            ],
            [
              149.059679702502,
              -35.473466964616
            ],
            [
              149.059929887651,
              -35.4743235700564
            ],
            [
              149.06040209898,
              -35.4752122546948
            ],
            [
              149.061124224707,
              -35.4759700626515
            ],
            [
              149.061826642145,
              -35.4765578121047
            ],
            [
              149.062582627689,
              -35.4771635589334
            ],
            [
              149.06354965212,
              -35.4778260730155
            ],
            [
              149.064228010072,
              -35.4783045902943
            ],
            [
              149.064748668829,
              -35.478723964947
            ],
            [
              149.06557580655,
              -35.4793927461355
            ],
            [
              149.065943769723,
              -35.4799688206798
            ],
            [
              149.066235627882,
              -35.4807375221859
            ],
            [
              149.066339607022,
              -35.4814714349094
            ],
            [
              149.066392613702,
              -35.4824204950446
            ],
            [
              149.066404004193,
              -35.4832591732386
            ],
            [
              149.066555915571,
              -35.4839885565158
            ],
            [
              149.066835816384,
              -35.4849567046033
            ],
            [
              149.067138595647,
              -35.4858600418536
            ],
            [
              149.067377981016,
              -35.4863972401558
            ],
            [
              149.067760551326,
              -35.4868448762365
            ],
            [
              149.068470000252,
              -35.4876601422566
            ],
            [
              149.068981515326,
              -35.488119517738
            ],
            [
              149.069478598956,
              -35.4887230937308
            ],
            [
              149.070204587929,
              -35.4896549613728
            ],
            [
              149.070512734961,
              -35.4907328550285
            ],
            [
              149.070479641378,
              -35.4915602888467
            ],
            [
              149.070270237786,
              -35.4922499247191
            ],
            [
              149.070153751777,
              -35.4928250572156
            ],
            [
              149.069838072649,
              -35.4934639160737
            ],
            [
              149.069427149831,
              -35.4940685746375
            ],
            [
              149.068952309218,
              -35.4945305985944
            ],
            [
              149.068499838757,
              -35.494997206927
            ],
            [
              149.067727645545,
              -35.4954341378029
            ],
            [
              149.066699915826,
              -35.4960694552918
            ],
            [
              149.06594648632,
              -35.4968910087264
            ],
            [
              149.06567190128,
              -35.4978994305252
            ],
            [
              149.065812196753,
              -35.4988507003921
            ],
            [
              149.066118033998,
              -35.4998120765191
            ],
            [
              149.066597753417,
              -35.5007231698222
            ],
            [
              149.067068833394,
              -35.5017142951525
            ],
            [
              149.067333422619,
              -35.502445874025
            ],
            [
              149.067679561131,
              -35.5030084334793
            ],
            [
              149.067776367402,
              -35.5035198317942
            ],
            [
              149.068147350142,
              -35.5042862354885
            ],
            [
              149.068406466128,
              -35.5048921836467
            ],
            [
              149.068740810073,
              -35.5057273660496
            ],
            [
              149.069240710486,
              -35.5065675116161
            ],
            [
              149.069819241892,
              -35.5073067688298
            ],
            [
              149.070062326543,
              -35.5076716431768
            ],
            [
              149.07065776924,
              -35.5084543272269
            ],
            [
              149.071224929548,
              -35.509278658784
            ],
            [
              149.071713619025,
              -35.5100978918103
            ],
            [
              149.072557436798,
              -35.5114544272534
            ],
            [
              149.07282018089,
              -35.5118378514995
            ],
            [
              149.073247557062,
              -35.512581677408
            ],
            [
              149.074050535735,
              -35.5133923513574
            ],
            [
              149.074651836019,
              -35.5142301669322
            ],
            [
              149.075022724455,
              -35.5151458797534
            ],
            [
              149.075161832781,
              -35.5156853668489
            ],
            [
              149.075065743711,
              -35.5159946293487
            ],
            [
              149.075255169042,
              -35.5165955529227
            ],
            [
              149.07543043108,
              -35.5172635343673
            ],
            [
              149.075734785495,
              -35.5178051837733
            ],
            [
              149.076010956394,
              -35.5185192518608
            ],
            [
              149.076146580738,
              -35.5193635329679
            ],
            [
              149.076215282801,
              -35.5199267601815
            ],
            [
              149.07563357178,
              -35.5201934825824
            ],
            [
              149.074917930374,
              -35.5206096085255
            ],
            [
              149.07445671449,
              -35.520897078797
            ],
            [
              149.074155675224,
              -35.5213281154288
            ],
            [
              149.074042348615,
              -35.5217366111081
            ],
            [
              149.074030374658,
              -35.5223387250114
            ],
            [
              149.073993272165,
              -35.5229481520628
            ],
            [
              149.074135544825,
              -35.5235773096543
            ],
            [
              149.07427237704,
              -35.5242914558439
            ],
            [
              149.074263655431,
              -35.5249606182677
            ],
            [
              149.073985128806,
              -35.5254423815493
            ],
            [
              149.073361943816,
              -35.525878635635
            ],
            [
              149.072993233036,
              -35.5262252609375
            ],
            [
              149.072985877528,
              -35.526543486352
            ],
            [
              149.073166380312,
              -35.5268638660342
            ],
            [
              149.073406347007,
              -35.5273741013908
            ],
            [
              149.073946117156,
              -35.5279364470249
            ],
            [
              149.074398677654,
              -35.5283474316825
            ],
            [
              149.07477214865,
              -35.5285640634342
            ],
            [
              149.075155194586,
              -35.5291631687193
            ],
            [
              149.075557938987,
              -35.5297121533544
            ],
            [
              149.075571554279,
              -35.5304494352309
            ],
            [
              149.075492319873,
              -35.5310291454736
            ],
            [
              149.075396510785,
              -35.5317005177006
            ],
            [
              149.07520250529,
              -35.5322847960892
            ],
            [
              149.074802274134,
              -35.5325361846269
            ],
            [
              149.075004462707,
              -35.5327890479394
            ],
            [
              149.074791484942,
              -35.5330978318045
            ],
            [
              149.074551738828,
              -35.5334375420727
            ],
            [
              149.074043816691,
              -35.5337324248032
            ],
            [
              149.073280777357,
              -35.5339068575026
            ],
            [
              149.072484853028,
              -35.5339079082417
            ],
            [
              149.071569126757,
              -35.533681366146
            ],
            [
              149.070831410879,
              -35.5336721015678
            ],
            [
              149.070639976686,
              -35.5342068038423
            ],
            [
              149.070692969408,
              -35.5348792677457
            ],
            [
              149.07059338178,
              -35.5352787400549
            ],
            [
              149.070653191219,
              -35.5354140377943
            ],
            [
              149.057503615005,
              -35.5335909566971
            ],
            [
              149.058456733442,
              -35.5289112569861
            ],
            [
              149.04958826852,
              -35.527703628624
            ],
            [
              149.050396393234,
              -35.5237458327848
            ],
            [
              149.046134411466,
              -35.5231408954614
            ],
            [
              149.039565353222,
              -35.5222577286838
            ],
            [
              149.030162369774,
              -35.5209906059013
            ],
            [
              149.030144400065,
              -35.5210800568185
            ],
            [
              149.022920750405,
              -35.5201005011215
            ],
            [
              149.021733741985,
              -35.519307283491
            ],
            [
              149.017270096804,
              -35.5158976298558
            ],
            [
              149.015321438443,
              -35.5134550380474
            ],
            [
              149.0128752904,
              -35.5127307129878
            ],
            [
              149.010723928701,
              -35.5110985961941
            ],
            [
              149.008458725908,
              -35.5084776142527
            ],
            [
              149.005636440801,
              -35.5080980511468
            ],
            [
              149.005326081632,
              -35.5096407725497
            ],
            [
              149.003680821706,
              -35.509419473285
            ],
            [
              149.002873456362,
              -35.5134393124068
            ],
            [
              149.000969955525,
              -35.5131832481814
            ],
            [
              148.998642146416,
              -35.5112340206519
            ],
            [
              148.998409646713,
              -35.511272810142
            ],
            [
              148.998263804554,
              -35.512003152345
            ],
            [
              148.993580802212,
              -35.5113778862165
            ],
            [
              148.994295264687,
              -35.5078009533672
            ],
            [
              148.991011467015,
              -35.5073622573464
            ],
            [
              148.99065434035,
              -35.5091471537602
            ],
            [
              148.98959843455,
              -35.5144417617473
            ],
            [
              148.960446090195,
              -35.5106236962026
            ],
            [
              148.959635416944,
              -35.5144114128691
            ]
          ]
        ]
      },
      "properties": {
        "OBJECTID": 54,
        "DISTRICT_CODE": 16,
        "DISTRICT_NAME": "PADDYS RIVER",
        "DISTRICT_SHORT": "PADD",
        "ID": 12,
        "LAST_UPDATE_DATE": "Mon, 17 May 1993 00:00:00 GMT",
        "GlobalID": "b6959b0b-837c-4a3c-ab13-fb05cfed9f40"
      }
    }
}