{
  "type": "FeatureCollection",
  "crs": {
    "type": "name",
    "properties": {
      "name": "EPSG:4326"
    }
  },
  "features": 
    {
      "type": "Feature",
      "id": 53,
      "geometry": {
        "type": "Polygon",
        "coordinates": [
          [
            [
              149.006395681,
              -35.7426109136816
            ],
            [
              149.004120465561,
              -35.753258997353
            ],
            [
              148.994407606961,
              -35.7518817615451
            ],
            [
              148.992817293236,
              -35.7593313434741
            ],
            [
              148.991094980725,
              -35.7590870406269
            ],
            [
              148.987995931323,
              -35.7735985174664
            ],
            [
              148.97699642096,
              -35.7720376606837
            ],
            [
              148.973788523378,
              -35.7870434751214
            ],
            [
              148.963267397713,
              -35.7855494983918
            ],
            [
              148.960595943995,
              -35.8064447073398
            ],
            [
              148.960255317974,
              -35.8070944549978
            ],
            [
              148.958876491607,
              -35.8075033805268
            ],
            [
              148.958121019773,
              -35.8076325609443
            ],
            [
              148.9571398378,
              -35.8072835619486
            ],
            [
              148.956139470882,
              -35.8071822807638
            ],
            [
              148.954616142915,
              -35.8067788589562
            ],
            [
              148.951275153306,
              -35.8064213247548
            ],
            [
              148.949297521142,
              -35.8064445945922
            ],
            [
              148.947693539835,
              -35.80639647057
            ],
            [
              148.945522989674,
              -35.8068087090228
            ],
            [
              148.944807508426,
              -35.8071277051095
            ],
            [
              148.943133612276,
              -35.8071938424813
            ],
            [
              148.941879966545,
              -35.8067768898611
            ],
            [
              148.940639950985,
              -35.8059640435288
            ],
            [
              148.938449020253,
              -35.8057543278249
            ],
            [
              148.937094801274,
              -35.8055248014814
            ],
            [
              148.935547328234,
              -35.8054101326837
            ],
            [
              148.934036733322,
              -35.8054925550535
            ],
            [
              148.933365051108,
              -35.8052048350076
            ],
            [
              148.932599697322,
              -35.8044305045158
            ],
            [
              148.932168410083,
              -35.803582577688
            ],
            [
              148.931442627681,
              -35.802982282742
            ],
            [
              148.930910597046,
              -35.8024569090292
            ],
            [
              148.93073346381,
              -35.8016952940191
            ],
            [
              148.93025012149,
              -35.8010568506641
            ],
            [
              148.929250289894,
              -35.8008646876446
            ],
            [
              148.927938633214,
              -35.8004442158904
            ],
            [
              148.926603583422,
              -35.8000873376402
            ],
            [
              148.925320909391,
              -35.7993762266098
            ],
            [
              148.927022754427,
              -35.7983438386461
            ],
            [
              148.926691224817,
              -35.7976029293833
            ],
            [
              148.926365225201,
              -35.7964430630373
            ],
            [
              148.926011360343,
              -35.7953884343583
            ],
            [
              148.924323652559,
              -35.7948278887664
            ],
            [
              148.923413850538,
              -35.794011130843
            ],
            [
              148.922678250522,
              -35.7932220676026
            ],
            [
              148.921492355829,
              -35.7925470323258
            ],
            [
              148.920723045733,
              -35.7916643896755
            ],
            [
              148.920067227897,
              -35.7905920374849
            ],
            [
              148.919299026684,
              -35.7899336002934
            ],
            [
              148.91814609912,
              -35.7892236798962
            ],
            [
              148.916903865816,
              -35.787999915358
            ],
            [
              148.91795089808,
              -35.7868894664948
            ],
            [
              148.918532903662,
              -35.7860017007124
            ],
            [
              148.918402769363,
              -35.7852839898619
            ],
            [
              148.917730625568,
              -35.7840539031111
            ],
            [
              148.917854218232,
              -35.7827517866815
            ],
            [
              148.9173368921,
              -35.781464950387
            ],
            [
              148.915630330528,
              -35.7793672966252
            ],
            [
              148.913975562079,
              -35.7774988302954
            ],
            [
              148.91241126584,
              -35.7755009135336
            ],
            [
              148.911415624347,
              -35.7742626882321
            ],
            [
              148.910819957111,
              -35.773322085322
            ],
            [
              148.91004909324,
              -35.772002475314
            ],
            [
              148.909523169786,
              -35.7707346119524
            ],
            [
              148.909173974933,
              -35.7688694070588
            ],
            [
              148.909377440276,
              -35.7681605229156
            ],
            [
              148.909150808911,
              -35.7675030084538
            ],
            [
              148.910175251344,
              -35.7666454776847
            ],
            [
              148.911039261794,
              -35.7658519704785
            ],
            [
              148.910806592847,
              -35.7652423977759
            ],
            [
              148.909853022743,
              -35.7644378437739
            ],
            [
              148.90951223083,
              -35.763561787498
            ],
            [
              148.909138178154,
              -35.7620586563994
            ],
            [
              148.90870895617,
              -35.7614416153999
            ],
            [
              148.90802705772,
              -35.7602441762563
            ],
            [
              148.907159992011,
              -35.7595613329561
            ],
            [
              148.905912250263,
              -35.7586365489867
            ],
            [
              148.90466778082,
              -35.7581904657917
            ],
            [
              148.903450902951,
              -35.75729163726
            ],
            [
              148.903106551022,
              -35.7570891064408
            ],
            [
              148.903096487653,
              -35.7570812966987
            ],
            [
              148.902899635095,
              -35.7565675449766
            ],
            [
              148.902492309303,
              -35.7560904838041
            ],
            [
              148.901401558714,
              -35.7551885993402
            ],
            [
              148.901204180295,
              -35.7550985710088
            ],
            [
              148.89920746082,
              -35.7519177190163
            ],
            [
              148.898822953357,
              -35.7513028688231
            ],
            [
              148.897512524622,
              -35.7510204887452
            ],
            [
              148.895127286342,
              -35.7514829810133
            ],
            [
              148.894099487066,
              -35.7513380129602
            ],
            [
              148.893412859751,
              -35.7484900771888
            ],
            [
              148.8930016271,
              -35.7460981131386
            ],
            [
              148.891762300878,
              -35.7442392598136
            ],
            [
              148.89091367544,
              -35.7406764606944
            ],
            [
              148.890358750617,
              -35.7394842932367
            ],
            [
              148.888327800599,
              -35.7373347035923
            ],
            [
              148.888074353189,
              -35.7370574775274
            ],
            [
              148.888049697534,
              -35.7357364531654
            ],
            [
              148.888376040928,
              -35.7336952081026
            ],
            [
              148.89247411435,
              -35.7304662044716
            ],
            [
              148.89230666502,
              -35.7284204135847
            ],
            [
              148.890599502326,
              -35.7248031553898
            ],
            [
              148.889368427872,
              -35.7227867478347
            ],
            [
              148.888193325721,
              -35.7219093040355
            ],
            [
              148.887270730827,
              -35.7205997213322
            ],
            [
              148.886706192419,
              -35.7192379589309
            ],
            [
              148.885661509962,
              -35.7184324835981
            ],
            [
              148.886105684002,
              -35.7183475452573
            ],
            [
              148.88759173384,
              -35.7182403746479
            ],
            [
              148.89000225288,
              -35.7177831807084
            ],
            [
              148.892159514136,
              -35.7172918971026
            ],
            [
              148.893034472797,
              -35.7172358808409
            ],
            [
              148.893743530458,
              -35.7167419892834
            ],
            [
              148.894051964982,
              -35.7155053961876
            ],
            [
              148.895573757144,
              -35.7139185790228
            ],
            [
              148.896485423271,
              -35.7122527685897
            ],
            [
              148.896372491258,
              -35.711393103429
            ],
            [
              148.895910724238,
              -35.7106880240322
            ],
            [
              148.894730084639,
              -35.7097468692536
            ],
            [
              148.893703270133,
              -35.7089663526874
            ],
            [
              148.892749554879,
              -35.7080045784009
            ],
            [
              148.891935124547,
              -35.7069386638312
            ],
            [
              148.891533161572,
              -35.7058826998389
            ],
            [
              148.891300940489,
              -35.7039145313749
            ],
            [
              148.891482357464,
              -35.7020407619637
            ],
            [
              148.892085034919,
              -35.7003938737705
            ],
            [
              148.892801656443,
              -35.6990827877759
            ],
            [
              148.893079688751,
              -35.6985079132152
            ],
            [
              148.89328399357,
              -35.6978789850498
            ],
            [
              148.892382970466,
              -35.6972422283594
            ],
            [
              148.891228643626,
              -35.6967499483174
            ],
            [
              148.889736310179,
              -35.6961571090391
            ],
            [
              148.889985231239,
              -35.6957016210231
            ],
            [
              148.890879699337,
              -35.6950688726361
            ],
            [
              148.891717514974,
              -35.6944884216941
            ],
            [
              148.892120660957,
              -35.6939441319957
            ],
            [
              148.891825682264,
              -35.6935011757507
            ],
            [
              148.89194188135,
              -35.6928360255882
            ],
            [
              148.892759917979,
              -35.691781337408
            ],
            [
              148.894033525512,
              -35.6908690204065
            ],
            [
              148.896143816655,
              -35.6895490565344
            ],
            [
              148.89822907437,
              -35.68830734561
            ],
            [
              148.900600615507,
              -35.68704837463
            ],
            [
              148.902961668383,
              -35.6858946967251
            ],
            [
              148.903682511199,
              -35.6854216621031
            ],
            [
              148.903968904094,
              -35.6850287201403
            ],
            [
              148.903706001409,
              -35.6847801190714
            ],
            [
              148.902984937814,
              -35.6844263039499
            ],
            [
              148.902407415347,
              -35.6841199258596
            ],
            [
              148.901561184817,
              -35.6835401506902
            ],
            [
              148.901065712867,
              -35.6829308551974
            ],
            [
              148.899951844189,
              -35.6813950157037
            ],
            [
              148.899605087132,
              -35.68077404451
            ],
            [
              148.89896148565,
              -35.6798744192137
            ],
            [
              148.898178752817,
              -35.6787173690721
            ],
            [
              148.897918859554,
              -35.6780795304185
            ],
            [
              148.897819113188,
              -35.6774503101103
            ],
            [
              148.898232557273,
              -35.6771938502877
            ],
            [
              148.897451903867,
              -35.6763139164551
            ],
            [
              148.896571274977,
              -35.6756169176155
            ],
            [
              148.895882907629,
              -35.6754968616454
            ],
            [
              148.895073997614,
              -35.6754087705036
            ],
            [
              148.894014821727,
              -35.6752376137111
            ],
            [
              148.893153034491,
              -35.6748290822956
            ],
            [
              148.892000173552,
              -35.6740810488186
            ],
            [
              148.891365003116,
              -35.6735504325418
            ],
            [
              148.890896743669,
              -35.6724077010693
            ],
            [
              148.890316182375,
              -35.6716343487623
            ],
            [
              148.889931301654,
              -35.671179942592
            ],
            [
              148.889459204712,
              -35.6702642139162
            ],
            [
              148.889257828297,
              -35.6695548575005
            ],
            [
              148.888450169041,
              -35.6688280414409
            ],
            [
              148.887814149456,
              -35.6681717772919
            ],
            [
              148.886941120543,
              -35.667312498915
            ],
            [
              148.886790890195,
              -35.6666854700594
            ],
            [
              148.886914651577,
              -35.6654807799558
            ],
            [
              148.887132746999,
              -35.6649825466344
            ],
            [
              148.887028562266,
              -35.6632746638979
            ],
            [
              148.886597570493,
              -35.6626101294886
            ],
            [
              148.885419902369,
              -35.6611321225715
            ],
            [
              148.884555292367,
              -35.6602496740044
            ],
            [
              148.884059208035,
              -35.6595006199443
            ],
            [
              148.883579207402,
              -35.6590630358047
            ],
            [
              148.882726864109,
              -35.6579221210144
            ],
            [
              148.881964046456,
              -35.6563272689565
            ],
            [
              148.882692510795,
              -35.6549222511743
            ],
            [
              148.883034413782,
              -35.65363379929
            ],
            [
              148.883116504711,
              -35.652900576429
            ],
            [
              148.880396568725,
              -35.6506480197829
            ],
            [
              148.878920518601,
              -35.6501919528309
            ],
            [
              148.87706137431,
              -35.6499235289362
            ],
            [
              148.875546679834,
              -35.6491557424627
            ],
            [
              148.875033139243,
              -35.6483064168563
            ],
            [
              148.875855362265,
              -35.6470501510492
            ],
            [
              148.876955416201,
              -35.6454167607733
            ],
            [
              148.877760754242,
              -35.6445914194059
            ],
            [
              148.878050282672,
              -35.6438228268674
            ],
            [
              148.877979740093,
              -35.6433468236967
            ],
            [
              148.876202067745,
              -35.6426469789737
            ],
            [
              148.875476176121,
              -35.6419128638596
            ],
            [
              148.875421593718,
              -35.6408802922587
            ],
            [
              148.875348066338,
              -35.6400871498442
            ],
            [
              148.875446882986,
              -35.6396851418042
            ],
            [
              148.874957712955,
              -35.6393500691537
            ],
            [
              148.874323547338,
              -35.6387804294058
            ],
            [
              148.873655401813,
              -35.638333040725
            ],
            [
              148.874753135548,
              -35.6379067403607
            ],
            [
              148.874885705859,
              -35.6376528389202
            ],
            [
              148.874462049592,
              -35.6366407613155
            ],
            [
              148.874487747427,
              -35.6359322620942
            ],
            [
              148.874182863357,
              -35.635262234796
            ],
            [
              148.873145256259,
              -35.6342989377665
            ],
            [
              148.873742877984,
              -35.6341267611094
            ],
            [
              148.874754232553,
              -35.6328414229424
            ],
            [
              148.874702197172,
              -35.6318793272608
            ],
            [
              148.876185319237,
              -35.6313148377106
            ],
            [
              148.876499545267,
              -35.6310104873048
            ],
            [
              148.876386784147,
              -35.630244337031
            ],
            [
              148.877170328338,
              -35.6300964997818
            ],
            [
              148.878272370734,
              -35.6297226225563
            ],
            [
              148.879298627622,
              -35.6304024335528
            ],
            [
              148.880552156996,
              -35.630758044605
            ],
            [
              148.882397125917,
              -35.6309228518108
            ],
            [
              148.885136229589,
              -35.6313080888429
            ],
            [
              148.887146970517,
              -35.6304184918945
            ],
            [
              148.888372602197,
              -35.6300457285912
            ],
            [
              148.889294072535,
              -35.6296242541081
            ],
            [
              148.889878244613,
              -35.6293189652041
            ],
            [
              148.890235792545,
              -35.6301298656143
            ],
            [
              148.890356957707,
              -35.6307518179908
            ],
            [
              148.890296669753,
              -35.6312846421784
            ],
            [
              148.890700825792,
              -35.6318640662898
            ],
            [
              148.891100570826,
              -35.6325194564715
            ],
            [
              148.891887188128,
              -35.6326819025575
            ],
            [
              148.892332388739,
              -35.6332128762264
            ],
            [
              148.893624997047,
              -35.6332563912716
            ],
            [
              148.894541607283,
              -35.6334606709135
            ],
            [
              148.894722362865,
              -35.6339693936063
            ],
            [
              148.894561783451,
              -35.6344047037164
            ],
            [
              148.894817868279,
              -35.635041379354
            ],
            [
              148.895894580409,
              -35.6360207482112
            ],
            [
              148.897352955569,
              -35.6365257070995
            ],
            [
              148.898782362965,
              -35.6368362317727
            ],
            [
              148.899999395311,
              -35.6368924964726
            ],
            [
              148.901488961728,
              -35.6366454669351
            ],
            [
              148.903348166985,
              -35.6371157451673
            ],
            [
              148.904150747964,
              -35.6377022329012
            ],
            [
              148.90537617455,
              -35.6374267169546
            ],
            [
              148.906356022113,
              -35.6369336074997
            ],
            [
              148.907300979886,
              -35.6365210282084
            ],
            [
              148.909182653728,
              -35.6369687049613
            ],
            [
              148.910768983937,
              -35.6369227007129
            ],
            [
              148.910908580399,
              -35.6354369060505
            ],
            [
              148.912021203263,
              -35.6346442075558
            ],
            [
              148.912658634827,
              -35.6339806221066
            ],
            [
              148.912995236047,
              -35.6326781070206
            ],
            [
              148.915469752327,
              -35.6327544114289
            ],
            [
              148.91694761666,
              -35.633358822069
            ],
            [
              148.917730595341,
              -35.6337649630105
            ],
            [
              148.918427542997,
              -35.6344041764057
            ],
            [
              148.918528908892,
              -35.6350638462424
            ],
            [
              148.918115783851,
              -35.6358718257799
            ],
            [
              148.918453861206,
              -35.636411633188
            ],
            [
              148.918391312752,
              -35.6373460465797
            ],
            [
              148.919802338859,
              -35.6381880201863
            ],
            [
              148.920950530297,
              -35.6389346163946
            ],
            [
              148.921722152838,
              -35.6396989518285
            ],
            [
              148.923401353183,
              -35.6407044658452
            ],
            [
              148.924691532145,
              -35.6415074524021
            ],
            [
              148.925631831497,
              -35.642135619441
            ],
            [
              148.926121425978,
              -35.6424940981072
            ],
            [
              148.927345055716,
              -35.6424633950922
            ],
            [
              148.928370729907,
              -35.6427621175776
            ],
            [
              148.929336657168,
              -35.6433096142672
            ],
            [
              148.930057269527,
              -35.6440880117207
            ],
            [
              148.931878413583,
              -35.6449951069323
            ],
            [
              148.952850467526,
              -35.6279658128668
            ],
            [
              148.953820915293,
              -35.623492261266
            ],
            [
              148.973722057464,
              -35.6263683477793
            ],
            [
              148.980508531075,
              -35.6293294343766
            ],
            [
              148.980386487464,
              -35.6302304028492
            ],
            [
              148.980950307078,
              -35.6345569973635
            ],
            [
              148.981095041326,
              -35.6360025153485
            ],
            [
              148.982088515809,
              -35.6369785874522
            ],
            [
              148.982863207223,
              -35.6376279916362
            ],
            [
              148.983564486165,
              -35.6393481535673
            ],
            [
              148.985100335814,
              -35.6409315262912
            ],
            [
              148.986723098291,
              -35.6425653751399
            ],
            [
              148.98676180085,
              -35.6433358896243
            ],
            [
              148.986795140405,
              -35.6435185764144
            ],
            [
              148.987008041337,
              -35.6442805349423
            ],
            [
              148.987377806211,
              -35.6450748231955
            ],
            [
              148.987204924191,
              -35.6457277203245
            ],
            [
              148.986825186853,
              -35.6464064956248
            ],
            [
              148.98673728319,
              -35.6465401750491
            ],
            [
              148.986651376241,
              -35.6467210423822
            ],
            [
              148.986583289873,
              -35.6470287367148
            ],
            [
              148.986420642658,
              -35.6476472962204
            ],
            [
              148.986302428324,
              -35.649053790567
            ],
            [
              148.98638728756,
              -35.6495390825732
            ],
            [
              148.987036836031,
              -35.6499722809442
            ],
            [
              148.988807690933,
              -35.6514362024769
            ],
            [
              148.989286453876,
              -35.6517762621701
            ],
            [
              148.98949329961,
              -35.6526403558194
            ],
            [
              148.989899443714,
              -35.6546500125441
            ],
            [
              148.989309550339,
              -35.6558577566403
            ],
            [
              148.989040469162,
              -35.656673828311
            ],
            [
              148.988941024662,
              -35.6566865035501
            ],
            [
              148.988650181202,
              -35.6573763791708
            ],
            [
              148.989121238554,
              -35.658484550149
            ],
            [
              148.989113356002,
              -35.658759656761
            ],
            [
              148.989222340485,
              -35.6587892081235
            ],
            [
              148.989672869046,
              -35.6595631756724
            ],
            [
              148.989995948248,
              -35.6598887161724
            ],
            [
              148.991087758255,
              -35.6607608482569
            ],
            [
              148.991628979448,
              -35.6611991879297
            ],
            [
              148.992323461877,
              -35.6617437183472
            ],
            [
              148.99201557769,
              -35.6652172412011
            ],
            [
              148.991280129745,
              -35.6655086101485
            ],
            [
              148.991297748701,
              -35.6662173140378
            ],
            [
              148.992531166336,
              -35.6669902187755
            ],
            [
              148.993580751943,
              -35.6701874020365
            ],
            [
              148.994341104021,
              -35.6701573354877
            ],
            [
              148.995258752612,
              -35.6702014248296
            ],
            [
              148.995752031491,
              -35.6699238215532
            ],
            [
              148.996031766935,
              -35.6706583321694
            ],
            [
              148.996046109806,
              -35.6707405235924
            ],
            [
              148.996104091978,
              -35.6714136369384
            ],
            [
              148.996205090683,
              -35.6724280407707
            ],
            [
              148.996257222947,
              -35.6730898878671
            ],
            [
              148.995958483796,
              -35.6736559001036
            ],
            [
              148.995628917475,
              -35.6742726443887
            ],
            [
              148.995355767846,
              -35.6749851023745
            ],
            [
              148.995828196208,
              -35.6753918682409
            ],
            [
              148.996434754637,
              -35.6755400923795
            ],
            [
              148.997139940583,
              -35.6757332935078
            ],
            [
              148.997702074721,
              -35.6760854487666
            ],
            [
              148.997837765461,
              -35.6764419764452
            ],
            [
              148.997631359003,
              -35.6770333244485
            ],
            [
              148.997848980507,
              -35.6775622596502
            ],
            [
              148.998301780731,
              -35.6779300821831
            ],
            [
              148.998547448691,
              -35.6785846464142
            ],
            [
              148.998243585392,
              -35.6794367940752
            ],
            [
              148.997770535779,
              -35.6800264950135
            ],
            [
              148.997480064729,
              -35.680597015995
            ],
            [
              148.997526361858,
              -35.6812335379174
            ],
            [
              148.997684677805,
              -35.6817758956876
            ],
            [
              148.998146212583,
              -35.68224970006
            ],
            [
              148.998658848227,
              -35.683073173359
            ],
            [
              148.999236529005,
              -35.6841073502534
            ],
            [
              148.999571912203,
              -35.6848103134016
            ],
            [
              148.999593771684,
              -35.6858061400692
            ],
            [
              148.999690045904,
              -35.6862206997332
            ],
            [
              149.000167765774,
              -35.686522098147
            ],
            [
              149.0004043319,
              -35.6869456792066
            ],
            [
              149.000253919436,
              -35.6875663244262
            ],
            [
              149.000787871746,
              -35.6879026907768
            ],
            [
              149.001417702971,
              -35.6883481968381
            ],
            [
              149.001864829101,
              -35.6888010777312
            ],
            [
              149.00229824896,
              -35.6893868830959
            ],
            [
              149.002588719999,
              -35.6900920874554
            ],
            [
              149.002292272278,
              -35.6907702227729
            ],
            [
              149.001608295616,
              -35.6913847080831
            ],
            [
              149.000907624129,
              -35.6920245116813
            ],
            [
              149.000338729574,
              -35.6927026217479
            ],
            [
              148.999781317528,
              -35.6933694656987
            ],
            [
              148.999066483851,
              -35.6939292306094
            ],
            [
              148.99871930181,
              -35.6944699193405
            ],
            [
              148.998946479947,
              -35.6950000239723
            ],
            [
              148.999660211258,
              -35.6954236467698
            ],
            [
              149.000536504528,
              -35.6954428191311
            ],
            [
              149.00137381166,
              -35.6953589760957
            ],
            [
              149.00238645639,
              -35.6951129219551
            ],
            [
              149.002510753994,
              -35.6949692786766
            ],
            [
              149.002858411521,
              -35.6950824882614
            ],
            [
              149.003179646928,
              -35.6954390187432
            ],
            [
              149.003337037013,
              -35.6959460404643
            ],
            [
              149.003374872827,
              -35.6967204422082
            ],
            [
              149.003645965952,
              -35.6969964914291
            ],
            [
              149.004130618701,
              -35.6972206413192
            ],
            [
              149.00487203922,
              -35.6972550974978
            ],
            [
              149.005576666418,
              -35.6973610118897
            ],
            [
              149.006375749269,
              -35.6976341873734
            ],
            [
              149.006550290511,
              -35.6981000208192
            ],
            [
              149.006269765105,
              -35.6985393475018
            ],
            [
              149.005680557284,
              -35.6988806146552
            ],
            [
              149.005057983322,
              -35.6991554590752
            ],
            [
              149.004594485162,
              -35.699646594599
            ],
            [
              149.00365007806,
              -35.6997507313835
            ],
            [
              149.002804895006,
              -35.6996949944358
            ],
            [
              149.002256789805,
              -35.6997338044855
            ],
            [
              149.001877793168,
              -35.7002024041339
            ],
            [
              149.00198645024,
              -35.7008304552797
            ],
            [
              149.002268893654,
              -35.7015350277546
            ],
            [
              149.002507721516,
              -35.7020081699921
            ],
            [
              149.002874141227,
              -35.7027426661949
            ],
            [
              149.002984114798,
              -35.7036253039016
            ],
            [
              149.003276956519,
              -35.7044262126089
            ],
            [
              149.003657201827,
              -35.7052024314993
            ],
            [
              149.004081868931,
              -35.7060355169326
            ],
            [
              149.004716610428,
              -35.7065261546232
            ],
            [
              149.005083517467,
              -35.7071811575324
            ],
            [
              149.004973636977,
              -35.7081110977758
            ],
            [
              149.004691595437,
              -35.7091615211544
            ],
            [
              149.00504833597,
              -35.7100610178181
            ],
            [
              149.005372496396,
              -35.7107730629895
            ],
            [
              149.005620528454,
              -35.7115188108336
            ],
            [
              149.00579441199,
              -35.7124154150488
            ],
            [
              149.005935264416,
              -35.7132271256128
            ],
            [
              149.005957455397,
              -35.7136810580926
            ],
            [
              149.005619184818,
              -35.7142544790384
            ],
            [
              149.00515471445,
              -35.7148278039489
            ],
            [
              149.004979090615,
              -35.715459174902
            ],
            [
              149.005252775241,
              -35.7160996636176
            ],
            [
              149.005677965535,
              -35.7167890909137
            ],
            [
              149.006136867636,
              -35.7174740122461
            ],
            [
              149.006627927894,
              -35.7183650349198
            ],
            [
              149.007249837706,
              -35.7194403532123
            ],
            [
              149.007502220356,
              -35.7202964011633
            ],
            [
              149.007345488547,
              -35.721408832352
            ],
            [
              149.007681655098,
              -35.7219400019938
            ],
            [
              149.008041810421,
              -35.7222621825566
            ],
            [
              149.008510270281,
              -35.7227505440042
            ],
            [
              149.008694602926,
              -35.723308113549
            ],
            [
              149.008628731513,
              -35.7238550473658
            ],
            [
              149.008330998303,
              -35.724217775917
            ],
            [
              149.007782609711,
              -35.7246897248746
            ],
            [
              149.007246818207,
              -35.724968546415
            ],
            [
              149.006898247353,
              -35.7249809756988
            ],
            [
              149.006434420393,
              -35.7246440994196
            ],
            [
              149.006167190381,
              -35.7246886111406
            ],
            [
              149.005787768994,
              -35.7250924259414
            ],
            [
              149.005133580529,
              -35.725810565867
            ],
            [
              149.004574420971,
              -35.7266233304574
            ],
            [
              149.004101673871,
              -35.7274822380811
            ],
            [
              149.003646272356,
              -35.7282932913017
            ],
            [
              149.003199261497,
              -35.7290992955637
            ],
            [
              149.002855044487,
              -35.729704788841
            ],
            [
              149.002404283533,
              -35.7302454795409
            ],
            [
              149.002307525527,
              -35.7308058349861
            ],
            [
              149.002353561809,
              -35.731404049797
            ],
            [
              149.002543847087,
              -35.7318697969496
            ],
            [
              149.002483037326,
              -35.7321097805412
            ],
            [
              149.00200466532,
              -35.7322381725158
            ],
            [
              149.001585875533,
              -35.7322724819877
            ],
            [
              149.001103919833,
              -35.7317684127332
            ],
            [
              149.0005872529,
              -35.7313746452158
            ],
            [
              149.000057295306,
              -35.7312619557639
            ],
            [
              148.999604912186,
              -35.7312782314996
            ],
            [
              148.999253319466,
              -35.7313632756452
            ],
            [
              148.999029070676,
              -35.7313024259863
            ],
            [
              148.998758034614,
              -35.7315029174136
            ],
            [
              148.998479110955,
              -35.7319962952961
            ],
            [
              148.998436498325,
              -35.7324356225633
            ],
            [
              148.998511929255,
              -35.7328709962047
            ],
            [
              148.998807780848,
              -35.7331081261104
            ],
            [
              148.998833606326,
              -35.7334015562229
            ],
            [
              148.998425290942,
              -35.7335666184922
            ],
            [
              148.998275395085,
              -35.7337034957561
            ],
            [
              148.998399816061,
              -35.7339580034936
            ],
            [
              148.998395362012,
              -35.7341962780273
            ],
            [
              148.998094832288,
              -35.7341946282202
            ],
            [
              148.997605954128,
              -35.7342311700946
            ],
            [
              148.99695933993,
              -35.7343330300231
            ],
            [
              148.996382574458,
              -35.7344608484124
            ],
            [
              148.99607352561,
              -35.7345053337172
            ],
            [
              148.995858736622,
              -35.7346736524453
            ],
            [
              148.995785497777,
              -35.7350758457477
            ],
            [
              148.995864019181,
              -35.7354678736174
            ],
            [
              148.99600523328,
              -35.7357342811741
            ],
            [
              148.996014700151,
              -35.7359674207042
            ],
            [
              148.995749389554,
              -35.7361634898591
            ],
            [
              148.995599145489,
              -35.7363436216515
            ],
            [
              148.995848607171,
              -35.7364061919444
            ],
            [
              148.995808011757,
              -35.7365824607567
            ],
            [
              148.995551892128,
              -35.7366657919883
            ],
            [
              148.995454584727,
              -35.7368877446572
            ],
            [
              148.995475096847,
              -35.7371598161523
            ],
            [
              148.995527124788,
              -35.7373524068538
            ],
            [
              148.995747952239,
              -35.7374657123239
            ],
            [
              148.995508177787,
              -35.7376160030518
            ],
            [
              148.995288304336,
              -35.7377314201557
            ],
            [
              148.995348057699,
              -35.7379950258702
            ],
            [
              148.995326571331,
              -35.738240057149
            ],
            [
              148.995530826449,
              -35.7383211881101
            ],
            [
              148.995475057708,
              -35.7386551636084
            ],
            [
              148.995543890386,
              -35.738838293164
            ],
            [
              148.995652751247,
              -35.7389396903095
            ],
            [
              148.995571672693,
              -35.7392618566126
            ],
            [
              148.995378853802,
              -35.739503443862
            ],
            [
              148.995337578583,
              -35.7397642435956
            ],
            [
              148.995086406418,
              -35.7399348098481
            ],
            [
              148.994825814534,
              -35.7402378488053
            ],
            [
              148.994618499472,
              -35.7405459406259
            ],
            [
              148.994294026863,
              -35.7407689454216
            ],
            [
              148.994012894764,
              -35.7408549536869
            ],
            [
              149.006395681,
              -35.7426109136816
            ]
          ]
        ]
      },
      "properties": {
        "OBJECTID": 53,
        "DISTRICT_CODE": 15,
        "DISTRICT_NAME": "RENDEZVOUS CREEK",
        "DISTRICT_SHORT": "REND",
        "ID": 100,
        "LAST_UPDATE_DATE": "Wed, 02 Jan 2013 12:34:10 GMT",
        "GlobalID": "45756111-d2ef-4128-99c7-81d0e9aee23b"
      }
    }
}