{
  "type": "FeatureCollection",
  "crs": {
    "type": "name",
    "properties": {
      "name": "EPSG:4326"
    }
  },
  "features": [
    {
      "type": "Feature",
      "id": 43,
      "geometry": {
        "type": "Polygon",
        "coordinates": [
          [
            [
              149.097602178805,
              -35.2601963123403
            ],
            [
              149.096461143418,
              -35.2600425643851
            ],
            [
              149.095340528542,
              -35.2598086728546
            ],
            [
              149.094248686152,
              -35.2594963808638
            ],
            [
              149.093193753549,
              -35.259108015844
            ],
            [
              149.092183592656,
              -35.2586464721796
            ],
            [
              149.091225731367,
              -35.2581151896156
            ],
            [
              149.09032730741,
              -35.2575181275965
            ],
            [
              149.089495015122,
              -35.2568597357299
            ],
            [
              149.088438721291,
              -35.2576727610141
            ],
            [
              149.088121319993,
              -35.2579409066789
            ],
            [
              149.087836007043,
              -35.2582323070198
            ],
            [
              149.087585302431,
              -35.2585443886631
            ],
            [
              149.087371420594,
              -35.2588743955641
            ],
            [
              149.087196250852,
              -35.2592194133401
            ],
            [
              149.087061340708,
              -35.2595763950036
            ],
            [
              149.086280400184,
              -35.2620432947924
            ],
            [
              149.086106009239,
              -35.2627039354096
            ],
            [
              149.085998318765,
              -35.2633740869052
            ],
            [
              149.085958057162,
              -35.2640492268394
            ],
            [
              149.085985497819,
              -35.2647247989966
            ],
            [
              149.086074503868,
              -35.2653659946737
            ],
            [
              149.086224402358,
              -35.2659995138182
            ],
            [
              149.086434275754,
              -35.2666214727261
            ],
            [
              149.086702838767,
              -35.2672280584777
            ],
            [
              149.087615001876,
              -35.2690611488815
            ],
            [
              149.087887283731,
              -35.2696835313474
            ],
            [
              149.088093382802,
              -35.2703227924159
            ],
            [
              149.088231774497,
              -35.2709742080513
            ],
            [
              149.088301434476,
              -35.2716329642884
            ],
            [
              149.088301846275,
              -35.2722941928004
            ],
            [
              149.088233005163,
              -35.2729530068736
            ],
            [
              149.088095418234,
              -35.2736045375205
            ],
            [
              149.087890100705,
              -35.2742439694651
            ],
            [
              149.086537768774,
              -35.2778229174749
            ],
            [
              149.086423896568,
              -35.2781753570623
            ],
            [
              149.086346037623,
              -35.2785343233853
            ],
            [
              149.086304728184,
              -35.2788973463221
            ],
            [
              149.086300253008,
              -35.279261927803
            ],
            [
              149.086332643384,
              -35.2796255590004
            ],
            [
              149.083645015138,
              -35.2792518903669
            ],
            [
              149.083223168613,
              -35.2791775806558
            ],
            [
              149.082810826332,
              -35.2790734033261
            ],
            [
              149.082411126889,
              -35.2789401513291
            ],
            [
              149.08202711261,
              -35.2787788389209
            ],
            [
              149.078776771503,
              -35.2772631244685
            ],
            [
              149.078192010988,
              -35.2770192798187
            ],
            [
              149.077582093361,
              -35.2768211673847
            ],
            [
              149.07695232314,
              -35.2766705101641
            ],
            [
              149.076308177402,
              -35.2765686184369
            ],
            [
              149.075655258178,
              -35.2765163783759
            ],
            [
              149.075637343722,
              -35.2765156522295
            ],
            [
              149.075619427029,
              -35.276514964194
            ],
            [
              149.07560150822,
              -35.2765143142742
            ],
            [
              149.075533384571,
              -35.2765119126781
            ],
            [
              149.072584220365,
              -35.2763266158061
            ],
            [
              149.069667194715,
              -35.2759252563084
            ],
            [
              149.066805805502,
              -35.2753110665449
            ],
            [
              149.064023101286,
              -35.2744889932863
            ],
            [
              149.061341495139,
              -35.273465657776
            ],
            [
              149.052616734708,
              -35.2697363856562
            ],
            [
              149.052187999957,
              -35.2695650674323
            ],
            [
              149.0517485698,
              -35.2694130664748
            ],
            [
              149.0512997371,
              -35.2692808299854
            ],
            [
              149.050547121178,
              -35.2691078115149
            ],
            [
              149.049778744041,
              -35.2689902937305
            ],
            [
              149.049000677688,
              -35.2689292053513
            ],
            [
              149.048219070639,
              -35.2689250291727
            ],
            [
              149.047440099381,
              -35.2689777982516
            ],
            [
              149.046669919602,
              -35.2690870956445
            ],
            [
              149.042364215253,
              -35.2698611130576
            ],
            [
              149.041757816302,
              -35.2699478420658
            ],
            [
              149.041144563272,
              -35.2699914307663
            ],
            [
              149.040529011024,
              -35.2699915553763
            ],
            [
              149.039915731515,
              -35.2699482149369
            ],
            [
              149.039309279817,
              -35.2698617313214
            ],
            [
              149.038714160265,
              -35.2697327468435
            ],
            [
              149.038134792978,
              -35.2695622194852
            ],
            [
              149.037575481011,
              -35.2693514157777
            ],
            [
              149.037040378378,
              -35.2691019013894
            ],
            [
              149.036533459188,
              -35.2688155294918
            ],
            [
              149.036058488112,
              -35.2684944269879
            ],
            [
              149.035618992423,
              -35.268140978708
            ],
            [
              149.03521823579,
              -35.2677578096888
            ],
            [
              149.034859194045,
              -35.2673477656687
            ],
            [
              149.034544533086,
              -35.2669138919436
            ],
            [
              149.034276589089,
              -35.2664594107426
            ],
            [
              149.034057351177,
              -35.2659876972883
            ],
            [
              149.033999536277,
              -35.2658451252082
            ],
            [
              149.032630963889,
              -35.2673120872543
            ],
            [
              149.026979621756,
              -35.2733674663057
            ],
            [
              149.023903320226,
              -35.2768345347148
            ],
            [
              149.024122836975,
              -35.2779573158104
            ],
            [
              149.021278278905,
              -35.2792139857962
            ],
            [
              149.02184356805,
              -35.2802213434282
            ],
            [
              149.021044498367,
              -35.2803563118376
            ],
            [
              149.020008605366,
              -35.2803839853586
            ],
            [
              149.019504660757,
              -35.2803085933091
            ],
            [
              149.018799234424,
              -35.2800708979728
            ],
            [
              149.018262628085,
              -35.2797927201356
            ],
            [
              149.01769577367,
              -35.2792570517255
            ],
            [
              149.017590081147,
              -35.2785574104204
            ],
            [
              149.017562998439,
              -35.2781029073019
            ],
            [
              149.017719773681,
              -35.2775096864822
            ],
            [
              149.017959400858,
              -35.2767718078142
            ],
            [
              149.018179040021,
              -35.2762242764063
            ],
            [
              149.018284357411,
              -35.2754925357141
            ],
            [
              149.018320880395,
              -35.27480982795
            ],
            [
              149.018365079182,
              -35.2739829181206
            ],
            [
              149.018267285191,
              -35.2731340280422
            ],
            [
              149.017956418895,
              -35.2724761301341
            ],
            [
              149.017262814269,
              -35.2721393758607
            ],
            [
              149.016574375389,
              -35.2717338511549
            ],
            [
              149.016200377938,
              -35.2715468612693
            ],
            [
              149.015779473238,
              -35.2715851881981
            ],
            [
              149.015094383165,
              -35.2717536684186
            ],
            [
              149.014184544998,
              -35.2718612286863
            ],
            [
              149.013501644171,
              -35.2719536331928
            ],
            [
              149.012781805145,
              -35.271820719525
            ],
            [
              149.012010870891,
              -35.271789825238
            ],
            [
              149.01121444238,
              -35.2718517573023
            ],
            [
              149.010631763239,
              -35.2718732144155
            ],
            [
              149.01023151512,
              -35.2719238684116
            ],
            [
              149.009667079449,
              -35.2720382417413
            ],
            [
              149.009160668293,
              -35.2720450016855
            ],
            [
              149.008515014988,
              -35.2721481031014
            ],
            [
              149.007852436623,
              -35.2722263261437
            ],
            [
              149.007399105664,
              -35.2721796335546
            ],
            [
              149.007034140711,
              -35.2719402527461
            ],
            [
              149.006736106383,
              -35.2716546365409
            ],
            [
              149.006536211063,
              -35.2713938076044
            ],
            [
              149.006272136278,
              -35.2711769570737
            ],
            [
              149.00568233973,
              -35.2707043194836
            ],
            [
              149.005109363694,
              -35.270254211114
            ],
            [
              149.004589802038,
              -35.2698092385049
            ],
            [
              149.004344538295,
              -35.2694452990991
            ],
            [
              149.003965421666,
              -35.26914164845
            ],
            [
              149.003608183799,
              -35.2687394884377
            ],
            [
              149.003597011861,
              -35.2682190093816
            ],
            [
              149.0036919964,
              -35.2676867286944
            ],
            [
              149.003618089803,
              -35.2669600386544
            ],
            [
              149.00365988626,
              -35.2664187421627
            ],
            [
              149.003483659455,
              -35.2659039334457
            ],
            [
              149.003270628906,
              -35.2652881805354
            ],
            [
              149.002976288279,
              -35.2646127597742
            ],
            [
              149.002754804537,
              -35.2639903356276
            ],
            [
              149.002603428967,
              -35.2633972071246
            ],
            [
              149.002376130924,
              -35.2627359380889
            ],
            [
              149.002275408756,
              -35.2622368130029
            ],
            [
              149.002172799795,
              -35.2619681403217
            ],
            [
              149.001832664365,
              -35.2612453969726
            ],
            [
              149.001332315913,
              -35.2606110561299
            ],
            [
              149.000782514654,
              -35.2601232555471
            ],
            [
              149.000609916531,
              -35.2598669233004
            ],
            [
              148.999690390738,
              -35.2592382230137
            ],
            [
              148.999154534954,
              -35.2589773529225
            ],
            [
              148.998955450883,
              -35.2588196153101
            ],
            [
              148.998660879262,
              -35.2586866531416
            ],
            [
              148.99788461043,
              -35.2584371122732
            ],
            [
              148.99719382068,
              -35.2582731049125
            ],
            [
              148.996814523885,
              -35.2582195312914
            ],
            [
              148.99658419849,
              -35.2583366717526
            ],
            [
              148.996505483234,
              -35.2585974884376
            ],
            [
              148.996243763951,
              -35.2591883289527
            ],
            [
              148.996114571567,
              -35.2596936524808
            ],
            [
              148.996167092758,
              -35.2603836657399
            ],
            [
              148.996024052358,
              -35.2608888976231
            ],
            [
              148.99606087173,
              -35.2615102324019
            ],
            [
              148.996085631216,
              -35.2619709600002
            ],
            [
              148.996106582735,
              -35.2621917717936
            ],
            [
              148.995839412072,
              -35.262436254878
            ],
            [
              148.995596868132,
              -35.2625927771393
            ],
            [
              148.995478040226,
              -35.2628428633135
            ],
            [
              148.994994745247,
              -35.2629363577688
            ],
            [
              148.994650804256,
              -35.2629238790977
            ],
            [
              148.994269326963,
              -35.2626754447235
            ],
            [
              148.993865864573,
              -35.2624793685746
            ],
            [
              148.993066024058,
              -35.2624043688112
            ],
            [
              148.992630204057,
              -35.2624769513421
            ],
            [
              148.992331100042,
              -35.2624616781895
            ],
            [
              148.992192815089,
              -35.262175507736
            ],
            [
              148.991985300407,
              -35.2619034772159
            ],
            [
              148.991597690392,
              -35.2616166392619
            ],
            [
              148.991219388744,
              -35.2614825647528
            ],
            [
              148.990595160762,
              -35.2613838717348
            ],
            [
              148.990019810087,
              -35.2613809874595
            ],
            [
              148.989381240586,
              -35.2615205792077
            ],
            [
              148.989028884697,
              -35.2617897277257
            ],
            [
              148.988774550378,
              -35.2620375319314
            ],
            [
              148.988511644857,
              -35.2622746988316
            ],
            [
              148.988121279471,
              -35.2624824620422
            ],
            [
              148.987750057141,
              -35.2625938828363
            ],
            [
              148.987397253792,
              -35.2624479946751
            ],
            [
              148.987074906906,
              -35.2622428988453
            ],
            [
              148.986591279105,
              -35.2619352074102
            ],
            [
              148.985823094745,
              -35.2614911888656
            ],
            [
              148.985197706966,
              -35.2612477247979
            ],
            [
              148.984202431893,
              -35.2610841227341
            ],
            [
              148.98326297646,
              -35.2609341342207
            ],
            [
              148.982482372951,
              -35.2605819302309
            ],
            [
              148.982147986062,
              -35.2602929105344
            ],
            [
              148.981926823383,
              -35.259875936707
            ],
            [
              148.981841524837,
              -35.2593165935688
            ],
            [
              148.98161043183,
              -35.259032642966
            ],
            [
              148.981199923498,
              -35.2590156943852
            ],
            [
              148.980729264179,
              -35.2591310355404
            ],
            [
              148.980151440995,
              -35.2593252096149
            ],
            [
              148.979580691082,
              -35.2594011375459
            ],
            [
              148.979026160866,
              -35.2592933885466
            ],
            [
              148.978176908263,
              -35.2583863223932
            ],
            [
              148.978002899259,
              -35.257995308912
            ],
            [
              148.978104983803,
              -35.2574072615003
            ],
            [
              148.978326137296,
              -35.256913876783
            ],
            [
              148.978362553144,
              -35.2562154069918
            ],
            [
              148.977855016455,
              -35.2556869549007
            ],
            [
              148.977329994976,
              -35.2552124821045
            ],
            [
              148.976566889575,
              -35.2552635598588
            ],
            [
              148.975615645895,
              -35.2553844285242
            ],
            [
              148.97437379791,
              -35.2559721501725
            ],
            [
              148.973479152674,
              -35.256040564265
            ],
            [
              148.972792208068,
              -35.2557874638558
            ],
            [
              148.972525366832,
              -35.2554392249588
            ],
            [
              148.972458443822,
              -35.254973431961
            ],
            [
              148.97243956672,
              -35.2546844805113
            ],
            [
              148.972698728973,
              -35.2545104356146
            ],
            [
              148.9728622714,
              -35.2541567392976
            ],
            [
              148.972825891923,
              -35.2536909549419
            ],
            [
              148.972615436695,
              -35.2533111886904
            ],
            [
              148.97207662217,
              -35.2528254235048
            ],
            [
              148.971520767096,
              -35.2521409205301
            ],
            [
              148.971258407333,
              -35.2516434305457
            ],
            [
              148.970906834624,
              -35.2509167205805
            ],
            [
              148.970055257925,
              -35.2497295725466
            ],
            [
              148.969549541405,
              -35.2490427338869
            ],
            [
              148.969190555988,
              -35.2486978809525
            ],
            [
              148.968737445814,
              -35.2485157645323
            ],
            [
              148.968160144523,
              -35.248423730906
            ],
            [
              148.967258386854,
              -35.2481621441318
            ],
            [
              148.966170355146,
              -35.2478028764986
            ],
            [
              148.964550895672,
              -35.2472807259136
            ],
            [
              148.963302107593,
              -35.2468126810736
            ],
            [
              148.962321071044,
              -35.2461538403817
            ],
            [
              148.961817247464,
              -35.2457621337048
            ],
            [
              148.961615450697,
              -35.2453502659733
            ],
            [
              148.961647965099,
              -35.2449841856138
            ],
            [
              148.961905425459,
              -35.244702100642
            ],
            [
              148.962290394894,
              -35.2442949693544
            ],
            [
              148.962623436875,
              -35.2440089469499
            ],
            [
              148.963195467409,
              -35.243836844109
            ],
            [
              148.964081303906,
              -35.2435779749296
            ],
            [
              148.965120479438,
              -35.2433552960523
            ],
            [
              148.966302486094,
              -35.2430943556461
            ],
            [
              148.967270633125,
              -35.2427494214915
            ],
            [
              148.968575443583,
              -35.2422716566828
            ],
            [
              148.969607630104,
              -35.241904193948
            ],
            [
              148.970483933502,
              -35.2417371136784
            ],
            [
              148.971559313291,
              -35.2415301630295
            ],
            [
              148.972292431913,
              -35.241194668904
            ],
            [
              148.973579919041,
              -35.2407675854628
            ],
            [
              148.974459598584,
              -35.2401076653443
            ],
            [
              148.975218518145,
              -35.2394877207921
            ],
            [
              148.975783361142,
              -35.238756682378
            ],
            [
              148.97581189696,
              -35.238018733132
            ],
            [
              148.975413363409,
              -35.2374655152809
            ],
            [
              148.974215080593,
              -35.2367543444977
            ],
            [
              148.972710934157,
              -35.2356925668315
            ],
            [
              148.971652658609,
              -35.2344806691988
            ],
            [
              148.970852482618,
              -35.2334174634916
            ],
            [
              148.969969088934,
              -35.2323052870897
            ],
            [
              148.969129385983,
              -35.2315169425836
            ],
            [
              148.968472778461,
              -35.230349581445
            ],
            [
              148.967880330593,
              -35.2289760295096
            ],
            [
              148.967427618806,
              -35.2278126975062
            ],
            [
              148.967298447751,
              -35.227176718375
            ],
            [
              148.966744546407,
              -35.2263168951916
            ],
            [
              148.965843815159,
              -35.2250119897443
            ],
            [
              148.965213917732,
              -35.2241910665463
            ],
            [
              148.964197989314,
              -35.2229424357503
            ],
            [
              148.963269532461,
              -35.2218600228783
            ],
            [
              148.962628853716,
              -35.2207754615338
            ],
            [
              148.961935061161,
              -35.2194581675394
            ],
            [
              148.961598570094,
              -35.2188620265435
            ],
            [
              148.961436908792,
              -35.2186360838258
            ],
            [
              149.04620774261,
              -35.1687118883124
            ],
            [
              149.053412723191,
              -35.1720084063836
            ],
            [
              149.055867705402,
              -35.1731726866484
            ],
            [
              149.05806314279,
              -35.1734684343695
            ],
            [
              149.063854633716,
              -35.1742165944503
            ],
            [
              149.067556122393,
              -35.1725122591309
            ],
            [
              149.069346449003,
              -35.1716852250904
            ],
            [
              149.070511837584,
              -35.171149657226
            ],
            [
              149.07121606656,
              -35.1724258138716
            ],
            [
              149.071149901218,
              -35.1745129523283
            ],
            [
              149.071193326373,
              -35.1751644787728
            ],
            [
              149.071350016846,
              -35.1757010819914
            ],
            [
              149.072113774961,
              -35.1774976277236
            ],
            [
              149.073793676086,
              -35.1806591397014
            ],
            [
              149.074223396337,
              -35.1813475140892
            ],
            [
              149.075216312274,
              -35.182713711054
            ],
            [
              149.075342221505,
              -35.1828882202483
            ],
            [
              149.075873042977,
              -35.1834607455296
            ],
            [
              149.075995496538,
              -35.1836512944133
            ],
            [
              149.076226186009,
              -35.1841012175372
            ],
            [
              149.076844465683,
              -35.1852724766188
            ],
            [
              149.0775936666,
              -35.1864465743382
            ],
            [
              149.079855597857,
              -35.1885305016694
            ],
            [
              149.080146900709,
              -35.1887532930916
            ],
            [
              149.080318295717,
              -35.1889046556334
            ],
            [
              149.081261606495,
              -35.1897799023378
            ],
            [
              149.083437389528,
              -35.1917985833957
            ],
            [
              149.085282621369,
              -35.1935026099542
            ],
            [
              149.086381090075,
              -35.1943322067336
            ],
            [
              149.088310894061,
              -35.1957945898854
            ],
            [
              149.088994093736,
              -35.1962658909812
            ],
            [
              149.089816984437,
              -35.1969406546567
            ],
            [
              149.091737168431,
              -35.1985358047844
            ],
            [
              149.092954243296,
              -35.1994573077461
            ],
            [
              149.09323826853,
              -35.1996340524739
            ],
            [
              149.093850235785,
              -35.1999781184297
            ],
            [
              149.094490478523,
              -35.2004239132763
            ],
            [
              149.094709108327,
              -35.2006576120486
            ],
            [
              149.095409460272,
              -35.2014296322904
            ],
            [
              149.09594039305,
              -35.2019764693546
            ],
            [
              149.097730143487,
              -35.2029487294556
            ],
            [
              149.09896146441,
              -35.2043177567008
            ],
            [
              149.10025863211,
              -35.2055117339498
            ],
            [
              149.100648144124,
              -35.2057162264222
            ],
            [
              149.103458341955,
              -35.2071472796132
            ],
            [
              149.10822437829,
              -35.2094297632088
            ],
            [
              149.1097902766,
              -35.2102846805459
            ],
            [
              149.110235450614,
              -35.2106267926884
            ],
            [
              149.111654675127,
              -35.2122159594214
            ],
            [
              149.114001849493,
              -35.2149320335075
            ],
            [
              149.115448055357,
              -35.2162823085588
            ],
            [
              149.11622870093,
              -35.2169710927186
            ],
            [
              149.117877754082,
              -35.2182449209196
            ],
            [
              149.11892245322,
              -35.219253400789
            ],
            [
              149.11969299742,
              -35.220550527258
            ],
            [
              149.119847245476,
              -35.2209108937933
            ],
            [
              149.12073884381,
              -35.2223611181053
            ],
            [
              149.121200962355,
              -35.2229645414712
            ],
            [
              149.121776893301,
              -35.2241203225922
            ],
            [
              149.122305091563,
              -35.2252233921045
            ],
            [
              149.122765439171,
              -35.2264600032179
            ],
            [
              149.124759930784,
              -35.2310140226827
            ],
            [
              149.124894224759,
              -35.2314571588093
            ],
            [
              149.124931838896,
              -35.2315805825519
            ],
            [
              149.124103435127,
              -35.2323230860626
            ],
            [
              149.120156906602,
              -35.2332524368002
            ],
            [
              149.118159110452,
              -35.2349175889614
            ],
            [
              149.11774899831,
              -35.236291547274
            ],
            [
              149.116992964296,
              -35.2371799717391
            ],
            [
              149.114779762957,
              -35.2392077827246
            ],
            [
              149.114235211738,
              -35.2419121310059
            ],
            [
              149.113875199997,
              -35.2438040257428
            ],
            [
              149.110528916224,
              -35.2468894799538
            ],
            [
              149.097602178805,
              -35.2601963123403
            ]
          ]
        ]
      },
      "properties": {
        "OBJECTID": 43,
        "DISTRICT_CODE": 5,
        "DISTRICT_NAME": "BELCONNEN",
        "DISTRICT_SHORT": "BELC",
        "ID": 92,
        "LAST_UPDATE_DATE": "Mon, 19 Jun 2023 11:10:24 GMT",
        "GlobalID": "ddaa4587-6dfd-4d9c-8cd9-07b40332608f"
      }
    }
  ]
}