{
  "type": "FeatureCollection",
  "crs": {
    "type": "name",
    "properties": {
      "name": "EPSG:4326"
    }
  },
  "features": [
    {
      "type": "Feature",
      "id": 56,
      "geometry": {
        "type": "Polygon",
        "coordinates": [
          [
            [
              149.004120465538,
              -35.753258996452
            ],
            [
              149.006395681,
              -35.7426109136816
            ],
            [
              148.994012894764,
              -35.7408549536869
            ],
            [
              148.994294026863,
              -35.7407689454216
            ],
            [
              148.994618499472,
              -35.7405459406259
            ],
            [
              148.994825814534,
              -35.7402378488053
            ],
            [
              148.995086406418,
              -35.7399348098481
            ],
            [
              148.995337578583,
              -35.7397642435956
            ],
            [
              148.995378853802,
              -35.739503443862
            ],
            [
              148.995571672693,
              -35.7392618566126
            ],
            [
              148.995652751247,
              -35.7389396903095
            ],
            [
              148.995543890386,
              -35.738838293164
            ],
            [
              148.995475057708,
              -35.7386551636084
            ],
            [
              148.995530826449,
              -35.7383211881101
            ],
            [
              148.995326571331,
              -35.738240057149
            ],
            [
              148.995348057699,
              -35.7379950258702
            ],
            [
              148.995288304336,
              -35.7377314201557
            ],
            [
              148.995508177787,
              -35.7376160030518
            ],
            [
              148.995747952239,
              -35.7374657123239
            ],
            [
              148.995527124788,
              -35.7373524068538
            ],
            [
              148.995475096847,
              -35.7371598161523
            ],
            [
              148.995454584727,
              -35.7368877446572
            ],
            [
              148.995551892128,
              -35.7366657919883
            ],
            [
              148.995808011757,
              -35.7365824607567
            ],
            [
              148.995848607171,
              -35.7364061919444
            ],
            [
              148.995599145489,
              -35.7363436216515
            ],
            [
              148.995749389554,
              -35.7361634898591
            ],
            [
              148.996014700151,
              -35.7359674207042
            ],
            [
              148.99600523328,
              -35.7357342811741
            ],
            [
              148.995864019181,
              -35.7354678736174
            ],
            [
              148.995785497777,
              -35.7350758457477
            ],
            [
              148.995858736622,
              -35.7346736524453
            ],
            [
              148.99607352561,
              -35.7345053337172
            ],
            [
              148.996382574458,
              -35.7344608484124
            ],
            [
              148.99695933993,
              -35.7343330300231
            ],
            [
              148.997605954128,
              -35.7342311700946
            ],
            [
              148.998094832288,
              -35.7341946282202
            ],
            [
              148.998395362012,
              -35.7341962780273
            ],
            [
              148.998399816061,
              -35.7339580034936
            ],
            [
              148.998275395085,
              -35.7337034957561
            ],
            [
              148.998425290942,
              -35.7335666184922
            ],
            [
              148.998833606326,
              -35.7334015562229
            ],
            [
              148.998807780848,
              -35.7331081261104
            ],
            [
              148.998511929255,
              -35.7328709962047
            ],
            [
              148.998436498325,
              -35.7324356225633
            ],
            [
              148.998479110955,
              -35.7319962952961
            ],
            [
              148.998758034614,
              -35.7315029174136
            ],
            [
              148.999029070676,
              -35.7313024259863
            ],
            [
              148.999253319466,
              -35.7313632756452
            ],
            [
              148.999604912186,
              -35.7312782314996
            ],
            [
              149.000057295306,
              -35.7312619557639
            ],
            [
              149.0005872529,
              -35.7313746452158
            ],
            [
              149.001103919833,
              -35.7317684127332
            ],
            [
              149.001585875533,
              -35.7322724819877
            ],
            [
              149.00200466532,
              -35.7322381725158
            ],
            [
              149.002483037326,
              -35.7321097805412
            ],
            [
              149.002543847087,
              -35.7318697969496
            ],
            [
              149.002353561809,
              -35.731404049797
            ],
            [
              149.002307525527,
              -35.7308058349861
            ],
            [
              149.002404283533,
              -35.7302454795409
            ],
            [
              149.002855044487,
              -35.729704788841
            ],
            [
              149.003199261497,
              -35.7290992955637
            ],
            [
              149.003646272356,
              -35.7282932913017
            ],
            [
              149.004101673871,
              -35.7274822380811
            ],
            [
              149.004574420971,
              -35.7266233304574
            ],
            [
              149.005133580529,
              -35.725810565867
            ],
            [
              149.005787768994,
              -35.7250924259414
            ],
            [
              149.006167190381,
              -35.7246886111406
            ],
            [
              149.006434420393,
              -35.7246440994196
            ],
            [
              149.006898247353,
              -35.7249809756988
            ],
            [
              149.007246818207,
              -35.724968546415
            ],
            [
              149.007782609711,
              -35.7246897248746
            ],
            [
              149.008330998303,
              -35.724217775917
            ],
            [
              149.008628731513,
              -35.7238550473658
            ],
            [
              149.008694602926,
              -35.723308113549
            ],
            [
              149.008510270281,
              -35.7227505440042
            ],
            [
              149.008041810421,
              -35.7222621825566
            ],
            [
              149.007681655098,
              -35.7219400019938
            ],
            [
              149.007345488547,
              -35.721408832352
            ],
            [
              149.007502220356,
              -35.7202964011633
            ],
            [
              149.007249837706,
              -35.7194403532123
            ],
            [
              149.006627927894,
              -35.7183650349198
            ],
            [
              149.006136867636,
              -35.7174740122461
            ],
            [
              149.005677965535,
              -35.7167890909137
            ],
            [
              149.005252775241,
              -35.7160996636176
            ],
            [
              149.004979090615,
              -35.715459174902
            ],
            [
              149.00515471445,
              -35.7148278039489
            ],
            [
              149.005619184818,
              -35.7142544790384
            ],
            [
              149.005957455397,
              -35.7136810580926
            ],
            [
              149.005935264416,
              -35.7132271256128
            ],
            [
              149.00579441199,
              -35.7124154150488
            ],
            [
              149.005620528454,
              -35.7115188108336
            ],
            [
              149.005372496396,
              -35.7107730629895
            ],
            [
              149.00504833597,
              -35.7100610178181
            ],
            [
              149.004691595437,
              -35.7091615211544
            ],
            [
              149.004973636977,
              -35.7081110977758
            ],
            [
              149.005083517467,
              -35.7071811575324
            ],
            [
              149.004716610428,
              -35.7065261546232
            ],
            [
              149.004081868931,
              -35.7060355169326
            ],
            [
              149.003657201827,
              -35.7052024314993
            ],
            [
              149.003276956519,
              -35.7044262126089
            ],
            [
              149.002984114798,
              -35.7036253039016
            ],
            [
              149.002874141227,
              -35.7027426661949
            ],
            [
              149.002507721516,
              -35.7020081699921
            ],
            [
              149.002268893654,
              -35.7015350277546
            ],
            [
              149.00198645024,
              -35.7008304552797
            ],
            [
              149.001877793168,
              -35.7002024041339
            ],
            [
              149.002256789805,
              -35.6997338044855
            ],
            [
              149.002804895006,
              -35.6996949944358
            ],
            [
              149.00365007806,
              -35.6997507313835
            ],
            [
              149.004594485162,
              -35.699646594599
            ],
            [
              149.005057983322,
              -35.6991554590752
            ],
            [
              149.005680557284,
              -35.6988806146552
            ],
            [
              149.006269765105,
              -35.6985393475018
            ],
            [
              149.006550290511,
              -35.6981000208192
            ],
            [
              149.006375749269,
              -35.6976341873734
            ],
            [
              149.005576666418,
              -35.6973610118897
            ],
            [
              149.00487203922,
              -35.6972550974978
            ],
            [
              149.004130618701,
              -35.6972206413192
            ],
            [
              149.003645965952,
              -35.6969964914291
            ],
            [
              149.003374872827,
              -35.6967204422082
            ],
            [
              149.003337037013,
              -35.6959460404643
            ],
            [
              149.003179646928,
              -35.6954390187432
            ],
            [
              149.002858411521,
              -35.6950824882614
            ],
            [
              149.002510753994,
              -35.6949692786766
            ],
            [
              149.00238645639,
              -35.6951129219551
            ],
            [
              149.00137381166,
              -35.6953589760957
            ],
            [
              149.000536504528,
              -35.6954428191311
            ],
            [
              148.999660211258,
              -35.6954236467698
            ],
            [
              148.998946479947,
              -35.6950000239723
            ],
            [
              148.99871930181,
              -35.6944699193405
            ],
            [
              148.999066483851,
              -35.6939292306094
            ],
            [
              148.999781317528,
              -35.6933694656987
            ],
            [
              149.000338729574,
              -35.6927026217479
            ],
            [
              149.000907624129,
              -35.6920245116813
            ],
            [
              149.001608295616,
              -35.6913847080831
            ],
            [
              149.002292272278,
              -35.6907702227729
            ],
            [
              149.002588719999,
              -35.6900920874554
            ],
            [
              149.00229824896,
              -35.6893868830959
            ],
            [
              149.001864829101,
              -35.6888010777312
            ],
            [
              149.001417702971,
              -35.6883481968381
            ],
            [
              149.000787871746,
              -35.6879026907768
            ],
            [
              149.000253919436,
              -35.6875663244262
            ],
            [
              149.0004043319,
              -35.6869456792066
            ],
            [
              149.000167765774,
              -35.686522098147
            ],
            [
              148.999690045904,
              -35.6862206997332
            ],
            [
              148.999593771684,
              -35.6858061400692
            ],
            [
              148.999571912203,
              -35.6848103134016
            ],
            [
              148.999236529005,
              -35.6841073502534
            ],
            [
              148.998658848227,
              -35.683073173359
            ],
            [
              148.998146212583,
              -35.68224970006
            ],
            [
              148.997684677805,
              -35.6817758956876
            ],
            [
              148.997526361858,
              -35.6812335379174
            ],
            [
              148.997480064729,
              -35.680597015995
            ],
            [
              148.997770535779,
              -35.6800264950135
            ],
            [
              148.998243585392,
              -35.6794367940752
            ],
            [
              148.998547448691,
              -35.6785846464142
            ],
            [
              148.998301780731,
              -35.6779300821831
            ],
            [
              148.997848980507,
              -35.6775622596502
            ],
            [
              148.997631359003,
              -35.6770333244485
            ],
            [
              148.997837765461,
              -35.6764419764452
            ],
            [
              148.997702074721,
              -35.6760854487666
            ],
            [
              148.997139940583,
              -35.6757332935078
            ],
            [
              148.996434754637,
              -35.6755400923795
            ],
            [
              148.995828196208,
              -35.6753918682409
            ],
            [
              148.995355767846,
              -35.6749851023745
            ],
            [
              148.995628917475,
              -35.6742726443887
            ],
            [
              148.995958483796,
              -35.6736559001036
            ],
            [
              148.996257222947,
              -35.6730898878671
            ],
            [
              148.996205090683,
              -35.6724280407707
            ],
            [
              148.996104091978,
              -35.6714136369384
            ],
            [
              148.996046109806,
              -35.6707405235924
            ],
            [
              148.996031766935,
              -35.6706583321694
            ],
            [
              148.995752031491,
              -35.6699238215532
            ],
            [
              148.995258752612,
              -35.6702014248296
            ],
            [
              148.994341104021,
              -35.6701573354877
            ],
            [
              148.993580751943,
              -35.6701874020365
            ],
            [
              148.992531166336,
              -35.6669902187755
            ],
            [
              148.991297748701,
              -35.6662173140378
            ],
            [
              148.991280129745,
              -35.6655086101485
            ],
            [
              148.99201557769,
              -35.6652172412011
            ],
            [
              148.992323461877,
              -35.6617437183472
            ],
            [
              148.991628979448,
              -35.6611991879297
            ],
            [
              148.991087758255,
              -35.6607608482569
            ],
            [
              148.989995948248,
              -35.6598887161724
            ],
            [
              148.989672869046,
              -35.6595631756724
            ],
            [
              148.989222340485,
              -35.6587892081235
            ],
            [
              148.989113356002,
              -35.658759656761
            ],
            [
              148.989121238554,
              -35.658484550149
            ],
            [
              148.988650181202,
              -35.6573763791708
            ],
            [
              148.988941024662,
              -35.6566865035501
            ],
            [
              148.989040469162,
              -35.656673828311
            ],
            [
              148.989309550339,
              -35.6558577566403
            ],
            [
              148.989899443714,
              -35.6546500125441
            ],
            [
              148.98949329961,
              -35.6526403558194
            ],
            [
              148.989286453876,
              -35.6517762621701
            ],
            [
              148.988807690933,
              -35.6514362024769
            ],
            [
              148.987036836031,
              -35.6499722809442
            ],
            [
              148.98638728756,
              -35.6495390825732
            ],
            [
              148.986302428324,
              -35.649053790567
            ],
            [
              148.986420642658,
              -35.6476472962204
            ],
            [
              148.986583289873,
              -35.6470287367148
            ],
            [
              148.986651376241,
              -35.6467210423822
            ],
            [
              148.98673728319,
              -35.6465401750491
            ],
            [
              148.986825186853,
              -35.6464064956248
            ],
            [
              148.987204924191,
              -35.6457277203245
            ],
            [
              148.987377806211,
              -35.6450748231955
            ],
            [
              148.987008041337,
              -35.6442805349423
            ],
            [
              148.986795140405,
              -35.6435185764144
            ],
            [
              148.98676180085,
              -35.6433358896243
            ],
            [
              148.986723098291,
              -35.6425653751399
            ],
            [
              148.985100335814,
              -35.6409315262912
            ],
            [
              148.983564486165,
              -35.6393481535673
            ],
            [
              148.982863207223,
              -35.6376279916362
            ],
            [
              148.982088515809,
              -35.6369785874522
            ],
            [
              148.981095041326,
              -35.6360025153485
            ],
            [
              148.980950307078,
              -35.6345569973635
            ],
            [
              148.980386487464,
              -35.6302304028492
            ],
            [
              148.980508531075,
              -35.6293294343766
            ],
            [
              149.005918812125,
              -35.6327030124777
            ],
            [
              149.005924359771,
              -35.6325819634339
            ],
            [
              149.005924053699,
              -35.6319984321169
            ],
            [
              149.005968560386,
              -35.6315089871749
            ],
            [
              149.005763702388,
              -35.6310308005209
            ],
            [
              149.005749213492,
              -35.6304959999201
            ],
            [
              149.005796535357,
              -35.6299346635026
            ],
            [
              149.00581863409,
              -35.6294587360632
            ],
            [
              149.005509918316,
              -35.6287816489853
            ],
            [
              149.005571311288,
              -35.6283925097917
            ],
            [
              149.005806442877,
              -35.6280606923952
            ],
            [
              149.0063247048,
              -35.6277402363874
            ],
            [
              149.006658911479,
              -35.6272736806799
            ],
            [
              149.007081220088,
              -35.6266990603632
            ],
            [
              149.0072815483,
              -35.6262835624172
            ],
            [
              149.0073952502,
              -35.6259034251238
            ],
            [
              149.007528152316,
              -35.6254236155923
            ],
            [
              149.007687441813,
              -35.6248811806948
            ],
            [
              149.007833808697,
              -35.6242458462448
            ],
            [
              149.007935707428,
              -35.6235603721772
            ],
            [
              149.008072037558,
              -35.6228888384637
            ],
            [
              149.008582415607,
              -35.6226653875638
            ],
            [
              149.009019285385,
              -35.6222231666296
            ],
            [
              149.009346659371,
              -35.6216284599163
            ],
            [
              149.009486171478,
              -35.6210285250283
            ],
            [
              149.009429769725,
              -35.6205706206764
            ],
            [
              149.009496434787,
              -35.6200124114855
            ],
            [
              149.009277236054,
              -35.6195274710359
            ],
            [
              149.009111348344,
              -35.6189917920898
            ],
            [
              149.008813745549,
              -35.618548178503
            ],
            [
              149.008862468431,
              -35.6181459376211
            ],
            [
              149.008871631245,
              -35.6175730173691
            ],
            [
              149.009061909575,
              -35.6172000974064
            ],
            [
              149.009333195291,
              -35.6167123627981
            ],
            [
              149.009427780074,
              -35.6161602818415
            ],
            [
              149.009284303397,
              -35.6156410052657
            ],
            [
              149.009017440006,
              -35.6150737829012
            ],
            [
              149.008667617015,
              -35.6146362707515
            ],
            [
              149.008667620143,
              -35.6142340300321
            ],
            [
              149.0087488191,
              -35.6139688156805
            ],
            [
              149.008878277649,
              -35.6136819543061
            ],
            [
              149.009133152214,
              -35.6131422336187
            ],
            [
              149.009608882112,
              -35.6128394135518
            ],
            [
              149.01001777234,
              -35.6125503935357
            ],
            [
              149.010334838001,
              -35.6121565166537
            ],
            [
              149.01067043462,
              -35.6116216647361
            ],
            [
              149.011211716213,
              -35.6110558673179
            ],
            [
              149.011812537806,
              -35.6106757166377
            ],
            [
              149.012337583997,
              -35.6105519376343
            ],
            [
              149.012997959887,
              -35.6106756863759
            ],
            [
              149.013528520159,
              -35.6108369420969
            ],
            [
              149.01469160425,
              -35.6108847508662
            ],
            [
              149.015557149807,
              -35.6108053125107
            ],
            [
              149.016321830672,
              -35.6107928347817
            ],
            [
              149.016991602151,
              -35.6107877470613
            ],
            [
              149.017847916298,
              -35.6107638476915
            ],
            [
              149.018906981739,
              -35.6106006092598
            ],
            [
              149.019626063514,
              -35.6104468039364
            ],
            [
              149.020284854903,
              -35.6100637311681
            ],
            [
              149.020740894084,
              -35.6095472051837
            ],
            [
              149.021272972803,
              -35.609091411902
            ],
            [
              149.021749661184,
              -35.6087370979546
            ],
            [
              149.022370386263,
              -35.6085375938942
            ],
            [
              149.023368642711,
              -35.6083322005519
            ],
            [
              149.024233192895,
              -35.6084743841495
            ],
            [
              149.025009331107,
              -35.6084866324576
            ],
            [
              149.025684150736,
              -35.6084358046011
            ],
            [
              149.026375397554,
              -35.6083157575798
            ],
            [
              149.02682781355,
              -35.6081101267913
            ],
            [
              149.027265708954,
              -35.6078940815471
            ],
            [
              149.027928829637,
              -35.6080868917809
            ],
            [
              149.028451125319,
              -35.6080397675065
            ],
            [
              149.029008603087,
              -35.6079114902844
            ],
            [
              149.029522756366,
              -35.6076992339094
            ],
            [
              149.029982766472,
              -35.6074339421296
            ],
            [
              149.030578099847,
              -35.607208406536
            ],
            [
              149.031054325307,
              -35.6068812237403
            ],
            [
              149.031617118985,
              -35.6064479373433
            ],
            [
              149.032125904745,
              -35.6064522628942
            ],
            [
              149.032559544329,
              -35.6064199295548
            ],
            [
              149.033002287307,
              -35.6064361555062
            ],
            [
              149.033551869334,
              -35.6065048094222
            ],
            [
              149.034193587322,
              -35.606542980312
            ],
            [
              149.034919734696,
              -35.6066036599437
            ],
            [
              149.03560097607,
              -35.6066851634834
            ],
            [
              149.036222465271,
              -35.6066112170766
            ],
            [
              149.036779738822,
              -35.6065717085904
            ],
            [
              149.037032014386,
              -35.6065936409302
            ],
            [
              149.03729403749,
              -35.6063975671175
            ],
            [
              149.037807761034,
              -35.6061664658135
            ],
            [
              149.038181319765,
              -35.6058926796921
            ],
            [
              149.038690069452,
              -35.6053523704844
            ],
            [
              149.039026864708,
              -35.6050531768433
            ],
            [
              149.039362959575,
              -35.604660525403
            ],
            [
              149.039765779562,
              -35.6041782766612
            ],
            [
              149.04007910638,
              -35.6037101079091
            ],
            [
              149.040465278977,
              -35.6032893233065
            ],
            [
              149.040703953913,
              -35.6029794244595
            ],
            [
              149.040898713185,
              -35.602402058063
            ],
            [
              149.041312528104,
              -35.6017312670397
            ],
            [
              149.041393776447,
              -35.6015931076595
            ],
            [
              149.041457678588,
              -35.6014531237503
            ],
            [
              149.041496167247,
              -35.6013711842559
            ],
            [
              149.041520008746,
              -35.6013039741769
            ],
            [
              149.04153038543,
              -35.6012047566878
            ],
            [
              149.041532906306,
              -35.6010781631277
            ],
            [
              149.041537297145,
              -35.6009104372241
            ],
            [
              149.041536348961,
              -35.6007742468239
            ],
            [
              149.041540315317,
              -35.6006232205985
            ],
            [
              149.041569961521,
              -35.6004767388582
            ],
            [
              149.041601051417,
              -35.6003784350618
            ],
            [
              149.041677588306,
              -35.6002173859277
            ],
            [
              149.041767594103,
              -35.6000744930007
            ],
            [
              149.041844380362,
              -35.5999034305321
            ],
            [
              149.04187941853,
              -35.5997762244673
            ],
            [
              149.0419086719,
              -35.5995876921872
            ],
            [
              149.041938261456,
              -35.5994676423688
            ],
            [
              149.041980149041,
              -35.5993352611261
            ],
            [
              149.04203850161,
              -35.5991239377111
            ],
            [
              149.04210011722,
              -35.5989599365326
            ],
            [
              149.042159480337,
              -35.5987949990211
            ],
            [
              149.042223208091,
              -35.5985890905602
            ],
            [
              149.042268920198,
              -35.5983942086615
            ],
            [
              149.042290893291,
              -35.5982136722252
            ],
            [
              149.042344837116,
              -35.5980202391229
            ],
            [
              149.042393408653,
              -35.5978306201451
            ],
            [
              149.042448934811,
              -35.5976463515406
            ],
            [
              149.042503498033,
              -35.5974572529408
            ],
            [
              149.042574106866,
              -35.5972738824248
            ],
            [
              149.042636165376,
              -35.5971208839976
            ],
            [
              149.042694048479,
              -35.5969572982757
            ],
            [
              149.042737896252,
              -35.5967943111133
            ],
            [
              149.042770661666,
              -35.5966477013394
            ],
            [
              149.042812263806,
              -35.5964976378222
            ],
            [
              149.042896312092,
              -35.5963185618831
            ],
            [
              149.042961362805,
              -35.596199826955
            ],
            [
              149.043031842891,
              -35.5960554504858
            ],
            [
              149.043112013374,
              -35.5958927143812
            ],
            [
              149.043198620855,
              -35.5957415025031
            ],
            [
              149.043292390844,
              -35.595567145565
            ],
            [
              149.043407832155,
              -35.595398541933
            ],
            [
              149.043533236123,
              -35.5952787712342
            ],
            [
              149.043697426222,
              -35.5951904410154
            ],
            [
              149.04393835628,
              -35.5951026935437
            ],
            [
              149.044172891332,
              -35.5950265009618
            ],
            [
              149.04438673965,
              -35.5949817290135
            ],
            [
              149.044618652403,
              -35.5949674767148
            ],
            [
              149.044850909025,
              -35.5950078642578
            ],
            [
              149.045000274462,
              -35.5950584586388
            ],
            [
              149.045193538754,
              -35.5951235955638
            ],
            [
              149.04534590963,
              -35.5952084357533
            ],
            [
              149.045463736032,
              -35.5952737108702
            ],
            [
              149.045647015776,
              -35.5953890471766
            ],
            [
              149.04581459188,
              -35.5954991518249
            ],
            [
              149.045982871027,
              -35.5956241076996
            ],
            [
              149.046093730719,
              -35.5957243161046
            ],
            [
              149.046217276534,
              -35.5958450228546
            ],
            [
              149.046325784911,
              -35.5959430236118
            ],
            [
              149.04646049169,
              -35.5960486311258
            ],
            [
              149.046577333362,
              -35.596149351338
            ],
            [
              149.04671664255,
              -35.5962580931932
            ],
            [
              149.046849157055,
              -35.5963455774234
            ],
            [
              149.047010348381,
              -35.5964764739014
            ],
            [
              149.047113057178,
              -35.5965811351465
            ],
            [
              149.04722168768,
              -35.5966988805325
            ],
            [
              149.047336371672,
              -35.5968091894908
            ],
            [
              149.047476573093,
              -35.5969307278191
            ],
            [
              149.047617959107,
              -35.597037836778
            ],
            [
              149.047824168591,
              -35.5971860656618
            ],
            [
              149.048010565575,
              -35.5972966476697
            ],
            [
              149.048185681842,
              -35.5973979602768
            ],
            [
              149.048335099837,
              -35.5974762543046
            ],
            [
              149.048541487052,
              -35.5975544213352
            ],
            [
              149.048740654004,
              -35.5976234076559
            ],
            [
              149.048885539233,
              -35.5976813715518
            ],
            [
              149.04908332598,
              -35.5977483650879
            ],
            [
              149.049325572942,
              -35.5978652806347
            ],
            [
              149.049652757733,
              -35.5980832563563
            ],
            [
              149.049769210562,
              -35.5982099097462
            ],
            [
              149.049861695706,
              -35.5983114088617
            ],
            [
              149.049996715622,
              -35.5984531782824
            ],
            [
              149.050117649824,
              -35.5985585976134
            ],
            [
              149.050220823813,
              -35.5986742604699
            ],
            [
              149.050341781563,
              -35.5988027684376
            ],
            [
              149.050488938031,
              -35.598938882228
            ],
            [
              149.05061390843,
              -35.5990800503145
            ],
            [
              149.05071084309,
              -35.5992052221335
            ],
            [
              149.05085530054,
              -35.5993881458911
            ],
            [
              149.050973066015,
              -35.5995293614162
            ],
            [
              149.051149901445,
              -35.5997368132242
            ],
            [
              149.051316999716,
              -35.5999349408255
            ],
            [
              149.051420250977,
              -35.6001060180226
            ],
            [
              149.051482539569,
              -35.6003140046572
            ],
            [
              149.051526732218,
              -35.6004822184296
            ],
            [
              149.051573405752,
              -35.6006862457606
            ],
            [
              149.051607854367,
              -35.6008312747525
            ],
            [
              149.051649155593,
              -35.6009757516075
            ],
            [
              149.051690495434,
              -35.6011525543751
            ],
            [
              149.051736633082,
              -35.6012809252451
            ],
            [
              149.051792569788,
              -35.6014106616759
            ],
            [
              149.051870748045,
              -35.6015723025319
            ],
            [
              149.052078250518,
              -35.6018961875643
            ],
            [
              149.052190809114,
              -35.6023169233732
            ],
            [
              149.0526793848,
              -35.6028472922685
            ],
            [
              149.053346454309,
              -35.6032717916432
            ],
            [
              149.054686606448,
              -35.6033980055533
            ],
            [
              149.05562669744,
              -35.6032466957518
            ],
            [
              149.056445546776,
              -35.6029703374613
            ],
            [
              149.057129511399,
              -35.6026355383686
            ],
            [
              149.057900788956,
              -35.602356935795
            ],
            [
              149.058998487859,
              -35.6019306665641
            ],
            [
              149.059871102547,
              -35.6017337490082
            ],
            [
              149.06097894146,
              -35.6014904932702
            ],
            [
              149.061780864852,
              -35.6012023001414
            ],
            [
              149.06263143844,
              -35.6010701704165
            ],
            [
              149.063372373794,
              -35.600846790633
            ],
            [
              149.064191169963,
              -35.600565963196
            ],
            [
              149.064965194924,
              -35.6006557297587
            ],
            [
              149.065736841787,
              -35.600811912297
            ],
            [
              149.066507895724,
              -35.6009061757496
            ],
            [
              149.06713756132,
              -35.6007954771027
            ],
            [
              149.067637488357,
              -35.6005756110311
            ],
            [
              149.067823239557,
              -35.6003254349905
            ],
            [
              149.067497054836,
              -35.6001667088003
            ],
            [
              149.067505397468,
              -35.5998027961299
            ],
            [
              149.067451801263,
              -35.5993866420537
            ],
            [
              149.067066637075,
              -35.5988370874986
            ],
            [
              149.066839011465,
              -35.5983921777386
            ],
            [
              149.06662981116,
              -35.5977844994125
            ],
            [
              149.066510301663,
              -35.5971509145478
            ],
            [
              149.066596125831,
              -35.5966563781903
            ],
            [
              149.066336749397,
              -35.5960808064315
            ],
            [
              149.066267579206,
              -35.5954747735798
            ],
            [
              149.066161155371,
              -35.5947685435358
            ],
            [
              149.065887642887,
              -35.5941608945342
            ],
            [
              149.065714784795,
              -35.5939035887029
            ],
            [
              149.065879069691,
              -35.5934241571142
            ],
            [
              149.065889517448,
              -35.5925910702764
            ],
            [
              149.066129254673,
              -35.5920935780469
            ],
            [
              149.06605939409,
              -35.5917528621808
            ],
            [
              149.065936959613,
              -35.5914904864011
            ],
            [
              149.066124108106,
              -35.5912852179754
            ],
            [
              149.079121476874,
              -35.5933930458922
            ],
            [
              149.079121752901,
              -35.5935329841635
            ],
            [
              149.078233204506,
              -35.5953397961938
            ],
            [
              149.078589879736,
              -35.5967245679865
            ],
            [
              149.079366000107,
              -35.597441977029
            ],
            [
              149.078873037902,
              -35.5985810105414
            ],
            [
              149.078180680716,
              -35.5988185398032
            ],
            [
              149.079520120449,
              -35.6024705132599
            ],
            [
              149.080057728689,
              -35.6049844786995
            ],
            [
              149.079517264123,
              -35.6051506044945
            ],
            [
              149.079498318135,
              -35.6066407758323
            ],
            [
              149.079235045653,
              -35.6077485518321
            ],
            [
              149.079734322332,
              -35.6081969327849
            ],
            [
              149.080424870933,
              -35.6089968217695
            ],
            [
              149.081217241157,
              -35.6104856483832
            ],
            [
              149.081248603012,
              -35.6112540895445
            ],
            [
              149.081931339918,
              -35.6117871753473
            ],
            [
              149.082571159334,
              -35.6136388939202
            ],
            [
              149.084525549329,
              -35.6146429016497
            ],
            [
              149.084948841093,
              -35.6167673616872
            ],
            [
              149.084757394931,
              -35.6176535289765
            ],
            [
              149.084901702615,
              -35.6185234639026
            ],
            [
              149.085208874803,
              -35.6195756173412
            ],
            [
              149.084190408586,
              -35.6216765132442
            ],
            [
              149.085129739375,
              -35.6228837517956
            ],
            [
              149.085926766156,
              -35.6253711501631
            ],
            [
              149.087874017202,
              -35.6279046085417
            ],
            [
              149.087742847549,
              -35.6281199383634
            ],
            [
              149.087773665305,
              -35.6290534867691
            ],
            [
              149.087261658572,
              -35.6302807250951
            ],
            [
              149.087773876474,
              -35.6324205178087
            ],
            [
              149.088146125044,
              -35.6335628501241
            ],
            [
              149.088585867255,
              -35.6340918003024
            ],
            [
              149.086505156634,
              -35.6358774846496
            ],
            [
              149.087236949794,
              -35.6363669877738
            ],
            [
              149.087446475387,
              -35.6366872258481
            ],
            [
              149.08766098454,
              -35.6379085753621
            ],
            [
              149.087562993271,
              -35.6396515681459
            ],
            [
              149.088266639102,
              -35.6407275490066
            ],
            [
              149.089042582567,
              -35.6410572368251
            ],
            [
              149.090655744139,
              -35.6400212797296
            ],
            [
              149.092422865281,
              -35.6397192005196
            ],
            [
              149.093577246265,
              -35.6400602773513
            ],
            [
              149.09562902446,
              -35.6403342915068
            ],
            [
              149.095833338093,
              -35.6416302763903
            ],
            [
              149.096320394915,
              -35.6441311911394
            ],
            [
              149.096133553088,
              -35.6455980058188
            ],
            [
              149.097479939178,
              -35.6472941623681
            ],
            [
              149.097108080284,
              -35.6487173300034
            ],
            [
              149.096806438193,
              -35.6517488416348
            ],
            [
              149.095427961944,
              -35.6525522540432
            ],
            [
              149.095388385469,
              -35.65302094511
            ],
            [
              149.096037717286,
              -35.6543389529883
            ],
            [
              149.097614391058,
              -35.6559450797524
            ],
            [
              149.098355473591,
              -35.6567987204522
            ],
            [
              149.098535021087,
              -35.6572123978593
            ],
            [
              149.097847513161,
              -35.6587580128855
            ],
            [
              149.096217454355,
              -35.6603618979191
            ],
            [
              149.095892658577,
              -35.6614402185282
            ],
            [
              149.095852499861,
              -35.6619303305644
            ],
            [
              149.096092460713,
              -35.6624063232631
            ],
            [
              149.096668597771,
              -35.6631660798301
            ],
            [
              149.096618015799,
              -35.6646123071758
            ],
            [
              149.095974804445,
              -35.6654168854269
            ],
            [
              149.095686369934,
              -35.666987217857
            ],
            [
              149.095726223924,
              -35.6680500687925
            ],
            [
              149.095955995148,
              -35.6685907525178
            ],
            [
              149.095940430308,
              -35.6691962594915
            ],
            [
              149.096217521765,
              -35.6701360374966
            ],
            [
              149.096669667683,
              -35.672131712772
            ],
            [
              149.096605951431,
              -35.6728198007547
            ],
            [
              149.097270748598,
              -35.6736047480282
            ],
            [
              149.097118710348,
              -35.6741709668236
            ],
            [
              149.096569456106,
              -35.6745292147524
            ],
            [
              149.096075301403,
              -35.675861306488
            ],
            [
              149.094960280096,
              -35.676822959415
            ],
            [
              149.095495504736,
              -35.6780459566664
            ],
            [
              149.095298106795,
              -35.6792792540743
            ],
            [
              149.09589363247,
              -35.680380954698
            ],
            [
              149.099419868579,
              -35.6838827617623
            ],
            [
              149.101445990784,
              -35.6841371257653
            ],
            [
              149.102058849744,
              -35.6845573395094
            ],
            [
              149.102900061745,
              -35.6848189563079
            ],
            [
              149.104381867216,
              -35.6848687551469
            ],
            [
              149.104767318559,
              -35.6863842565723
            ],
            [
              149.104839153165,
              -35.6873422977318
            ],
            [
              149.104377115931,
              -35.6890589405201
            ],
            [
              149.103799315195,
              -35.689770466595
            ],
            [
              149.103754920441,
              -35.6907246284603
            ],
            [
              149.104178075566,
              -35.6910782709654
            ],
            [
              149.105934067867,
              -35.6911469589927
            ],
            [
              149.106674432791,
              -35.6929035150085
            ],
            [
              149.1078824412,
              -35.6940261348299
            ],
            [
              149.108215032717,
              -35.6950099383174
            ],
            [
              149.108495409714,
              -35.6955492378537
            ],
            [
              149.109417964555,
              -35.6965852001239
            ],
            [
              149.108947597626,
              -35.6984969667501
            ],
            [
              149.108632998716,
              -35.6995313222073
            ],
            [
              149.107824761133,
              -35.7005297063428
            ],
            [
              149.107880653362,
              -35.7011960601181
            ],
            [
              149.107476376747,
              -35.7023059623948
            ],
            [
              149.106288659231,
              -35.7034022732397
            ],
            [
              149.105454037504,
              -35.7038872398182
            ],
            [
              149.104128035304,
              -35.7049342556817
            ],
            [
              149.103425894783,
              -35.7059757097217
            ],
            [
              149.102743179871,
              -35.7065560015326
            ],
            [
              149.102253573665,
              -35.7072376179706
            ],
            [
              149.101966790124,
              -35.7077749799499
            ],
            [
              149.101917583312,
              -35.7088012278452
            ],
            [
              149.101605265681,
              -35.7094034125642
            ],
            [
              149.101596928482,
              -35.7104462476012
            ],
            [
              149.101266453052,
              -35.712177061422
            ],
            [
              149.100983523488,
              -35.7125607064131
            ],
            [
              149.101110982238,
              -35.712867303834
            ],
            [
              149.099778877713,
              -35.7144265170925
            ],
            [
              149.099349512081,
              -35.7146584576099
            ],
            [
              149.099371275758,
              -35.7161344176547
            ],
            [
              149.100065846462,
              -35.716934893104
            ],
            [
              149.100612957853,
              -35.7185094414217
            ],
            [
              149.10067745805,
              -35.7190168131774
            ],
            [
              149.101663054705,
              -35.7198658251943
            ],
            [
              149.102410124458,
              -35.7208942210612
            ],
            [
              149.102408476022,
              -35.721762999727
            ],
            [
              149.103887426532,
              -35.7232889005514
            ],
            [
              149.104132818696,
              -35.7241172240282
            ],
            [
              149.104098720378,
              -35.724981238542
            ],
            [
              149.103673903739,
              -35.7260380715089
            ],
            [
              149.102810488225,
              -35.7267009366409
            ],
            [
              149.100116263207,
              -35.7283543419458
            ],
            [
              149.099098190616,
              -35.7292872091824
            ],
            [
              149.099039436077,
              -35.7306064307324
            ],
            [
              149.100586385759,
              -35.7334629915032
            ],
            [
              149.10058871838,
              -35.7348844849986
            ],
            [
              149.100768559084,
              -35.7355287156405
            ],
            [
              149.100686224038,
              -35.7363030808749
            ],
            [
              149.099703222918,
              -35.7379565227953
            ],
            [
              149.099034919728,
              -35.7388260064288
            ],
            [
              149.099060294356,
              -35.7392514388834
            ],
            [
              149.098418512946,
              -35.7396739722322
            ],
            [
              149.098066162914,
              -35.7405199165489
            ],
            [
              149.097789287644,
              -35.741720173901
            ],
            [
              149.096897731243,
              -35.7426864985652
            ],
            [
              149.096228623948,
              -35.7436495415909
            ],
            [
              149.095615019759,
              -35.7459922209436
            ],
            [
              149.096983064947,
              -35.7473711688283
            ],
            [
              149.095639211466,
              -35.7498502778754
            ],
            [
              149.095063968376,
              -35.7504003097235
            ],
            [
              149.096219896858,
              -35.7520771156212
            ],
            [
              149.096399869556,
              -35.7528229040155
            ],
            [
              149.095602440426,
              -35.7533207389494
            ],
            [
              149.094935265633,
              -35.7543049314358
            ],
            [
              149.094901908834,
              -35.7549105942397
            ],
            [
              149.094599899114,
              -35.7556057915051
            ],
            [
              149.094644305583,
              -35.7566043670046
            ],
            [
              149.092925675424,
              -35.7591180336993
            ],
            [
              149.093209543178,
              -35.7609261718369
            ],
            [
              149.093634764446,
              -35.7618590273445
            ],
            [
              149.093305135396,
              -35.7626578501397
            ],
            [
              149.092845461312,
              -35.7635654839886
            ],
            [
              149.090709704754,
              -35.7656158171168
            ],
            [
              149.091144548581,
              -35.767048600526
            ],
            [
              149.092234019242,
              -35.7679962983261
            ],
            [
              149.09271332649,
              -35.768703994564
            ],
            [
              149.09327158174,
              -35.7707765326895
            ],
            [
              149.093072652292,
              -35.771459866266
            ],
            [
              149.091630548707,
              -35.7739454294476
            ],
            [
              149.092932354358,
              -35.7744531176431
            ],
            [
              149.094851359531,
              -35.7758187062205
            ],
            [
              149.095883290957,
              -35.7760112735311
            ],
            [
              149.096319441762,
              -35.7762801972894
            ],
            [
              149.097370315987,
              -35.777441065746
            ],
            [
              149.096273873322,
              -35.7788155874671
            ],
            [
              149.09577089013,
              -35.7801870763885
            ],
            [
              149.095059967402,
              -35.7806301352808
            ],
            [
              149.094726571052,
              -35.781372267639
            ],
            [
              149.093141959922,
              -35.7831883957166
            ],
            [
              149.093326892514,
              -35.7838930785209
            ],
            [
              149.092885670748,
              -35.7849000376944
            ],
            [
              149.093011501854,
              -35.7856802164809
            ],
            [
              149.093357332381,
              -35.7863919966038
            ],
            [
              149.093475385066,
              -35.7872291148972
            ],
            [
              149.096123835026,
              -35.7872134623607
            ],
            [
              149.097553268217,
              -35.7881960679801
            ],
            [
              149.100149310916,
              -35.7897216727704
            ],
            [
              149.100323195447,
              -35.7903077541098
            ],
            [
              149.100530603081,
              -35.7913892599313
            ],
            [
              149.100452237379,
              -35.7930640202663
            ],
            [
              149.10019447806,
              -35.7940611543113
            ],
            [
              149.099457118687,
              -35.7950919563802
            ],
            [
              149.098711240692,
              -35.7952237644319
            ],
            [
              149.09776879893,
              -35.7959686244283
            ],
            [
              149.09706447346,
              -35.7968478132717
            ],
            [
              149.096758850029,
              -35.7981789738
            ],
            [
              149.096906587085,
              -35.7989600529075
            ],
            [
              149.097109422375,
              -35.7996828301345
            ],
            [
              149.098401584098,
              -35.8005323842626
            ],
            [
              149.098989859221,
              -35.8011563232447
            ],
            [
              149.099837465884,
              -35.8017686815815
            ],
            [
              149.099831495096,
              -35.803270703218
            ],
            [
              149.101504254993,
              -35.8036512974358
            ],
            [
              149.101116222884,
              -35.8050602673933
            ],
            [
              149.100421139545,
              -35.8057054151033
            ],
            [
              149.099552710532,
              -35.8066752344829
            ],
            [
              149.099668513988,
              -35.8072293083656
            ],
            [
              149.098838555937,
              -35.8074596612068
            ],
            [
              149.098262548445,
              -35.8079350264665
            ],
            [
              149.099599528199,
              -35.8096248291136
            ],
            [
              149.100477541739,
              -35.810021563559
            ],
            [
              149.100271071059,
              -35.8113546686463
            ],
            [
              149.099564817955,
              -35.8118913810911
            ],
            [
              149.100149765213,
              -35.8136418735797
            ],
            [
              149.10059967381,
              -35.8147022467378
            ],
            [
              149.100428432343,
              -35.815300636411
            ],
            [
              149.098803724071,
              -35.8168761570445
            ],
            [
              149.097340374435,
              -35.8173784828712
            ],
            [
              149.095920501518,
              -35.8175848675218
            ],
            [
              149.073938186921,
              -35.8146599632066
            ],
            [
              149.073651474011,
              -35.8148790797833
            ],
            [
              149.073007004394,
              -35.8153142421989
            ],
            [
              149.072421842147,
              -35.8157629779791
            ],
            [
              149.072160461125,
              -35.8162699384002
            ],
            [
              149.071903716323,
              -35.8166260380477
            ],
            [
              149.071236614896,
              -35.8170156019914
            ],
            [
              149.070625035735,
              -35.8172401290433
            ],
            [
              149.07029912831,
              -35.8173078835567
            ],
            [
              149.069724388652,
              -35.8170946835239
            ],
            [
              149.069211796149,
              -35.8169777870864
            ],
            [
              149.068551280933,
              -35.8170192076215
            ],
            [
              149.067939202076,
              -35.817177213697
            ],
            [
              149.067358364808,
              -35.8173920663364
            ],
            [
              149.066791212855,
              -35.8175641934471
            ],
            [
              149.066284009124,
              -35.8178656994893
            ],
            [
              149.065909146846,
              -35.8181835417938
            ],
            [
              149.065476819453,
              -35.818292516604
            ],
            [
              149.065027184949,
              -35.8183377844877
            ],
            [
              149.064727120314,
              -35.8185085169017
            ],
            [
              149.06447919785,
              -35.818880367141
            ],
            [
              149.064100456049,
              -35.8190444640198
            ],
            [
              149.06343054574,
              -35.818931288398
            ],
            [
              149.061355195702,
              -35.8290651761963
            ],
            [
              149.062013935104,
              -35.8291546521197
            ],
            [
              149.061844184213,
              -35.8299834610072
            ],
            [
              149.06140275077,
              -35.8307107255237
            ],
            [
              149.061220126059,
              -35.8311551221268
            ],
            [
              149.061173488024,
              -35.8315457612605
            ],
            [
              149.060607619216,
              -35.8331298016744
            ],
            [
              149.053559859518,
              -35.8321722749527
            ],
            [
              149.053878269906,
              -35.8324249632868
            ],
            [
              149.054031810069,
              -35.8327059839969
            ],
            [
              149.054023447626,
              -35.8331870348478
            ],
            [
              149.053621466692,
              -35.8337126600102
            ],
            [
              149.053073998035,
              -35.8343239485366
            ],
            [
              149.052844011262,
              -35.8348997036883
            ],
            [
              149.05236221136,
              -35.8352034842031
            ],
            [
              149.05174673177,
              -35.8357415251554
            ],
            [
              149.050999208262,
              -35.836268974766
            ],
            [
              149.050453623204,
              -35.8367428208805
            ],
            [
              149.050065655171,
              -35.8372685189434
            ],
            [
              149.049545017854,
              -35.8376392581389
            ],
            [
              149.049515478373,
              -35.8378797919753
            ],
            [
              149.049137699179,
              -35.8382201114834
            ],
            [
              149.048995948256,
              -35.8384860056056
            ],
            [
              149.048570456498,
              -35.8388128214968
            ],
            [
              149.048272785556,
              -35.8393564171105
            ],
            [
              149.047804170817,
              -35.8400110922603
            ],
            [
              149.047267310689,
              -35.8405395324205
            ],
            [
              149.046618724022,
              -35.8412083182038
            ],
            [
              149.046195005309,
              -35.8418330536738
            ],
            [
              149.045573673599,
              -35.842361602057
            ],
            [
              149.045061410292,
              -35.8427689060793
            ],
            [
              149.045150076764,
              -35.8430409444822
            ],
            [
              149.045388064645,
              -35.8433399740214
            ],
            [
              149.046005332137,
              -35.843583105025
            ],
            [
              149.046392784144,
              -35.843965985552
            ],
            [
              149.046643870194,
              -35.8445674426893
            ],
            [
              149.046822290119,
              -35.8452720158821
            ],
            [
              149.046646179238,
              -35.8459524580524
            ],
            [
              149.046779293505,
              -35.8461056162546
            ],
            [
              149.046068900768,
              -35.8463051754151
            ],
            [
              149.04536426908,
              -35.8465273484942
            ],
            [
              149.045323305082,
              -35.8467476077825
            ],
            [
              149.045444060998,
              -35.8472324934121
            ],
            [
              149.045362476766,
              -35.8477044635217
            ],
            [
              149.045529352748,
              -35.8478593251747
            ],
            [
              149.046221860242,
              -35.8479644622333
            ],
            [
              149.046823310354,
              -35.8479119183877
            ],
            [
              149.046897792064,
              -35.8476550598444
            ],
            [
              149.047317337152,
              -35.8477427927928
            ],
            [
              149.047693380446,
              -35.8480552012489
            ],
            [
              149.048232615009,
              -35.8484374859083
            ],
            [
              149.048507263859,
              -35.8487297383397
            ],
            [
              149.048388096687,
              -35.8490440168189
            ],
            [
              149.047972406579,
              -35.8496181094797
            ],
            [
              149.047697890981,
              -35.8502968718445
            ],
            [
              149.046978702503,
              -35.8509318859868
            ],
            [
              149.046652387389,
              -35.8514113228929
            ],
            [
              149.045931133623,
              -35.8516869433715
            ],
            [
              149.045545827371,
              -35.852205776116
            ],
            [
              149.045225739049,
              -35.8527792887296
            ],
            [
              149.044987843822,
              -35.8529956417568
            ],
            [
              149.044950272939,
              -35.8530854108079
            ],
            [
              149.044764194683,
              -35.8530713884832
            ],
            [
              149.043445683516,
              -35.8526229158812
            ],
            [
              149.041048649535,
              -35.8522102516729
            ],
            [
              149.033341243145,
              -35.8510883044943
            ],
            [
              149.033131115724,
              -35.850579130411
            ],
            [
              149.033498246917,
              -35.8493437210427
            ],
            [
              149.033837744405,
              -35.8487470708665
            ],
            [
              149.033907493112,
              -35.8471653050076
            ],
            [
              149.034391345367,
              -35.8461662401312
            ],
            [
              149.034332025777,
              -35.845518822715
            ],
            [
              149.033849603433,
              -35.8442212297145
            ],
            [
              149.033682264171,
              -35.8439428666107
            ],
            [
              149.033496512529,
              -35.8431568176445
            ],
            [
              149.033377383258,
              -35.8416743999446
            ],
            [
              149.033299290553,
              -35.8407286409227
            ],
            [
              149.034227619312,
              -35.8364864895762
            ],
            [
              149.034697602036,
              -35.8343464631703
            ],
            [
              149.033807869859,
              -35.831705535553
            ],
            [
              149.033610931214,
              -35.8299268502268
            ],
            [
              149.032078997277,
              -35.8258281998098
            ],
            [
              149.030070045915,
              -35.8199990165718
            ],
            [
              149.02819435643,
              -35.819680628737
            ],
            [
              149.027449153779,
              -35.8195949554404
            ],
            [
              149.023647943072,
              -35.8184531495684
            ],
            [
              149.023641708822,
              -35.8192564970863
            ],
            [
              149.022784402947,
              -35.8202023686229
            ],
            [
              149.022507497902,
              -35.8210070065725
            ],
            [
              149.022400231795,
              -35.8214230062163
            ],
            [
              149.022030142939,
              -35.8227211964604
            ],
            [
              149.021881222871,
              -35.8236666089991
            ],
            [
              149.02199768687,
              -35.8246445613573
            ],
            [
              149.022169367821,
              -35.8255048238497
            ],
            [
              149.022639006413,
              -35.8273195895428
            ],
            [
              149.022519380326,
              -35.8278802568069
            ],
            [
              149.022266708036,
              -35.8284437602339
            ],
            [
              149.021310177376,
              -35.8295778904232
            ],
            [
              149.019273228139,
              -35.8282999141137
            ],
            [
              149.017946973129,
              -35.8275540222804
            ],
            [
              149.017093179841,
              -35.8272617951261
            ],
            [
              149.014678105383,
              -35.8262525684192
            ],
            [
              149.012029272784,
              -35.8251200806728
            ],
            [
              149.009947923381,
              -35.8239020511279
            ],
            [
              149.009001379702,
              -35.8231856805617
            ],
            [
              149.008115111566,
              -35.8219295117618
            ],
            [
              149.007011102155,
              -35.8210520086986
            ],
            [
              149.003895768605,
              -35.8188239905939
            ],
            [
              149.000350236005,
              -35.8165633428411
            ],
            [
              148.995788372419,
              -35.8148445711142
            ],
            [
              148.992326868589,
              -35.8134084090855
            ],
            [
              148.991038138182,
              -35.8130633941599
            ],
            [
              148.991026846134,
              -35.8130450844178
            ],
            [
              148.989653990033,
              -35.812658689823
            ],
            [
              148.988843559826,
              -35.8122740364115
            ],
            [
              148.98757637859,
              -35.8118044478094
            ],
            [
              148.986378073915,
              -35.8114359982476
            ],
            [
              148.985527399783,
              -35.8109446676586
            ],
            [
              148.985143157686,
              -35.8107606862327
            ],
            [
              148.981163562063,
              -35.8089503474614
            ],
            [
              148.974178223011,
              -35.8078080009472
            ],
            [
              148.960595943995,
              -35.8064447073398
            ],
            [
              148.963267397713,
              -35.7855494983918
            ],
            [
              148.973788523378,
              -35.7870434751214
            ],
            [
              148.976996422065,
              -35.7720376606655
            ],
            [
              148.987995931323,
              -35.7735985174664
            ],
            [
              148.991094981831,
              -35.7590870406086
            ],
            [
              148.992817293236,
              -35.7593313434741
            ],
            [
              148.994407608066,
              -35.7518817615268
            ],
            [
              149.004120465538,
              -35.753258996452
            ]
          ]
        ]
      },
      "properties": {
        "OBJECTID": 56,
        "DISTRICT_CODE": 18,
        "DISTRICT_NAME": "BOOTH",
        "DISTRICT_SHORT": "BOOT",
        "ID": 101,
        "LAST_UPDATE_DATE": "Wed, 02 Jan 2013 12:34:22 GMT",
        "GlobalID": "212b1ec7-be7d-4dbf-bd39-1a5831467d67"
      }
    }
  ]
}