{
  "type": "FeatureCollection",
  "crs": {
    "type": "name",
    "properties": {
      "name": "EPSG:4326"
    }
  },
  "features": 
    {
      "type": "Feature",
      "id": 39,
      "geometry": {
        "type": "Polygon",
        "coordinates": [
          [
            [
              149.165267496224,
              -35.2584142139853
            ],
            [
              149.165044431665,
              -35.2584860709731
            ],
            [
              149.164815672985,
              -35.2585446596297
            ],
            [
              149.164582391626,
              -35.258589679924
            ],
            [
              149.163311691037,
              -35.2587958496725
            ],
            [
              149.16309726208,
              -35.258836687486
            ],
            [
              149.16288656699,
              -35.2588889912534
            ],
            [
              149.162680516021,
              -35.2589525350154
            ],
            [
              149.159343089078,
              -35.2600857087851
            ],
            [
              149.159072643359,
              -35.2601893379967
            ],
            [
              149.158814520636,
              -35.2603123058326
            ],
            [
              149.158570771247,
              -35.2604536355629
            ],
            [
              149.158343331392,
              -35.2606122046023
            ],
            [
              149.158134007754,
              -35.2607867534245
            ],
            [
              149.15794446315,
              -35.2609758955645
            ],
            [
              149.152286841189,
              -35.267163742925
            ],
            [
              149.152126311587,
              -35.2673557423725
            ],
            [
              149.151986179842,
              -35.2675581996496
            ],
            [
              149.151867452507,
              -35.2677696607577
            ],
            [
              149.151770982432,
              -35.267988607023
            ],
            [
              149.151697462638,
              -35.2682134660017
            ],
            [
              149.151647421334,
              -35.268442622772
            ],
            [
              149.151621218117,
              -35.2686744315317
            ],
            [
              149.151295419345,
              -35.274007813257
            ],
            [
              149.151292787216,
              -35.2743712663298
            ],
            [
              149.151329221133,
              -35.2747334956509
            ],
            [
              149.151404438133,
              -35.2750916828292
            ],
            [
              149.151517853472,
              -35.2754430408883
            ],
            [
              149.15166858516,
              -35.2757848359534
            ],
            [
              149.151855460813,
              -35.2761144085265
            ],
            [
              149.152077026755,
              -35.2764291941825
            ],
            [
              149.152331559329,
              -35.276726743528
            ],
            [
              149.15261707829,
              -35.2770047412646
            ],
            [
              149.1557483304,
              -35.2797938007512
            ],
            [
              149.155939314023,
              -35.2799506982251
            ],
            [
              149.156145104851,
              -35.2800944564083
            ],
            [
              149.156364362624,
              -35.2802241389981
            ],
            [
              149.156595659353,
              -35.2803389013639
            ],
            [
              149.159226973022,
              -35.2815282395354
            ],
            [
              149.159374989282,
              -35.2816021332787
            ],
            [
              149.159514693821,
              -35.2816862063526
            ],
            [
              149.159645048283,
              -35.2817798338954
            ],
            [
              149.159765083793,
              -35.2818823200315
            ],
            [
              149.159873908162,
              -35.2819929030422
            ],
            [
              149.159970712517,
              -35.2821107610274
            ],
            [
              149.160054777312,
              -35.2822350180125
            ],
            [
              149.16012547768,
              -35.2823647504594
            ],
            [
              149.160182288074,
              -35.2824989941292
            ],
            [
              149.160224786182,
              -35.2826367512489
            ],
            [
              149.160252656058,
              -35.2827769979268
            ],
            [
              149.160265690481,
              -35.2829186917622
            ],
            [
              149.160263792494,
              -35.2830607795928
            ],
            [
              149.160246976126,
              -35.2832022053224
            ],
            [
              149.16021536629,
              -35.2833419177708
            ],
            [
              149.160169197859,
              -35.2834788784866
            ],
            [
              149.160108813921,
              -35.283612069466
            ],
            [
              149.15980323755,
              -35.2842063028999
            ],
            [
              149.165525243139,
              -35.2872356401841
            ],
            [
              149.165620388311,
              -35.2871148011239
            ],
            [
              149.167188972043,
              -35.2879450964635
            ],
            [
              149.169333672621,
              -35.2897829308263
            ],
            [
              149.17039169601,
              -35.2924196030122
            ],
            [
              149.172680257879,
              -35.2945881085085
            ],
            [
              149.177576456556,
              -35.2992010917328
            ],
            [
              149.174947869655,
              -35.3011807512912
            ],
            [
              149.174802541221,
              -35.3012802707851
            ],
            [
              149.174646435884,
              -35.3013681399477
            ],
            [
              149.174480938487,
              -35.3014435792527
            ],
            [
              149.174364237017,
              -35.3014950172008
            ],
            [
              149.174251921515,
              -35.3015526446472
            ],
            [
              149.174144479739,
              -35.3016162113363
            ],
            [
              149.173578662768,
              -35.3019747920235
            ],
            [
              149.173279796044,
              -35.3023023019368
            ],
            [
              149.173580842141,
              -35.3023447723844
            ],
            [
              149.174023742522,
              -35.3024861176012
            ],
            [
              149.174746582477,
              -35.3027510017526
            ],
            [
              149.175268561344,
              -35.3031209731811
            ],
            [
              149.175730626025,
              -35.303543927939
            ],
            [
              149.176065900839,
              -35.3041658737126
            ],
            [
              149.17599980443,
              -35.3048519998666
            ],
            [
              149.175575937697,
              -35.3053168190456
            ],
            [
              149.175473562531,
              -35.3056847620233
            ],
            [
              149.175286265158,
              -35.3062994946114
            ],
            [
              149.175389139623,
              -35.3066598556109
            ],
            [
              149.175308787263,
              -35.3071528620818
            ],
            [
              149.174913434442,
              -35.3079679573801
            ],
            [
              149.174648701702,
              -35.308733845245
            ],
            [
              149.174729098891,
              -35.3091786840636
            ],
            [
              149.175039191813,
              -35.3095753524277
            ],
            [
              149.175433746148,
              -35.3101415196949
            ],
            [
              149.1761435024,
              -35.3106925608819
            ],
            [
              149.177068582898,
              -35.3113114349759
            ],
            [
              149.177736128738,
              -35.3118050252582
            ],
            [
              149.177905483023,
              -35.3121895344116
            ],
            [
              149.178217860631,
              -35.3127197565718
            ],
            [
              149.178310262132,
              -35.3132682210255
            ],
            [
              149.178277732255,
              -35.3133820944127
            ],
            [
              149.178094458132,
              -35.313761958772
            ],
            [
              149.177889714038,
              -35.3141284234078
            ],
            [
              149.177330738147,
              -35.3146242592896
            ],
            [
              149.176952942514,
              -35.3152162761951
            ],
            [
              149.176531345972,
              -35.3158995595456
            ],
            [
              149.176424858455,
              -35.3161430448132
            ],
            [
              149.176376235242,
              -35.3165604823386
            ],
            [
              149.176475037615,
              -35.3170171910914
            ],
            [
              149.176961123563,
              -35.3175296918487
            ],
            [
              149.177204363504,
              -35.318066140143
            ],
            [
              149.177909599495,
              -35.3184133132223
            ],
            [
              149.178890489332,
              -35.3183797674437
            ],
            [
              149.179785791759,
              -35.3185379404914
            ],
            [
              149.180550229401,
              -35.3187413549053
            ],
            [
              149.182052889972,
              -35.3192258944394
            ],
            [
              149.182599173127,
              -35.31937715411
            ],
            [
              149.183753195097,
              -35.3196706558494
            ],
            [
              149.185008843496,
              -35.3199189354215
            ],
            [
              149.185738192442,
              -35.3199539238696
            ],
            [
              149.186258494573,
              -35.3199345984769
            ],
            [
              149.186670739459,
              -35.3201835511217
            ],
            [
              149.187123583274,
              -35.3204921061449
            ],
            [
              149.187633345986,
              -35.3210303945131
            ],
            [
              149.188071698442,
              -35.3212961571886
            ],
            [
              149.188166011588,
              -35.321529262611
            ],
            [
              149.188389305307,
              -35.3221074452468
            ],
            [
              149.188717922085,
              -35.3227721727941
            ],
            [
              149.189064149176,
              -35.3233924404275
            ],
            [
              149.189355188565,
              -35.3239180682361
            ],
            [
              149.189531955574,
              -35.3242867777587
            ],
            [
              149.189843987912,
              -35.3247549631518
            ],
            [
              149.190289540967,
              -35.325525408476
            ],
            [
              149.190840531279,
              -35.3264286281216
            ],
            [
              149.191118628869,
              -35.3269109200771
            ],
            [
              149.191275870271,
              -35.3271478929103
            ],
            [
              149.191636048995,
              -35.3277437990728
            ],
            [
              149.19190042601,
              -35.3283314660019
            ],
            [
              149.192294904285,
              -35.3290637674261
            ],
            [
              149.192551829682,
              -35.3294644352389
            ],
            [
              149.192604769237,
              -35.3295798054866
            ],
            [
              149.192716308076,
              -35.3300285495478
            ],
            [
              149.192715293462,
              -35.3305045915448
            ],
            [
              149.192634005359,
              -35.3311800214059
            ],
            [
              149.192446836847,
              -35.3316253426855
            ],
            [
              149.192321548526,
              -35.3319077137775
            ],
            [
              149.192189331191,
              -35.3320441833249
            ],
            [
              149.192156638872,
              -35.3321783388424
            ],
            [
              149.192155541341,
              -35.3322769376739
            ],
            [
              149.192130520006,
              -35.3323986443898
            ],
            [
              149.192014518146,
              -35.3325570787935
            ],
            [
              149.191810175963,
              -35.3328998623489
            ],
            [
              149.191659475547,
              -35.3332307585196
            ],
            [
              149.191391627754,
              -35.3337994911366
            ],
            [
              149.19104217419,
              -35.3344196256618
            ],
            [
              149.190581484206,
              -35.3352196367176
            ],
            [
              149.190448383892,
              -35.3358022230886
            ],
            [
              149.190397329159,
              -35.3362360716507
            ],
            [
              149.190357430062,
              -35.3364940693269
            ],
            [
              149.190369956663,
              -35.3368342722326
            ],
            [
              149.190475562738,
              -35.3371388265472
            ],
            [
              149.190452157914,
              -35.3375923704334
            ],
            [
              149.190435214653,
              -35.3376887395517
            ],
            [
              149.190467719794,
              -35.3379122909692
            ],
            [
              149.190453313937,
              -35.3381105870137
            ],
            [
              149.19039775282,
              -35.3384480080655
            ],
            [
              149.190345141367,
              -35.3387269339654
            ],
            [
              149.19040038759,
              -35.3389386451371
            ],
            [
              149.190330372405,
              -35.3391573029668
            ],
            [
              149.190242291595,
              -35.3394627774288
            ],
            [
              149.190519959871,
              -35.3396353116259
            ],
            [
              149.190595453676,
              -35.3397114687914
            ],
            [
              149.187201940719,
              -35.3425021464791
            ],
            [
              149.186619695672,
              -35.342273984612
            ],
            [
              149.186046330077,
              -35.342031197271
            ],
            [
              149.185482391008,
              -35.3417740161287
            ],
            [
              149.184486534901,
              -35.3413032031211
            ],
            [
              149.182036260148,
              -35.3398200682013
            ],
            [
              149.181347969666,
              -35.3394461519874
            ],
            [
              149.180616949653,
              -35.3391313632405
            ],
            [
              149.179850738774,
              -35.3388789481176
            ],
            [
              149.17828983193,
              -35.3384387439959
            ],
            [
              149.177822184558,
              -35.3384014931698
            ],
            [
              149.165076603797,
              -35.3323740444234
            ],
            [
              149.164670992716,
              -35.3321742908077
            ],
            [
              149.164274237735,
              -35.3319629313265
            ],
            [
              149.163886833138,
              -35.3317402293232
            ],
            [
              149.161852586851,
              -35.3305263371707
            ],
            [
              149.161855807161,
              -35.3305220597294
            ],
            [
              149.161575155169,
              -35.3303545818934
            ],
            [
              149.161505760793,
              -35.3311276923176
            ],
            [
              149.161517693377,
              -35.331902829677
            ],
            [
              149.161610866964,
              -35.3326742592488
            ],
            [
              149.162660853521,
              -35.338706325201
            ],
            [
              149.162774353044,
              -35.3393981587133
            ],
            [
              149.162874229464,
              -35.3400914013004
            ],
            [
              149.162960456483,
              -35.3407858728526
            ],
            [
              149.162134248201,
              -35.340914207755
            ],
            [
              149.160745131241,
              -35.341144762789
            ],
            [
              149.159382835512,
              -35.3414652491799
            ],
            [
              149.158056017242,
              -35.3418736307557
            ],
            [
              149.154385939272,
              -35.3430721711357
            ],
            [
              149.147552655251,
              -35.3452402461733
            ],
            [
              149.146910023829,
              -35.3454255999222
            ],
            [
              149.146250705824,
              -35.3455662164295
            ],
            [
              149.145579331912,
              -35.3456611080298
            ],
            [
              149.144900617517,
              -35.3457096082034
            ],
            [
              149.144219329661,
              -35.345711376263
            ],
            [
              149.143540253468,
              -35.3456663997488
            ],
            [
              149.142868158522,
              -35.3455749945174
            ],
            [
              149.142207765345,
              -35.345437802523
            ],
            [
              149.141563712221,
              -35.3452557873064
            ],
            [
              149.140940522595,
              -35.3450302272237
            ],
            [
              149.140598147747,
              -35.3448919805241
            ],
            [
              149.140003862574,
              -35.3446762452397
            ],
            [
              149.139390084105,
              -35.3445009410649
            ],
            [
              149.138760901592,
              -35.3443672359587
            ],
            [
              149.137952609076,
              -35.3442511271403
            ],
            [
              149.137135671997,
              -35.3441874971019
            ],
            [
              149.13631515712,
              -35.3441767405435
            ],
            [
              149.135496153389,
              -35.3442189242355
            ],
            [
              149.133500847643,
              -35.344386520534
            ],
            [
              149.131339237471,
              -35.3449008061317
            ],
            [
              149.131055547252,
              -35.3449786513565
            ],
            [
              149.130780490987,
              -35.3450750805149
            ],
            [
              149.130515878671,
              -35.3451894590785
            ],
            [
              149.130263451593,
              -35.3453210344025
            ],
            [
              149.130024870887,
              -35.3454689406766
            ],
            [
              149.129801706595,
              -35.3456322046209
            ],
            [
              149.129171412429,
              -35.3461324088046
            ],
            [
              149.128856559807,
              -35.3463592701037
            ],
            [
              149.128516557017,
              -35.3465602934422
            ],
            [
              149.128154550639,
              -35.3467336183167
            ],
            [
              149.127773890969,
              -35.3468776405629
            ],
            [
              149.125310710037,
              -35.3476942014424
            ],
            [
              149.125019533129,
              -35.3477828978644
            ],
            [
              149.124722658385,
              -35.3478578512209
            ],
            [
              149.124421051261,
              -35.3479188177491
            ],
            [
              149.116096774987,
              -35.336890934033
            ],
            [
              149.116769411325,
              -35.3286746317989
            ],
            [
              149.116754976574,
              -35.3286741329398
            ],
            [
              149.116740647934,
              -35.3286726168148
            ],
            [
              149.116726531951,
              -35.3286700946976
            ],
            [
              149.116712733592,
              -35.3286665853425
            ],
            [
              149.116699355458,
              -35.3286621148447
            ],
            [
              149.11668649703,
              -35.3286567164466
            ],
            [
              149.116674253921,
              -35.3286504302901
            ],
            [
              149.116501961263,
              -35.3285532671555
            ],
            [
              149.116457865222,
              -35.3285258752141
            ],
            [
              149.11641701651,
              -35.3284952880736
            ],
            [
              149.116379758635,
              -35.3284617629518
            ],
            [
              149.116346404908,
              -35.3284255817725
            ],
            [
              149.116317235805,
              -35.328387048795
            ],
            [
              149.116292496612,
              -35.3283464880552
            ],
            [
              149.116272395363,
              -35.3283042406406
            ],
            [
              149.116257101087,
              -35.328260661822
            ],
            [
              149.11624674239,
              -35.3282161180657
            ],
            [
              149.116136198902,
              -35.3275844704896
            ],
            [
              149.11611230374,
              -35.3274824940128
            ],
            [
              149.116076769238,
              -35.3273828213934
            ],
            [
              149.116029912777,
              -35.3272863427525
            ],
            [
              149.115883212595,
              -35.3270214527509
            ],
            [
              149.114739168835,
              -35.3255219867314
            ],
            [
              149.114698253083,
              -35.325463103551
            ],
            [
              149.114663378499,
              -35.3254016645603
            ],
            [
              149.114634780857,
              -35.3253380851518
            ],
            [
              149.114612653493,
              -35.3252727951886
            ],
            [
              149.114597145996,
              -35.3252062360978
            ],
            [
              149.114588363195,
              -35.3251388578864
            ],
            [
              149.114567095319,
              -35.3248723067717
            ],
            [
              149.114560249894,
              -35.3248206924069
            ],
            [
              149.114548024215,
              -35.324769750032
            ],
            [
              149.114530508524,
              -35.3247198556249
            ],
            [
              149.114507832104,
              -35.3246713774283
            ],
            [
              149.114480162326,
              -35.3246246732321
            ],
            [
              149.114447703412,
              -35.3245800877328
            ],
            [
              149.11441069493,
              -35.3245379499895
            ],
            [
              149.114369410023,
              -35.3244985709955
            ],
            [
              149.11427408153,
              -35.3244151749905
            ],
            [
              149.11423309062,
              -35.3243822594705
            ],
            [
              149.114188814887,
              -35.3243523377956
            ],
            [
              149.114141578805,
              -35.3243256292438
            ],
            [
              149.114091728539,
              -35.3243023295457
            ],
            [
              149.114039629414,
              -35.3242826094508
            ],
            [
              149.113985663232,
              -35.3242666134754
            ],
            [
              149.113930225478,
              -35.3242544588442
            ],
            [
              149.113873722421,
              -35.3242462346311
            ],
            [
              149.113816568137,
              -35.3242420011065
            ],
            [
              149.113759181471,
              -35.3242417892954
            ],
            [
              149.113701982975,
              -35.3242456007504
            ],
            [
              149.11364539182,
              -35.3242534075399
            ],
            [
              149.113589822726,
              -35.3242651524533
            ],
            [
              149.113535682926,
              -35.3242807494199
            ],
            [
              149.113483369177,
              -35.3243000841394
            ],
            [
              149.113353149152,
              -35.3243538220404
            ],
            [
              149.113232541539,
              -35.3243987874335
            ],
            [
              149.113107976261,
              -35.3244358032844
            ],
            [
              149.112980232017,
              -35.3244646381926
            ],
            [
              149.112850107377,
              -35.3244851118992
            ],
            [
              149.1127184158,
              -35.324497096414
            ],
            [
              149.112339604819,
              -35.3245191912109
            ],
            [
              149.112106616652,
              -35.3245261175607
            ],
            [
              149.111873604581,
              -35.3245197536028
            ],
            [
              149.111641695995,
              -35.3245001301242
            ],
            [
              149.110215678997,
              -35.3243381993466
            ],
            [
              149.110151980393,
              -35.3243286126009
            ],
            [
              149.110089553855,
              -35.3243144822491
            ],
            [
              149.110028880928,
              -35.3242959172898
            ],
            [
              149.10997042963,
              -35.324273060929
            ],
            [
              149.109914650843,
              -35.324246089476
            ],
            [
              149.109861974828,
              -35.3242152109826
            ],
            [
              149.109812807915,
              -35.3241806636388
            ],
            [
              149.109767529361,
              -35.3241427139348
            ],
            [
              149.109726488429,
              -35.3241016546059
            ],
            [
              149.109690001694,
              -35.3240578023734
            ],
            [
              149.109658350596,
              -35.3240114955023
            ],
            [
              149.109631779277,
              -35.3239630911916
            ],
            [
              149.10961049269,
              -35.3239129628183
            ],
            [
              149.109594655024,
              -35.3238614970582
            ],
            [
              149.109584388437,
              -35.3238090909023
            ],
            [
              149.109495767943,
              -35.3231817814863
            ],
            [
              149.109490954802,
              -35.3232068550986
            ],
            [
              149.109486891823,
              -35.323232017739
            ],
            [
              149.109483581442,
              -35.3232572543349
            ],
            [
              149.109410297014,
              -35.3238881722468
            ],
            [
              149.109401336046,
              -35.3239562953611
            ],
            [
              149.109390305232,
              -35.3240242141729
            ],
            [
              149.109377211425,
              -35.3240918864475
            ],
            [
              149.109138994713,
              -35.3252309715005
            ],
            [
              149.109119068661,
              -35.3253059465013
            ],
            [
              149.10909105213,
              -35.3253791635276
            ],
            [
              149.109055168996,
              -35.32545003746
            ],
            [
              149.109011706001,
              -35.3255180019025
            ],
            [
              149.108961010465,
              -35.3255825137094
            ],
            [
              149.108903487512,
              -35.3256430573255
            ],
            [
              149.10883959683,
              -35.3256991489068
            ],
            [
              149.108769849,
              -35.3257503401874
            ],
            [
              149.108694801414,
              -35.3257962220621
            ],
            [
              149.10861505382,
              -35.3258364278561
            ],
            [
              149.108531243533,
              -35.3258706362555
            ],
            [
              149.108444040337,
              -35.3258985738753
            ],
            [
              149.108354141133,
              -35.3259200174447
            ],
            [
              149.108262264371,
              -35.3259347955915
            ],
            [
              149.108169144307,
              -35.3259427902114
            ],
            [
              149.108075525133,
              -35.3259439374126
            ],
            [
              149.107982155032,
              -35.3259382280262
            ],
            [
              149.107024663559,
              -35.3258442501301
            ],
            [
              149.106915850942,
              -35.3258375321022
            ],
            [
              149.106806738957,
              -35.3258386786767
            ],
            [
              149.10669817228,
              -35.3258476809784
            ],
            [
              149.106590991366,
              -35.3258644693185
            ],
            [
              149.106486025941,
              -35.3258889137333
            ],
            [
              149.106384088586,
              -35.3259208249904
            ],
            [
              149.106285968439,
              -35.3259599560535
            ],
            [
              149.106192425095,
              -35.3260060039945
            ],
            [
              149.106104182718,
              -35.3260586123384
            ],
            [
              149.1052395185,
              -35.3266233996471
            ],
            [
              149.105155978557,
              -35.3266752813528
            ],
            [
              149.10506944491,
              -35.3267237556648
            ],
            [
              149.104980124298,
              -35.3267687067681
            ],
            [
              149.102170702796,
              -35.3281061415791
            ],
            [
              149.102098466505,
              -35.328140528857
            ],
            [
              149.101996332571,
              -35.3281844467017
            ],
            [
              149.101889971125,
              -35.3282210093082
            ],
            [
              149.10178016909,
              -35.3282499461628
            ],
            [
              149.101667738845,
              -35.3282710431716
            ],
            [
              149.10155351222,
              -35.3282841442445
            ],
            [
              149.101438334334,
              -35.3282891524503
            ],
            [
              149.101323057349,
              -35.3282860307339
            ],
            [
              149.101208534156,
              -35.3282748021905
            ],
            [
              149.101095612072,
              -35.3282555498948
            ],
            [
              149.100985126566,
              -35.3282284162866
            ],
            [
              149.100877895078,
              -35.3281936021162
            ],
            [
              149.100774710969,
              -35.3281513649596
            ],
            [
              149.100676337652,
              -35.3281020173122
            ],
            [
              149.100583502944,
              -35.3280459242769
            ],
            [
              149.10049689368,
              -35.3279835008623
            ],
            [
              149.100417150632,
              -35.327915208912
            ],
            [
              149.10016526994,
              -35.3276800327031
            ],
            [
              149.098290429664,
              -35.3275250393879
            ],
            [
              149.095441428382,
              -35.327289011346
            ],
            [
              149.088105284862,
              -35.3266806341677
            ],
            [
              149.087237887242,
              -35.326386845917
            ],
            [
              149.091187606041,
              -35.3151987394144
            ],
            [
              149.09200469616,
              -35.3128838199595
            ],
            [
              149.091135928543,
              -35.3126753278776
            ],
            [
              149.089714582918,
              -35.3123342097801
            ],
            [
              149.086288841649,
              -35.3124344971254
            ],
            [
              149.085446077396,
              -35.3124866196607
            ],
            [
              149.084610991998,
              -35.3125932700507
            ],
            [
              149.083788827691,
              -35.3127537788606
            ],
            [
              149.082984745686,
              -35.3129671385547
            ],
            [
              149.082687040891,
              -35.3127703824685
            ],
            [
              149.082686633691,
              -35.3127707581976
            ],
            [
              149.078253705039,
              -35.309840783032
            ],
            [
              149.077877833241,
              -35.3095727944168
            ],
            [
              149.077527340255,
              -35.3092826158692
            ],
            [
              149.077204170468,
              -35.308971857389
            ],
            [
              149.073332517641,
              -35.3049547306755
            ],
            [
              149.073195672834,
              -35.3047992424193
            ],
            [
              149.073075882123,
              -35.3046345679969
            ],
            [
              149.07297405727,
              -35.3044619609317
            ],
            [
              149.072890973261,
              -35.3042827351241
            ],
            [
              149.072827262411,
              -35.3040982548489
            ],
            [
              149.072783409555,
              -35.3039099243688
            ],
            [
              149.072759748362,
              -35.3037191772453
            ],
            [
              149.072756458795,
              -35.303527465425
            ],
            [
              149.072773565751,
              -35.3033362481881
            ],
            [
              149.072810938871,
              -35.3031469810393
            ],
            [
              149.07286829354,
              -35.3029611046301
            ],
            [
              149.072945193055,
              -35.3027800337923
            ],
            [
              149.073041051957,
              -35.3026051467698
            ],
            [
              149.073155140484,
              -35.3024377747286
            ],
            [
              149.073869346516,
              -35.3014896434772
            ],
            [
              149.073914252835,
              -35.3014237635881
            ],
            [
              149.073951985305,
              -35.3013549262811
            ],
            [
              149.073982256863,
              -35.3012836552945
            ],
            [
              149.074004837214,
              -35.3012104928813
            ],
            [
              149.07401955458,
              -35.3011359956837
            ],
            [
              149.074026297009,
              -35.3010607304978
            ],
            [
              149.074025013226,
              -35.3009852699611
            ],
            [
              149.07401571302,
              -35.3009101881958
            ],
            [
              149.07399846717,
              -35.3008360564407
            ],
            [
              149.07397340691,
              -35.3007634387055
            ],
            [
              149.07394072292,
              -35.3006928874792
            ],
            [
              149.073900663887,
              -35.3006249395272
            ],
            [
              149.073853534603,
              -35.3005601118075
            ],
            [
              149.073799693649,
              -35.3004988975379
            ],
            [
              149.073739550667,
              -35.3004417624433
            ],
            [
              149.073673563243,
              -35.3003891412136
            ],
            [
              149.073602233425,
              -35.3003414341954
            ],
            [
              149.073526103902,
              -35.3002990043475
            ],
            [
              149.072437342855,
              -35.2997475180025
            ],
            [
              149.070892278991,
              -35.2989648730899
            ],
            [
              149.070792811356,
              -35.2989094132662
            ],
            [
              149.070699641151,
              -35.298847034466
            ],
            [
              149.07061348233,
              -35.2987782147016
            ],
            [
              149.070534995114,
              -35.2987034813416
            ],
            [
              149.070464780934,
              -35.2986234070694
            ],
            [
              149.070403377817,
              -35.2985386054946
            ],
            [
              149.070351256267,
              -35.2984497264501
            ],
            [
              149.070308815658,
              -35.2983574510128
            ],
            [
              149.070276381178,
              -35.2982624862834
            ],
            [
              149.070254201334,
              -35.2981655599684
            ],
            [
              149.070242446052,
              -35.2980674148031
            ],
            [
              149.070241205373,
              -35.2979688028601
            ],
            [
              149.070250488765,
              -35.2978704797863
            ],
            [
              149.070270225054,
              -35.2977731990121
            ],
            [
              149.070300262968,
              -35.2976777059785
            ],
            [
              149.070340372297,
              -35.2975847324246
            ],
            [
              149.07039024566,
              -35.297494990781
            ],
            [
              149.070449500861,
              -35.2974091687107
            ],
            [
              149.071003977361,
              -35.2966822594452
            ],
            [
              149.071100209481,
              -35.2965676721979
            ],
            [
              149.071208383502,
              -35.2964604829033
            ],
            [
              149.071327657765,
              -35.2963615255121
            ],
            [
              149.071457104258,
              -35.2962715699261
            ],
            [
              149.071595715839,
              -35.2961913160088
            ],
            [
              149.07174241407,
              -35.2961213881415
            ],
            [
              149.07189605761,
              -35.296062330366
            ],
            [
              149.072055451088,
              -35.2960146021527
            ],
            [
              149.073171643346,
              -35.2957254289619
            ],
            [
              149.07339360324,
              -35.2956591966808
            ],
            [
              149.073607805956,
              -35.2955775830431
            ],
            [
              149.073812669106,
              -35.2954811909708
            ],
            [
              149.074006679312,
              -35.2953707325585
            ],
            [
              149.07418840339,
              -35.295247023811
            ],
            [
              149.074356498937,
              -35.2951109786145
            ],
            [
              149.074509724247,
              -35.2949636019838
            ],
            [
              149.074646947484,
              -35.2948059826365
            ],
            [
              149.074767155044,
              -35.2946392849491
            ],
            [
              149.075442293866,
              -35.2936038827292
            ],
            [
              149.075605607298,
              -35.293379721758
            ],
            [
              149.075794124447,
              -35.2931692758912
            ],
            [
              149.076006144283,
              -35.2929744438078
            ],
            [
              149.077248870275,
              -35.2919362116942
            ],
            [
              149.080430471383,
              -35.2892995043865
            ],
            [
              149.080566859781,
              -35.2891969922891
            ],
            [
              149.080714784494,
              -35.2891058673827
            ],
            [
              149.080872836961,
              -35.2890269973465
            ],
            [
              149.082952532372,
              -35.2881000151657
            ],
            [
              149.083281553394,
              -35.2879391149813
            ],
            [
              149.083593908365,
              -35.2877572506048
            ],
            [
              149.083887614888,
              -35.2875555763393
            ],
            [
              149.084160808969,
              -35.2873353722109
            ],
            [
              149.08566255578,
              -35.286024421378
            ],
            [
              149.085891885426,
              -35.2858403675638
            ],
            [
              149.086139246883,
              -35.2856727468408
            ],
            [
              149.086402894198,
              -35.2855227422482
            ],
            [
              149.086680966506,
              -35.2853914124859
            ],
            [
              149.086971501165,
              -35.2852796844441
            ],
            [
              149.087272447607,
              -35.2851883466641
            ],
            [
              149.087581681801,
              -35.2851180437748
            ],
            [
              149.087897021249,
              -35.2850692719443
            ],
            [
              149.087894501094,
              -35.2824591499238
            ],
            [
              149.087138576051,
              -35.2814873549803
            ],
            [
              149.086905648368,
              -35.2811571156911
            ],
            [
              149.086708523429,
              -35.2808115573064
            ],
            [
              149.086548685999,
              -35.2804532834001
            ],
            [
              149.086427339852,
              -35.2800849933172
            ],
            [
              149.086345398713,
              -35.2797094618325
            ],
            [
              149.086303479392,
              -35.2793295182419
            ],
            [
              149.086301897149,
              -35.2789480250442
            ],
            [
              149.086340663338,
              -35.278567856373
            ],
            [
              149.086419485339,
              -35.2781918763434
            ],
            [
              149.086537768774,
              -35.2778229174749
            ],
            [
              149.087890100705,
              -35.2742439694651
            ],
            [
              149.088095418234,
              -35.2736045375205
            ],
            [
              149.088233005163,
              -35.2729530068736
            ],
            [
              149.088301846275,
              -35.2722941928004
            ],
            [
              149.088301434476,
              -35.2716329642884
            ],
            [
              149.088231774497,
              -35.2709742080513
            ],
            [
              149.088093382802,
              -35.2703227924159
            ],
            [
              149.087887283731,
              -35.2696835313474
            ],
            [
              149.087615001876,
              -35.2690611488815
            ],
            [
              149.086702838767,
              -35.2672280584777
            ],
            [
              149.086434275752,
              -35.2666214727267
            ],
            [
              149.086224402355,
              -35.2659995138188
            ],
            [
              149.086074503866,
              -35.265365994674
            ],
            [
              149.085985497819,
              -35.2647247989966
            ],
            [
              149.085958055612,
              -35.2640492267947
            ],
            [
              149.085998316705,
              -35.2633740867528
            ],
            [
              149.086106007704,
              -35.2627039352261
            ],
            [
              149.086280400184,
              -35.2620432947924
            ],
            [
              149.087061340708,
              -35.2595763950036
            ],
            [
              149.087196250007,
              -35.2592194130387
            ],
            [
              149.087371419281,
              -35.258874395013
            ],
            [
              149.087585301004,
              -35.2585443879684
            ],
            [
              149.087836005825,
              -35.2582323063386
            ],
            [
              149.088121319266,
              -35.2579409062153
            ],
            [
              149.088438721291,
              -35.2576727610141
            ],
            [
              149.089495015122,
              -35.2568597357299
            ],
            [
              149.09032730741,
              -35.2575181275965
            ],
            [
              149.091225731367,
              -35.2581151896156
            ],
            [
              149.092183592656,
              -35.2586464721796
            ],
            [
              149.093193753549,
              -35.259108015844
            ],
            [
              149.094248686152,
              -35.2594963808638
            ],
            [
              149.095340528542,
              -35.2598086728546
            ],
            [
              149.096461143418,
              -35.2600425643851
            ],
            [
              149.097602178805,
              -35.2601963123403
            ],
            [
              149.110528916224,
              -35.2468894799538
            ],
            [
              149.113875199997,
              -35.2438040257428
            ],
            [
              149.114235211738,
              -35.2419121310059
            ],
            [
              149.114779762957,
              -35.2392077827246
            ],
            [
              149.116992964296,
              -35.2371799717391
            ],
            [
              149.11774899831,
              -35.236291547274
            ],
            [
              149.118159110452,
              -35.2349175889614
            ],
            [
              149.120156906602,
              -35.2332524368002
            ],
            [
              149.124103435127,
              -35.2323230860626
            ],
            [
              149.124931838896,
              -35.2315805825519
            ],
            [
              149.124894224759,
              -35.2314571588093
            ],
            [
              149.135674790155,
              -35.228350255386
            ],
            [
              149.142116291642,
              -35.2255627124434
            ],
            [
              149.143608192855,
              -35.2257631990721
            ],
            [
              149.143606409205,
              -35.2257227588363
            ],
            [
              149.151191572335,
              -35.2309064250511
            ],
            [
              149.153622681515,
              -35.2292196908155
            ],
            [
              149.154208673399,
              -35.2288091303769
            ],
            [
              149.155036726863,
              -35.2282342983636
            ],
            [
              149.155496534707,
              -35.2279428445769
            ],
            [
              149.155983863391,
              -35.2276858649866
            ],
            [
              149.156498367442,
              -35.2274634528596
            ],
            [
              149.157034667253,
              -35.2272799687202
            ],
            [
              149.158376641331,
              -35.2268740011267
            ],
            [
              149.158405181131,
              -35.2269374530566
            ],
            [
              149.161301166392,
              -35.2260603617028
            ],
            [
              149.163041987759,
              -35.2299300170701
            ],
            [
              149.163196516685,
              -35.229883118149
            ],
            [
              149.163386179709,
              -35.230304690892
            ],
            [
              149.166706564409,
              -35.230732008632
            ],
            [
              149.166681717975,
              -35.230865653591
            ],
            [
              149.181348981747,
              -35.2379343456748
            ],
            [
              149.178079565296,
              -35.2450994721269
            ],
            [
              149.180267846528,
              -35.2487835566595
            ],
            [
              149.180237790153,
              -35.2496402210677
            ],
            [
              149.180297091065,
              -35.2512995418566
            ],
            [
              149.178810254725,
              -35.2530653732099
            ],
            [
              149.178701971222,
              -35.2539241547052
            ],
            [
              149.17629157639,
              -35.2558477765818
            ],
            [
              149.17445154361,
              -35.2556936917051
            ],
            [
              149.172571940314,
              -35.2577398685381
            ],
            [
              149.169798300039,
              -35.2589975617824
            ],
            [
              149.168982350567,
              -35.2604821439886
            ],
            [
              149.165589733488,
              -35.2585937656672
            ],
            [
              149.165267496224,
              -35.2584142139853
            ]
          ]
        ]
      },
      "properties": {
        "OBJECTID": 39,
        "DISTRICT_CODE": 1,
        "DISTRICT_NAME": "CANBERRA CENTRAL",
        "DISTRICT_SHORT": "CANB",
        "ID": 106,
        "LAST_UPDATE_DATE": "Mon, 19 Jun 2023 11:10:24 GMT",
        "GlobalID": "828ad06f-73ee-4a8e-9ad1-04fdea409275"
      }
    }
}
  
