{
  "type": "FeatureCollection",
  "crs": {
    "type": "name",
    "properties": {
      "name": "EPSG:4326"
    }
  },
  "features": 
    {
      "type": "Feature",
      "id": 45,
      "geometry": {
        "type": "Polygon",
        "coordinates": [
          [
            [
              149.066273171705,
              -35.1648618213585
            ],
            [
              149.064537431606,
              -35.1623256299776
            ],
            [
              149.064308485931,
              -35.1619852581897
            ],
            [
              149.064127612674,
              -35.1616315209584
            ],
            [
              149.063892484281,
              -35.1612783592069
            ],
            [
              149.063519870761,
              -35.1608128048953
            ],
            [
              149.062406986744,
              -35.1591581849652
            ],
            [
              149.09133837845,
              -35.1420847926246
            ],
            [
              149.091917710024,
              -35.1414432468829
            ],
            [
              149.092217625347,
              -35.1406614626092
            ],
            [
              149.093152553148,
              -35.1387373217312
            ],
            [
              149.096319273738,
              -35.1380233970694
            ],
            [
              149.097855307446,
              -35.1367421682939
            ],
            [
              149.102573693102,
              -35.1352237058477
            ],
            [
              149.103127756948,
              -35.1331834620214
            ],
            [
              149.104144653153,
              -35.1321310775128
            ],
            [
              149.106718463943,
              -35.1310171001868
            ],
            [
              149.109678649353,
              -35.13110918213
            ],
            [
              149.10985386232,
              -35.1306801172462
            ],
            [
              149.111115281163,
              -35.130190144459
            ],
            [
              149.111318787782,
              -35.129706177089
            ],
            [
              149.112652106455,
              -35.127711789673
            ],
            [
              149.113387028089,
              -35.1275387628517
            ],
            [
              149.115503331804,
              -35.1262471536681
            ],
            [
              149.116241665159,
              -35.1264787983988
            ],
            [
              149.116909123835,
              -35.1261111638789
            ],
            [
              149.118076270728,
              -35.1265276284699
            ],
            [
              149.120947793996,
              -35.1244160034807
            ],
            [
              149.122804782305,
              -35.1248591756591
            ],
            [
              149.12644863608,
              -35.1253228435508
            ],
            [
              149.127186179294,
              -35.1256222756943
            ],
            [
              149.127054422659,
              -35.1261818102007
            ],
            [
              149.128242173457,
              -35.1263586352823
            ],
            [
              149.128932607306,
              -35.1274877578229
            ],
            [
              149.129832161791,
              -35.1271074610695
            ],
            [
              149.132053411891,
              -35.1285240963061
            ],
            [
              149.137083033602,
              -35.1272564576679
            ],
            [
              149.138986314595,
              -35.1279834781818
            ],
            [
              149.138744769547,
              -35.1289017866613
            ],
            [
              149.140132685541,
              -35.1303930467483
            ],
            [
              149.138839297575,
              -35.1324874725885
            ],
            [
              149.138824542952,
              -35.1347899310502
            ],
            [
              149.140168215737,
              -35.1349405861245
            ],
            [
              149.140716105724,
              -35.1358116430449
            ],
            [
              149.141461155435,
              -35.1352728099538
            ],
            [
              149.143564232348,
              -35.1353620266461
            ],
            [
              149.1448747471,
              -35.1344290502791
            ],
            [
              149.14602312614,
              -35.1351568696382
            ],
            [
              149.145899756236,
              -35.1359862444802
            ],
            [
              149.147568389062,
              -35.1372011372202
            ],
            [
              149.148298647328,
              -35.1371298451117
            ],
            [
              149.14961180981,
              -35.1384061170177
            ],
            [
              149.149771376223,
              -35.1393790354627
            ],
            [
              149.14929250012,
              -35.1418248094241
            ],
            [
              149.147246568547,
              -35.1428794799751
            ],
            [
              149.146504130257,
              -35.1438261886152
            ],
            [
              149.146725938163,
              -35.1445529284364
            ],
            [
              149.147784291055,
              -35.1448632436265
            ],
            [
              149.148472532644,
              -35.1447564961584
            ],
            [
              149.148957492869,
              -35.1450333287538
            ],
            [
              149.150200165121,
              -35.1450927848183
            ],
            [
              149.150797053067,
              -35.1444336926345
            ],
            [
              149.152238322153,
              -35.1443827077218
            ],
            [
              149.152658860836,
              -35.1437468807187
            ],
            [
              149.154001724167,
              -35.1437298924481
            ],
            [
              149.154895005743,
              -35.144361817066
            ],
            [
              149.156072064123,
              -35.1444318451701
            ],
            [
              149.157455542929,
              -35.1439101133059
            ],
            [
              149.157650514463,
              -35.1429250964776
            ],
            [
              149.158223789212,
              -35.1420857268726
            ],
            [
              149.159169749518,
              -35.1416001479584
            ],
            [
              149.160905530763,
              -35.1419891889633
            ],
            [
              149.161972319852,
              -35.1415656667435
            ],
            [
              149.163480011265,
              -35.1418846632111
            ],
            [
              149.164277820348,
              -35.1419049450385
            ],
            [
              149.164829120542,
              -35.1436482829068
            ],
            [
              149.164385440187,
              -35.14401028868
            ],
            [
              149.163901900686,
              -35.1452357722257
            ],
            [
              149.163454017437,
              -35.1456601671836
            ],
            [
              149.163177469044,
              -35.146765582451
            ],
            [
              149.163878701551,
              -35.1474487716981
            ],
            [
              149.164728278403,
              -35.1485943331127
            ],
            [
              149.164388686345,
              -35.1496322540506
            ],
            [
              149.165215143106,
              -35.1501406210388
            ],
            [
              149.164952959814,
              -35.150707761218
            ],
            [
              149.16345212199,
              -35.1515025769056
            ],
            [
              149.163254029583,
              -35.1528328079986
            ],
            [
              149.162429318827,
              -35.1537640434001
            ],
            [
              149.1626360535,
              -35.1542500013692
            ],
            [
              149.164128125367,
              -35.1546506667679
            ],
            [
              149.164683736943,
              -35.1552794223443
            ],
            [
              149.165310773679,
              -35.1567502227299
            ],
            [
              149.166846778007,
              -35.157556614466
            ],
            [
              149.167625761104,
              -35.1582405744854
            ],
            [
              149.167577234701,
              -35.159752106089
            ],
            [
              149.169463051548,
              -35.1602162861683
            ],
            [
              149.170659498493,
              -35.1596763788997
            ],
            [
              149.171188418696,
              -35.1588007106231
            ],
            [
              149.171782015658,
              -35.1584051238139
            ],
            [
              149.172838577646,
              -35.1585914810585
            ],
            [
              149.173186538583,
              -35.1595834286705
            ],
            [
              149.174077359537,
              -35.1583490550318
            ],
            [
              149.176538434854,
              -35.1582470905643
            ],
            [
              149.177410987781,
              -35.159290612381
            ],
            [
              149.179394778524,
              -35.1588319893736
            ],
            [
              149.183002137078,
              -35.1600157984212
            ],
            [
              149.183736178862,
              -35.1609873462399
            ],
            [
              149.185605841761,
              -35.1611220635625
            ],
            [
              149.189072312416,
              -35.165524004225
            ],
            [
              149.188635008729,
              -35.167026075223
            ],
            [
              149.187545431903,
              -35.1699856022927
            ],
            [
              149.184975857164,
              -35.1729541339603
            ],
            [
              149.184980225293,
              -35.1734348346928
            ],
            [
              149.183640533493,
              -35.1756690309793
            ],
            [
              149.184329796724,
              -35.1769525508248
            ],
            [
              149.185879123348,
              -35.1779006856127
            ],
            [
              149.188444454743,
              -35.1782498594736
            ],
            [
              149.191414815296,
              -35.1792554736699
            ],
            [
              149.192265183905,
              -35.1799010938596
            ],
            [
              149.192963479249,
              -35.1809357957603
            ],
            [
              149.192922441809,
              -35.1813972283957
            ],
            [
              149.194297412411,
              -35.1828676865733
            ],
            [
              149.195458224841,
              -35.1845487124892
            ],
            [
              149.197034951899,
              -35.1853685031522
            ],
            [
              149.196840647087,
              -35.1860488516144
            ],
            [
              149.196854831211,
              -35.1874560087737
            ],
            [
              149.196374953113,
              -35.1884469965503
            ],
            [
              149.196388007579,
              -35.1909419676994
            ],
            [
              149.192202581492,
              -35.1936369812578
            ],
            [
              149.190694751268,
              -35.1940455155811
            ],
            [
              149.190286208021,
              -35.1943521854006
            ],
            [
              149.191328781283,
              -35.1970812141246
            ],
            [
              149.191496157957,
              -35.1985042415841
            ],
            [
              149.190189686227,
              -35.2001268635538
            ],
            [
              149.190220638331,
              -35.2007401182042
            ],
            [
              149.189541474247,
              -35.2033239036013
            ],
            [
              149.192389339915,
              -35.2025352040094
            ],
            [
              149.196334892906,
              -35.2023641602326
            ],
            [
              149.197768398215,
              -35.2025363665611
            ],
            [
              149.198517338855,
              -35.2029022454615
            ],
            [
              149.200715642497,
              -35.2049550689352
            ],
            [
              149.200691227516,
              -35.2057314585157
            ],
            [
              149.196209965062,
              -35.2064107916857
            ],
            [
              149.195704032892,
              -35.206521252246
            ],
            [
              149.195224885249,
              -35.2066953090757
            ],
            [
              149.194785512897,
              -35.2069294590171
            ],
            [
              149.194395861159,
              -35.2072163616479
            ],
            [
              149.191622039259,
              -35.2096037805122
            ],
            [
              149.191191308644,
              -35.2100131975537
            ],
            [
              149.190812029974,
              -35.2104551341836
            ],
            [
              149.188178191334,
              -35.2138686971361
            ],
            [
              149.187970942166,
              -35.2140844082436
            ],
            [
              149.18771664399,
              -35.214262251481
            ],
            [
              149.187423439256,
              -35.2143957391897
            ],
            [
              149.187103750874,
              -35.2144783622723
            ],
            [
              149.186771400573,
              -35.2145068940238
            ],
            [
              149.186236941115,
              -35.2145085906625
            ],
            [
              149.185893232157,
              -35.2145329475747
            ],
            [
              149.185560519566,
              -35.2146066156811
            ],
            [
              149.185248660081,
              -35.2147257272875
            ],
            [
              149.183232333395,
              -35.2156714120759
            ],
            [
              149.18287933402,
              -35.2158606025981
            ],
            [
              149.182559520173,
              -35.2160864404889
            ],
            [
              149.182276684119,
              -35.2163431962582
            ],
            [
              149.178819024945,
              -35.2199003201708
            ],
            [
              149.17846313787,
              -35.2202136585139
            ],
            [
              149.178051296492,
              -35.2204768632167
            ],
            [
              149.177594895675,
              -35.2206853455956
            ],
            [
              149.172855561286,
              -35.2224635102222
            ],
            [
              149.168051286279,
              -35.223919016298
            ],
            [
              149.168089545121,
              -35.2240040573515
            ],
            [
              149.158405181131,
              -35.2269374530566
            ],
            [
              149.158376641331,
              -35.2268740011267
            ],
            [
              149.157034667253,
              -35.2272799687202
            ],
            [
              149.156498367442,
              -35.2274634528596
            ],
            [
              149.155983863391,
              -35.2276858649866
            ],
            [
              149.155496534707,
              -35.2279428445769
            ],
            [
              149.155036726863,
              -35.2282342983636
            ],
            [
              149.154208673399,
              -35.2288091303769
            ],
            [
              149.153622681515,
              -35.2292196908155
            ],
            [
              149.151191572335,
              -35.2309064250511
            ],
            [
              149.143606409205,
              -35.2257227588363
            ],
            [
              149.143608192855,
              -35.2257631990721
            ],
            [
              149.142116291642,
              -35.2255627124434
            ],
            [
              149.135674790155,
              -35.228350255386
            ],
            [
              149.124894224759,
              -35.2314571588093
            ],
            [
              149.124759930784,
              -35.2310140226827
            ],
            [
              149.122765439171,
              -35.2264600032179
            ],
            [
              149.122305091563,
              -35.2252233921045
            ],
            [
              149.121776893301,
              -35.2241203225922
            ],
            [
              149.121200962355,
              -35.2229645414712
            ],
            [
              149.120738842711,
              -35.2223611181246
            ],
            [
              149.119847245476,
              -35.2209108937933
            ],
            [
              149.119692996299,
              -35.2205505263761
            ],
            [
              149.118922453197,
              -35.2192533998879
            ],
            [
              149.117877754082,
              -35.2182449209196
            ],
            [
              149.11622870093,
              -35.2169710927186
            ],
            [
              149.115448055357,
              -35.2162823085588
            ],
            [
              149.11400184947,
              -35.2149320326064
            ],
            [
              149.111654675127,
              -35.2122159594214
            ],
            [
              149.110235450614,
              -35.2106267926884
            ],
            [
              149.1097902766,
              -35.2102846805459
            ],
            [
              149.108224378267,
              -35.2094297623076
            ],
            [
              149.103458341955,
              -35.2071472796132
            ],
            [
              149.100648144124,
              -35.2057162264222
            ],
            [
              149.10025863211,
              -35.2055117339498
            ],
            [
              149.098961463289,
              -35.2043177558188
            ],
            [
              149.097730143487,
              -35.2029487294556
            ],
            [
              149.09594039305,
              -35.2019764693546
            ],
            [
              149.095409460272,
              -35.2014296322904
            ],
            [
              149.094709108327,
              -35.2006576120486
            ],
            [
              149.094490478523,
              -35.2004239132763
            ],
            [
              149.093850234687,
              -35.1999781184487
            ],
            [
              149.093238268507,
              -35.1996340515728
            ],
            [
              149.092954243296,
              -35.1994573077461
            ],
            [
              149.091737168431,
              -35.1985358047844
            ],
            [
              149.089816984437,
              -35.1969406546567
            ],
            [
              149.088994093736,
              -35.1962658909812
            ],
            [
              149.088310894061,
              -35.1957945898854
            ],
            [
              149.086381090075,
              -35.1943322067336
            ],
            [
              149.085282621369,
              -35.1935026099542
            ],
            [
              149.083437389528,
              -35.1917985833957
            ],
            [
              149.081261606495,
              -35.1897799023378
            ],
            [
              149.080318295717,
              -35.1889046556334
            ],
            [
              149.080146900709,
              -35.1887532930916
            ],
            [
              149.079855597857,
              -35.1885305016694
            ],
            [
              149.0775936666,
              -35.1864465743382
            ],
            [
              149.076844464585,
              -35.1852724766377
            ],
            [
              149.076226186009,
              -35.1841012175372
            ],
            [
              149.075995496538,
              -35.1836512944133
            ],
            [
              149.075873042977,
              -35.1834607455296
            ],
            [
              149.075342221482,
              -35.1828882193472
            ],
            [
              149.075216312274,
              -35.182713711054
            ],
            [
              149.074223395217,
              -35.1813475132069
            ],
            [
              149.073793676086,
              -35.1806591397014
            ],
            [
              149.072113774961,
              -35.1774976277236
            ],
            [
              149.071350016846,
              -35.1757010819914
            ],
            [
              149.071193326373,
              -35.1751644787728
            ],
            [
              149.071149901218,
              -35.1745129523283
            ],
            [
              149.07121606656,
              -35.1724258138716
            ],
            [
              149.072297116165,
              -35.1722993084664
            ],
            [
              149.073338057799,
              -35.1714471323207
            ],
            [
              149.074965161339,
              -35.1709195530852
            ],
            [
              149.07545930192,
              -35.1700809816402
            ],
            [
              149.075877426995,
              -35.1696591039939
            ],
            [
              149.07430376041,
              -35.1686066366093
            ],
            [
              149.076655769668,
              -35.1662360319112
            ],
            [
              149.072517329801,
              -35.1656867118456
            ],
            [
              149.068145789035,
              -35.1651041554785
            ],
            [
              149.066273171705,
              -35.1648618213585
            ]
          ]
        ]
      },
      "properties": {
        "OBJECTID": 45,
        "DISTRICT_CODE": 7,
        "DISTRICT_NAME": "GUNGAHLIN",
        "DISTRICT_SHORT": "GUNG",
        "ID": 105,
        "LAST_UPDATE_DATE": "Mon, 05 Aug 2013 11:31:11 GMT",
        "GlobalID": "f9b832e7-00f4-47a4-9fd1-50bb65851c71"
      }
    }
}