{
  "type": "FeatureCollection",
  "crs": {
    "type": "name",
    "properties": {
      "name": "EPSG:4326"
    }
  },
  "features": [
    {
      "type": "Feature",
      "id": 47,
      "geometry": {
        "type": "Polygon",
        "coordinates": [
          [
            [
              149.04620774261,
              -35.1687118883124
            ],
            [
              149.062406986744,
              -35.1591581849652
            ],
            [
              149.063519870761,
              -35.1608128048953
            ],
            [
              149.063892484281,
              -35.1612783592069
            ],
            [
              149.064127612674,
              -35.1616315209584
            ],
            [
              149.064308485931,
              -35.1619852581897
            ],
            [
              149.064537431606,
              -35.1623256299776
            ],
            [
              149.066273171705,
              -35.1648618213585
            ],
            [
              149.068145789035,
              -35.1651041554785
            ],
            [
              149.072517329801,
              -35.1656867118456
            ],
            [
              149.076655769668,
              -35.1662360319112
            ],
            [
              149.07430376041,
              -35.1686066366093
            ],
            [
              149.075877426995,
              -35.1696591039939
            ],
            [
              149.07545930192,
              -35.1700809816402
            ],
            [
              149.074965161339,
              -35.1709195530852
            ],
            [
              149.073338057799,
              -35.1714471323207
            ],
            [
              149.072297116165,
              -35.1722993084664
            ],
            [
              149.07121606656,
              -35.1724258138716
            ],
            [
              149.070511837584,
              -35.171149657226
            ],
            [
              149.069346449003,
              -35.1716852250904
            ],
            [
              149.067556122393,
              -35.1725122591309
            ],
            [
              149.063854633716,
              -35.1742165944503
            ],
            [
              149.05806314279,
              -35.1734684343695
            ],
            [
              149.055867705402,
              -35.1731726866484
            ],
            [
              149.053412723191,
              -35.1720084063836
            ],
            [
              149.04620774261,
              -35.1687118883124
            ]
          ]
        ]
      },
      "properties": {
        "OBJECTID": 47,
        "DISTRICT_CODE": 9,
        "DISTRICT_NAME": "HALL",
        "DISTRICT_SHORT": "HALL",
        "ID": 104,
        "LAST_UPDATE_DATE": "Mon, 05 Aug 2013 11:30:57 GMT",
        "GlobalID": "253e06c6-e09e-4b0c-9140-9fae2f601309"
      }
    }
  ]
}