{
  "type": "FeatureCollection",
  "crs": {
    "type": "name",
    "properties": {
      "name": "EPSG:4326"
    }
  },
  "features": [
    {
      "type": "Feature",
      "id": 46,
      "geometry": {
        "type": "Polygon",
        "coordinates": [
          [
            [
              149.16268355047,
              -35.4015036233614
            ],
            [
              149.161460344335,
              -35.401332873786
            ],
            [
              149.157091745748,
              -35.4007436244533
            ],
            [
              149.156885779591,
              -35.401825254113
            ],
            [
              149.149605979152,
              -35.4008293061703
            ],
            [
              149.150094378847,
              -35.400415319024
            ],
            [
              149.153346608692,
              -35.3980151512171
            ],
            [
              149.152755651602,
              -35.3974783274928
            ],
            [
              149.144004165463,
              -35.3962823929685
            ],
            [
              149.141821093596,
              -35.3949108477585
            ],
            [
              149.140724613884,
              -35.3942219367824
            ],
            [
              149.138221187121,
              -35.391737167746
            ],
            [
              149.137602533209,
              -35.3911063120403
            ],
            [
              149.137124582715,
              -35.3903215353496
            ],
            [
              149.13674940252,
              -35.3894322426257
            ],
            [
              149.131896370063,
              -35.3886360360365
            ],
            [
              149.12993338128,
              -35.3884768387222
            ],
            [
              149.128839812118,
              -35.3886070940238
            ],
            [
              149.128186095735,
              -35.388735688908
            ],
            [
              149.127171216069,
              -35.3887216343835
            ],
            [
              149.125630140424,
              -35.3880086966711
            ],
            [
              149.124516339866,
              -35.3884670661247
            ],
            [
              149.123081316422,
              -35.3882095381102
            ],
            [
              149.122228098183,
              -35.3876964091503
            ],
            [
              149.121539601696,
              -35.3872425752116
            ],
            [
              149.12104369307,
              -35.3859603442525
            ],
            [
              149.120673767811,
              -35.3852057759019
            ],
            [
              149.11896389783,
              -35.3829127505755
            ],
            [
              149.118535820469,
              -35.3821083793921
            ],
            [
              149.125200508381,
              -35.380481446044
            ],
            [
              149.118950337038,
              -35.3595039825394
            ],
            [
              149.127365111302,
              -35.3518181728065
            ],
            [
              149.124421051261,
              -35.3479188177491
            ],
            [
              149.124722652227,
              -35.3478578336699
            ],
            [
              149.125019526162,
              -35.3477828805178
            ],
            [
              149.125310710037,
              -35.3476942014424
            ],
            [
              149.127773890969,
              -35.3468776405629
            ],
            [
              149.128154550639,
              -35.3467336183167
            ],
            [
              149.128516557017,
              -35.3465602934422
            ],
            [
              149.128856559807,
              -35.3463592701037
            ],
            [
              149.129171412429,
              -35.3461324088046
            ],
            [
              149.129801706595,
              -35.3456322046209
            ],
            [
              149.130024870887,
              -35.3454689406766
            ],
            [
              149.130263451593,
              -35.3453210344025
            ],
            [
              149.130515878671,
              -35.3451894590785
            ],
            [
              149.130780490987,
              -35.3450750805149
            ],
            [
              149.131055547252,
              -35.3449786513565
            ],
            [
              149.131339237471,
              -35.3449008061317
            ],
            [
              149.133500847643,
              -35.344386520534
            ],
            [
              149.135496153389,
              -35.3442189242355
            ],
            [
              149.13631515712,
              -35.3441767405435
            ],
            [
              149.137135671997,
              -35.3441874971019
            ],
            [
              149.137952609076,
              -35.3442511271403
            ],
            [
              149.138760901592,
              -35.3443672359587
            ],
            [
              149.139390084105,
              -35.3445009410649
            ],
            [
              149.140003862574,
              -35.3446762452397
            ],
            [
              149.140598147747,
              -35.3448919805241
            ],
            [
              149.140940522595,
              -35.3450302272237
            ],
            [
              149.141563712221,
              -35.3452557873064
            ],
            [
              149.142207765345,
              -35.345437802523
            ],
            [
              149.142868158522,
              -35.3455749945174
            ],
            [
              149.143540253468,
              -35.3456663997488
            ],
            [
              149.144219329661,
              -35.345711376263
            ],
            [
              149.144900617517,
              -35.3457096082034
            ],
            [
              149.145579331912,
              -35.3456611080298
            ],
            [
              149.146250705824,
              -35.3455662164295
            ],
            [
              149.146910023829,
              -35.3454255999222
            ],
            [
              149.147552655251,
              -35.3452402461733
            ],
            [
              149.154385939272,
              -35.3430721711357
            ],
            [
              149.158056017242,
              -35.3418736307557
            ],
            [
              149.159382835512,
              -35.3414652491799
            ],
            [
              149.160745131241,
              -35.341144762789
            ],
            [
              149.162134248201,
              -35.340914207755
            ],
            [
              149.162960456483,
              -35.3407858728526
            ],
            [
              149.162874229464,
              -35.3400914013004
            ],
            [
              149.162774353044,
              -35.3393981587133
            ],
            [
              149.162660853521,
              -35.338706325201
            ],
            [
              149.161610866964,
              -35.3326742592488
            ],
            [
              149.161517693377,
              -35.331902829677
            ],
            [
              149.161505760793,
              -35.3311276923176
            ],
            [
              149.161575155169,
              -35.3303545818934
            ],
            [
              149.161855807161,
              -35.3305220597294
            ],
            [
              149.161852586851,
              -35.3305263371707
            ],
            [
              149.163886833138,
              -35.3317402293232
            ],
            [
              149.164274237735,
              -35.3319629313265
            ],
            [
              149.164670992716,
              -35.3321742908077
            ],
            [
              149.165076603797,
              -35.3323740444234
            ],
            [
              149.177822184558,
              -35.3384014931698
            ],
            [
              149.17828983193,
              -35.3384387439959
            ],
            [
              149.179850738774,
              -35.3388789481176
            ],
            [
              149.180616949653,
              -35.3391313632405
            ],
            [
              149.181347969666,
              -35.3394461519874
            ],
            [
              149.182036260148,
              -35.3398200682013
            ],
            [
              149.184486534901,
              -35.3413032031211
            ],
            [
              149.185482391008,
              -35.3417740161287
            ],
            [
              149.186046330077,
              -35.342031197271
            ],
            [
              149.186619695672,
              -35.342273984612
            ],
            [
              149.187201940719,
              -35.3425021464791
            ],
            [
              149.190595453676,
              -35.3397114687914
            ],
            [
              149.190763586267,
              -35.3398810778905
            ],
            [
              149.190911736586,
              -35.3399765675208
            ],
            [
              149.191092757004,
              -35.3401627639384
            ],
            [
              149.191330053328,
              -35.3402823635677
            ],
            [
              149.191638916101,
              -35.3403844606314
            ],
            [
              149.191983046032,
              -35.3404199914487
            ],
            [
              149.192418666788,
              -35.3404457389243
            ],
            [
              149.192713977698,
              -35.3404881004832
            ],
            [
              149.1930587749,
              -35.340526510736
            ],
            [
              149.193480421368,
              -35.340597969283
            ],
            [
              149.193814225821,
              -35.340638557459
            ],
            [
              149.194196074607,
              -35.3407179154019
            ],
            [
              149.194566454894,
              -35.3407838600735
            ],
            [
              149.195010456989,
              -35.340818057677
            ],
            [
              149.195404468635,
              -35.3408766642668
            ],
            [
              149.195685641327,
              -35.3409398596065
            ],
            [
              149.196016083012,
              -35.340999642815
            ],
            [
              149.196447028137,
              -35.3410946892115
            ],
            [
              149.196718576154,
              -35.3411810590434
            ],
            [
              149.19699796514,
              -35.341185672696
            ],
            [
              149.197356989519,
              -35.34123810832
            ],
            [
              149.197723196045,
              -35.3413045013355
            ],
            [
              149.19800686453,
              -35.341399230679
            ],
            [
              149.198330900362,
              -35.3415406711594
            ],
            [
              149.1986271086,
              -35.3416349292653
            ],
            [
              149.198930539019,
              -35.3416659070952
            ],
            [
              149.199257209833,
              -35.3416632319884
            ],
            [
              149.199655568438,
              -35.3416490859215
            ],
            [
              149.199944383289,
              -35.3415916720546
            ],
            [
              149.200232935688,
              -35.3415163229997
            ],
            [
              149.200479348238,
              -35.3414359929462
            ],
            [
              149.200625992627,
              -35.3413067023686
            ],
            [
              149.200794350659,
              -35.3410568797178
            ],
            [
              149.200999035839,
              -35.3407270593025
            ],
            [
              149.201138362953,
              -35.3404807065261
            ],
            [
              149.201263764416,
              -35.3401605649401
            ],
            [
              149.201349586318,
              -35.3398940192432
            ],
            [
              149.201462981315,
              -35.3395665049082
            ],
            [
              149.201583675301,
              -35.3392565542622
            ],
            [
              149.201697030419,
              -35.3390062767161
            ],
            [
              149.201830500871,
              -35.3387509205205
            ],
            [
              149.202014891812,
              -35.3385405454483
            ],
            [
              149.202262203842,
              -35.3383339453415
            ],
            [
              149.202512629467,
              -35.3381882644213
            ],
            [
              149.202774143219,
              -35.338080777227
            ],
            [
              149.203079774286,
              -35.3379783572815
            ],
            [
              149.203381005229,
              -35.3378302491123
            ],
            [
              149.203728169848,
              -35.3376658440376
            ],
            [
              149.204080544743,
              -35.3375188242749
            ],
            [
              149.204436056357,
              -35.3373959516797
            ],
            [
              149.204655132015,
              -35.33738883827
            ],
            [
              149.205102276025,
              -35.3373633310091
            ],
            [
              149.205546164887,
              -35.3373570233476
            ],
            [
              149.205944904214,
              -35.3373726886465
            ],
            [
              149.206371447408,
              -35.3373792944768
            ],
            [
              149.206689098464,
              -35.3373382200801
            ],
            [
              149.207002421837,
              -35.3372819205327
            ],
            [
              149.207235362816,
              -35.3371875392464
            ],
            [
              149.207517626244,
              -35.3371583270158
            ],
            [
              149.207831473699,
              -35.3370468683019
            ],
            [
              149.208114375059,
              -35.3369641191218
            ],
            [
              149.208397697816,
              -35.3368741588371
            ],
            [
              149.208543966582,
              -35.336824259199
            ],
            [
              149.208896927127,
              -35.3367414834
            ],
            [
              149.209321477303,
              -35.3365655792762
            ],
            [
              149.209624723382,
              -35.3364383610016
            ],
            [
              149.209996854275,
              -35.336325628987
            ],
            [
              149.210317571692,
              -35.3362372240751
            ],
            [
              149.210656344613,
              -35.336112198413
            ],
            [
              149.211077867897,
              -35.3359599954694
            ],
            [
              149.211343372643,
              -35.3358283296961
            ],
            [
              149.211612422589,
              -35.3357072935032
            ],
            [
              149.211910286535,
              -35.3355417754002
            ],
            [
              149.212280776728,
              -35.3353918168577
            ],
            [
              149.212543810588,
              -35.335241046521
            ],
            [
              149.212791815403,
              -35.3351059831109
            ],
            [
              149.21315434641,
              -35.3349848759019
            ],
            [
              149.21350145344,
              -35.3348541493262
            ],
            [
              149.213813635652,
              -35.3347432187682
            ],
            [
              149.214056202395,
              -35.3345901365143
            ],
            [
              149.214328731383,
              -35.3344562000287
            ],
            [
              149.214559151598,
              -35.3342851116651
            ],
            [
              149.214869448149,
              -35.3340823442356
            ],
            [
              149.21513821324,
              -35.3338532401183
            ],
            [
              149.215267116017,
              -35.3338118334719
            ],
            [
              149.215543867702,
              -35.333783242842
            ],
            [
              149.21590974957,
              -35.3335567654408
            ],
            [
              149.216247997648,
              -35.3332767993882
            ],
            [
              149.216471920214,
              -35.3330617384921
            ],
            [
              149.216733538733,
              -35.332836607688
            ],
            [
              149.217037437194,
              -35.3325876121873
            ],
            [
              149.217283875056,
              -35.3324053162153
            ],
            [
              149.217411623206,
              -35.3323437211844
            ],
            [
              149.217629371257,
              -35.3321675121579
            ],
            [
              149.217942786113,
              -35.3319433717984
            ],
            [
              149.218238771302,
              -35.3318274104864
            ],
            [
              149.218553883353,
              -35.3317507997992
            ],
            [
              149.218939431987,
              -35.33173661343
            ],
            [
              149.219300158677,
              -35.331820525216
            ],
            [
              149.219635610216,
              -35.3318689703418
            ],
            [
              149.219975208769,
              -35.3319049692878
            ],
            [
              149.22022990115,
              -35.331982754478
            ],
            [
              149.220668354417,
              -35.3321808941972
            ],
            [
              149.22119756636,
              -35.3324306056333
            ],
            [
              149.221685871395,
              -35.3327231960156
            ],
            [
              149.222059227877,
              -35.3330492431454
            ],
            [
              149.222326564284,
              -35.3335005687951
            ],
            [
              149.222487025945,
              -35.3338770986446
            ],
            [
              149.222578353303,
              -35.334144518744
            ],
            [
              149.222660968363,
              -35.3344445797994
            ],
            [
              149.222748583669,
              -35.3347220995411
            ],
            [
              149.222807215568,
              -35.3349771397017
            ],
            [
              149.222776085375,
              -35.3351844820204
            ],
            [
              149.22270569332,
              -35.335476430831
            ],
            [
              149.222673340305,
              -35.3357626352714
            ],
            [
              149.222566554458,
              -35.3360591540957
            ],
            [
              149.22238640241,
              -35.3363118217475
            ],
            [
              149.222187397224,
              -35.3364214033432
            ],
            [
              149.222153948881,
              -35.3365420498105
            ],
            [
              149.222211713388,
              -35.3366765042066
            ],
            [
              149.22217927749,
              -35.3368900679649
            ],
            [
              149.222075127287,
              -35.3371443131509
            ],
            [
              149.222068071525,
              -35.3374738220494
            ],
            [
              149.22208375549,
              -35.3377503878353
            ],
            [
              149.222061296853,
              -35.3380782120659
            ],
            [
              149.221933392489,
              -35.3383342110087
            ],
            [
              149.2218054804,
              -35.3385878670493
            ],
            [
              149.221775663347,
              -35.3388780315956
            ],
            [
              149.221816838608,
              -35.3391871782353
            ],
            [
              149.22195817876,
              -35.3393570848322
            ],
            [
              149.222107959856,
              -35.3395156217586
            ],
            [
              149.222304205166,
              -35.3396510043011
            ],
            [
              149.222580542868,
              -35.3397513669465
            ],
            [
              149.222833774916,
              -35.3397233415773
            ],
            [
              149.223074408672,
              -35.3397561729421
            ],
            [
              149.223449890086,
              -35.3397893052483
            ],
            [
              149.22389007195,
              -35.3397902368778
            ],
            [
              149.224096809038,
              -35.3398573733906
            ],
            [
              149.224446842712,
              -35.3397915013513
            ],
            [
              149.224803080284,
              -35.3396601856772
            ],
            [
              149.225224476572,
              -35.3394633222832
            ],
            [
              149.225287106762,
              -35.3393567729431
            ],
            [
              149.225388076759,
              -35.3391915738589
            ],
            [
              149.225722621487,
              -35.3389284414624
            ],
            [
              149.226111525615,
              -35.3386348386261
            ],
            [
              149.226473069121,
              -35.3383925652373
            ],
            [
              149.226756702361,
              -35.3382602929613
            ],
            [
              149.22706144703,
              -35.338043444762
            ],
            [
              149.227396101405,
              -35.3377842732019
            ],
            [
              149.227721494366,
              -35.3376400263709
            ],
            [
              149.227968254926,
              -35.3374988052748
            ],
            [
              149.228239090276,
              -35.3374352283424
            ],
            [
              149.228454272962,
              -35.3373722913972
            ],
            [
              149.228683350627,
              -35.3373634048159
            ],
            [
              149.228991647786,
              -35.3373245421505
            ],
            [
              149.229310175529,
              -35.3373273873901
            ],
            [
              149.229580581875,
              -35.3373088697637
            ],
            [
              149.2298350515,
              -35.3372137749233
            ],
            [
              149.230108632707,
              -35.3371496473563
            ],
            [
              149.230398196429,
              -35.3370983783466
            ],
            [
              149.230514013912,
              -35.3370992477002
            ],
            [
              149.230689851366,
              -35.3370882913725
            ],
            [
              149.230955161506,
              -35.3371373737423
            ],
            [
              149.231246291986,
              -35.337216780908
            ],
            [
              149.231556207175,
              -35.3373283265513
            ],
            [
              149.231779039518,
              -35.3374084889447
            ],
            [
              149.231920081925,
              -35.3375034015736
            ],
            [
              149.232080032994,
              -35.3377549152891
            ],
            [
              149.232281056485,
              -35.3379431767738
            ],
            [
              149.232542359443,
              -35.3381336685664
            ],
            [
              149.232592782621,
              -35.3382316321425
            ],
            [
              149.23280994821,
              -35.338329737263
            ],
            [
              149.232951031181,
              -35.3383982412511
            ],
            [
              149.23312570444,
              -35.3386024113766
            ],
            [
              149.233184480546,
              -35.338856905766
            ],
            [
              149.233222847507,
              -35.3390494311034
            ],
            [
              149.233253707001,
              -35.3392318770752
            ],
            [
              149.2332383367,
              -35.3394414462032
            ],
            [
              149.233112629257,
              -35.3396045341823
            ],
            [
              149.233010085846,
              -35.3397522584635
            ],
            [
              149.232860727647,
              -35.3399147592209
            ],
            [
              149.232679103003,
              -35.3400632604227
            ],
            [
              149.232521083556,
              -35.3402364120742
            ],
            [
              149.232370230518,
              -35.3403758425287
            ],
            [
              149.232167032393,
              -35.340639832536
            ],
            [
              149.231955409873,
              -35.3408802251326
            ],
            [
              149.231748510032,
              -35.3410783397668
            ],
            [
              149.231565332763,
              -35.341223958102
            ],
            [
              149.231441066791,
              -35.3413937111667
            ],
            [
              149.231362637593,
              -35.3416332266656
            ],
            [
              149.231336877717,
              -35.3418665174977
            ],
            [
              149.231376630169,
              -35.3420838252267
            ],
            [
              149.231450573993,
              -35.3422150011011
            ],
            [
              149.231479207638,
              -35.3422569538073
            ],
            [
              149.231110633883,
              -35.3424621531398
            ],
            [
              149.23090306746,
              -35.342579163064
            ],
            [
              149.230730738116,
              -35.342649503165
            ],
            [
              149.230528789618,
              -35.3427242715484
            ],
            [
              149.230398422735,
              -35.3427654944243
            ],
            [
              149.230162304051,
              -35.3428296769614
            ],
            [
              149.229860961007,
              -35.3428844715184
            ],
            [
              149.229564044175,
              -35.3429107460239
            ],
            [
              149.229437291171,
              -35.3429201650963
            ],
            [
              149.22871390452,
              -35.3426058572559
            ],
            [
              149.226539266987,
              -35.3421901245451
            ],
            [
              149.226142820578,
              -35.3419317063106
            ],
            [
              149.225317649779,
              -35.3417746603766
            ],
            [
              149.224850234529,
              -35.3416856944981
            ],
            [
              149.224366213806,
              -35.3417740967652
            ],
            [
              149.223924504774,
              -35.3416899636627
            ],
            [
              149.221571122942,
              -35.3412416691394
            ],
            [
              149.220801405951,
              -35.3413555405803
            ],
            [
              149.22058425199,
              -35.341320310739
            ],
            [
              149.220365273802,
              -35.3412940331459
            ],
            [
              149.220093246606,
              -35.341271315328
            ],
            [
              149.21987210178,
              -35.341259165682
            ],
            [
              149.219650872727,
              -35.3412546309722
            ],
            [
              149.219429536521,
              -35.3412598913692
            ],
            [
              149.219193927446,
              -35.341280629387
            ],
            [
              149.218973928329,
              -35.3413087120914
            ],
            [
              149.21875561456,
              -35.3413418639532
            ],
            [
              149.218541142479,
              -35.3413865620987
            ],
            [
              149.218328823256,
              -35.3414377388545
            ],
            [
              149.218118945483,
              -35.3414962534424
            ],
            [
              149.217911860474,
              -35.341563166765
            ],
            [
              149.217877568301,
              -35.3415745796075
            ],
            [
              149.21329787526,
              -35.3432438973731
            ],
            [
              149.208038924776,
              -35.345160507398
            ],
            [
              149.207685229124,
              -35.3452738274759
            ],
            [
              149.207448304798,
              -35.3453787091115
            ],
            [
              149.207380343877,
              -35.3452558499799
            ],
            [
              149.207161253526,
              -35.3452992143698
            ],
            [
              149.207253232553,
              -35.3454654976473
            ],
            [
              149.207105353841,
              -35.3455318699764
            ],
            [
              149.206920382379,
              -35.3456203629446
            ],
            [
              149.206824520571,
              -35.3456684576143
            ],
            [
              149.206640276532,
              -35.3457688687282
            ],
            [
              149.206549243948,
              -35.3458203816996
            ],
            [
              149.206369194759,
              -35.345926829565
            ],
            [
              149.206280963687,
              -35.3459821269317
            ],
            [
              149.206193817947,
              -35.3460379723427
            ],
            [
              149.206024794826,
              -35.3461549882248
            ],
            [
              149.205859481322,
              -35.3462733406374
            ],
            [
              149.205779452225,
              -35.3463333819768
            ],
            [
              149.205701235336,
              -35.3463941185677
            ],
            [
              149.205622795368,
              -35.3464573778886
            ],
            [
              149.205547647297,
              -35.3465211648241
            ],
            [
              149.205473072342,
              -35.3465872174635
            ],
            [
              149.205399924485,
              -35.3466530339656
            ],
            [
              149.205252588559,
              -35.3467884260267
            ],
            [
              149.205115848369,
              -35.3469284158357
            ],
            [
              149.205048365895,
              -35.3470008951614
            ],
            [
              149.204917438313,
              -35.3471447920103
            ],
            [
              149.204853667341,
              -35.3472187116547
            ],
            [
              149.204792532533,
              -35.3472940895151
            ],
            [
              149.204732593726,
              -35.3473702811828
            ],
            [
              149.204614841608,
              -35.3475235586684
            ],
            [
              149.204558211559,
              -35.3476014306139
            ],
            [
              149.204447733675,
              -35.3477595603361
            ],
            [
              149.202826904427,
              -35.3502660957115
            ],
            [
              149.200150624769,
              -35.3544112445411
            ],
            [
              149.199703905494,
              -35.3551030975616
            ],
            [
              149.198284983208,
              -35.3573002184473
            ],
            [
              149.193924712689,
              -35.3640509979824
            ],
            [
              149.190824172531,
              -35.3688540597065
            ],
            [
              149.190005323934,
              -35.3701206049495
            ],
            [
              149.187425611523,
              -35.3741104491327
            ],
            [
              149.187154606965,
              -35.3745305254159
            ],
            [
              149.18693215505,
              -35.3748716267295
            ],
            [
              149.186663906603,
              -35.3752733332801
            ],
            [
              149.186325937156,
              -35.3757691167406
            ],
            [
              149.186144784743,
              -35.376026696066
            ],
            [
              149.185807833469,
              -35.376497374501
            ],
            [
              149.185566988994,
              -35.3768258476432
            ],
            [
              149.185204148435,
              -35.377308186512
            ],
            [
              149.185012832126,
              -35.3775562176398
            ],
            [
              149.184718546796,
              -35.3779347076782
            ],
            [
              149.18453506533,
              -35.3778323103499
            ],
            [
              149.184258079457,
              -35.3781888691407
            ],
            [
              149.184392765947,
              -35.3783437000002
            ],
            [
              149.183544797923,
              -35.3793601131096
            ],
            [
              149.183057675303,
              -35.379907702806
            ],
            [
              149.182195094232,
              -35.3808499437693
            ],
            [
              149.180935710967,
              -35.3821832679606
            ],
            [
              149.178639402402,
              -35.3846142495923
            ],
            [
              149.177986238259,
              -35.3848879652793
            ],
            [
              149.176360509858,
              -35.3866086545711
            ],
            [
              149.176200858968,
              -35.387195137425
            ],
            [
              149.171864938198,
              -35.3917841005111
            ],
            [
              149.171415933616,
              -35.3921872198348
            ],
            [
              149.17102667031,
              -35.3925990507216
            ],
            [
              149.170738418573,
              -35.3929040062469
            ],
            [
              149.170376039047,
              -35.3933620344876
            ],
            [
              149.170188126301,
              -35.3935610085346
            ],
            [
              149.168574456614,
              -35.3952696095374
            ],
            [
              149.165453124414,
              -35.3985748955698
            ],
            [
              149.162837046022,
              -35.4013411385413
            ],
            [
              149.16283027154,
              -35.4013483103013
            ],
            [
              149.16268355047,
              -35.4015036233614
            ]
          ]
        ]
      },
      "properties": {
        "OBJECTID": 46,
        "DISTRICT_CODE": 8,
        "DISTRICT_NAME": "JERRABOMBERRA",
        "DISTRICT_SHORT": "JERR",
        "ID": 42,
        "LAST_UPDATE_DATE": "Wed, 23 Feb 2005 08:58:08 GMT",
        "GlobalID": "0a315956-26eb-4e8e-bf81-1f87fcadadc0"
      }
    }
  ]
}