{
  "type": "FeatureCollection",
  "crs": {
    "type": "name",
    "properties": {
      "name": "EPSG:4326"
    }
  },
  "features": [
    {
      "type": "Feature",
      "id": 52,
      "geometry": {
        "type": "Polygon",
        "coordinates": [
          [
            [
              149.297862277046,
              -35.3330626294422
            ],
            [
              149.296165622642,
              -35.3331376829747
            ],
            [
              149.295914003201,
              -35.3331488122721
            ],
            [
              149.295638629091,
              -35.33316099092
            ],
            [
              149.295626020347,
              -35.3329626548075
            ],
            [
              149.293661605265,
              -35.3321344932824
            ],
            [
              149.293623851144,
              -35.3323223210182
            ],
            [
              149.29541181844,
              -35.3330761686407
            ],
            [
              149.295417835914,
              -35.3331708231787
            ],
            [
              149.294486483077,
              -35.3332120069121
            ],
            [
              149.294263912191,
              -35.3332246905669
            ],
            [
              149.294197446507,
              -35.3332297368519
            ],
            [
              149.294045270598,
              -35.3332533649128
            ],
            [
              149.293831432191,
              -35.3333015912519
            ],
            [
              149.293617900428,
              -35.3333510626129
            ],
            [
              149.293409222842,
              -35.3333897493287
            ],
            [
              149.293038529986,
              -35.3334597880814
            ],
            [
              149.292932743968,
              -35.3334866504306
            ],
            [
              149.292726002691,
              -35.3335512196264
            ],
            [
              149.292521387943,
              -35.3336203599634
            ],
            [
              149.292196757894,
              -35.3337368782665
            ],
            [
              149.292097676151,
              -35.3337773328361
            ],
            [
              149.291699110892,
              -35.3339681763069
            ],
            [
              149.2903999583,
              -35.334676555773
            ],
            [
              149.290147949989,
              -35.3348146178453
            ],
            [
              149.290166995124,
              -35.3347203614349
            ],
            [
              149.289662716864,
              -35.3350781499802
            ],
            [
              149.288989814197,
              -35.3354435896299
            ],
            [
              149.288326456895,
              -35.3356514689812
            ],
            [
              149.28637356817,
              -35.3367115683811
            ],
            [
              149.286261008295,
              -35.3367738189683
            ],
            [
              149.284768684443,
              -35.3376278103485
            ],
            [
              149.28459847126,
              -35.3377252137825
            ],
            [
              149.284070476892,
              -35.3378889815513
            ],
            [
              149.28300998859,
              -35.3380993917182
            ],
            [
              149.282578865626,
              -35.3381439053894
            ],
            [
              149.281718824347,
              -35.3380759025824
            ],
            [
              149.280807449699,
              -35.3379004626251
            ],
            [
              149.280337980873,
              -35.3377480444012
            ],
            [
              149.277274450436,
              -35.3361976514947
            ],
            [
              149.277085328363,
              -35.3361028106999
            ],
            [
              149.276887209021,
              -35.336021230969
            ],
            [
              149.276681474042,
              -35.3359534812134
            ],
            [
              149.276469496328,
              -35.3359000223432
            ],
            [
              149.276252813569,
              -35.3358612466788
            ],
            [
              149.276032937595,
              -35.335837424768
            ],
            [
              149.275796389224,
              -35.3358286839521
            ],
            [
              149.275559831191,
              -35.3358372478779
            ],
            [
              149.275325145003,
              -35.3358630484363
            ],
            [
              149.274512434345,
              -35.3359989332371
            ],
            [
              149.273909127191,
              -35.3359875889607
            ],
            [
              149.273240377806,
              -35.3357581104778
            ],
            [
              149.272400718976,
              -35.3354484829914
            ],
            [
              149.271478154182,
              -35.3352150542094
            ],
            [
              149.270672813885,
              -35.3351412866034
            ],
            [
              149.270097159041,
              -35.3351793514659
            ],
            [
              149.269606975959,
              -35.335157399089
            ],
            [
              149.268802479219,
              -35.3351214400186
            ],
            [
              149.26837252729,
              -35.3350670539173
            ],
            [
              149.267911622648,
              -35.3348725548081
            ],
            [
              149.267174542244,
              -35.3344231328559
            ],
            [
              149.266571145192,
              -35.3339026219746
            ],
            [
              149.266344557847,
              -35.333576159243
            ],
            [
              149.265646608113,
              -35.3330857479063
            ],
            [
              149.264935859665,
              -35.3326216884233
            ],
            [
              149.264050808304,
              -35.3322517946564
            ],
            [
              149.263186499884,
              -35.3316510547166
            ],
            [
              149.26300744486,
              -35.3315438620029
            ],
            [
              149.262818099155,
              -35.3314492875058
            ],
            [
              149.262619783571,
              -35.3313679909284
            ],
            [
              149.262397729717,
              -35.3312959279972
            ],
            [
              149.262168671824,
              -35.3312405096779
            ],
            [
              149.261934463503,
              -35.331202184436
            ],
            [
              149.261707195184,
              -35.3311712175181
            ],
            [
              149.261477506515,
              -35.3311565136299
            ],
            [
              149.261247127084,
              -35.3311581834991
            ],
            [
              149.261017791679,
              -35.3311762145564
            ],
            [
              149.260791227232,
              -35.3312104710304
            ],
            [
              149.260569139814,
              -35.3312606949693
            ],
            [
              149.260353201792,
              -35.3313265081829
            ],
            [
              149.259604813483,
              -35.3316498467836
            ],
            [
              149.258575365481,
              -35.3319684319362
            ],
            [
              149.258110974096,
              -35.3317974346499
            ],
            [
              149.257552940763,
              -35.3317022184551
            ],
            [
              149.256567200354,
              -35.3313948724641
            ],
            [
              149.25602329673,
              -35.3309660878969
            ],
            [
              149.255920712713,
              -35.3308790786202
            ],
            [
              149.255812385472,
              -35.3307968768143
            ],
            [
              149.255698649994,
              -35.3307197366642
            ],
            [
              149.255573871624,
              -35.3306438240414
            ],
            [
              149.255443887061,
              -35.3305740244157
            ],
            [
              149.255309141685,
              -35.330510576945
            ],
            [
              149.255050957016,
              -35.3302076976726
            ],
            [
              149.254743598702,
              -35.3301211748122
            ],
            [
              149.254345091491,
              -35.3301879559097
            ],
            [
              149.253445273571,
              -35.3301776559268
            ],
            [
              149.253084966167,
              -35.3302469973288
            ],
            [
              149.252988595543,
              -35.3302474482815
            ],
            [
              149.251676195085,
              -35.3302535791689
            ],
            [
              149.250411993204,
              -35.3301712264822
            ],
            [
              149.249969743912,
              -35.3301598567984
            ],
            [
              149.249749182382,
              -35.3301393074601
            ],
            [
              149.249528399199,
              -35.3301245681654
            ],
            [
              149.249306949551,
              -35.3301272147665
            ],
            [
              149.249206049376,
              -35.3301402187495
            ],
            [
              149.248989952113,
              -35.3301838980002
            ],
            [
              149.248777283513,
              -35.3302352431069
            ],
            [
              149.248565603159,
              -35.3302887969694
            ],
            [
              149.248392757325,
              -35.3303343494797
            ],
            [
              149.248354986094,
              -35.3303447276719
            ],
            [
              149.248150311712,
              -35.3304139431931
            ],
            [
              149.247928298206,
              -35.3304970542616
            ],
            [
              149.247737145468,
              -35.3305815100999
            ],
            [
              149.247545364559,
              -35.3306751136556
            ],
            [
              149.247370632162,
              -35.3307863362571
            ],
            [
              149.247180913666,
              -35.3308820725154
            ],
            [
              149.247006732968,
              -35.3309938666897
            ],
            [
              149.246840928516,
              -35.3311143193813
            ],
            [
              149.246681451628,
              -35.3312413106116
            ],
            [
              149.246546348082,
              -35.3313552361287
            ],
            [
              149.246397354397,
              -35.3314920680887
            ],
            [
              149.246258559945,
              -35.3316343480282
            ],
            [
              149.246118833827,
              -35.331776131298
            ],
            [
              149.245996714228,
              -35.3319273193581
            ],
            [
              149.245894982574,
              -35.3320893984605
            ],
            [
              149.245795848787,
              -35.332252866131
            ],
            [
              149.245697035853,
              -35.3324228931187
            ],
            [
              149.24506459387,
              -35.3335154674849
            ],
            [
              149.244781141817,
              -35.3339751011071
            ],
            [
              149.244454345884,
              -35.3344149899154
            ],
            [
              149.244086240179,
              -35.3348323949083
            ],
            [
              149.24365841181,
              -35.3352360783844
            ],
            [
              149.243191692908,
              -35.3356097108409
            ],
            [
              149.242689215428,
              -35.3359507845415
            ],
            [
              149.24147425673,
              -35.336687108745
            ],
            [
              149.241371982427,
              -35.3365457886119
            ],
            [
              149.239131549433,
              -35.3343370993502
            ],
            [
              149.239006800451,
              -35.3340315085495
            ],
            [
              149.238836365362,
              -35.3336695481177
            ],
            [
              149.238569088402,
              -35.3327497819214
            ],
            [
              149.237963639013,
              -35.3299476530445
            ],
            [
              149.237691735554,
              -35.3285181062096
            ],
            [
              149.237760643946,
              -35.3278207013271
            ],
            [
              149.238154434349,
              -35.3269391941948
            ],
            [
              149.239618303359,
              -35.3251689127967
            ],
            [
              149.240422614769,
              -35.3231974920542
            ],
            [
              149.241170750727,
              -35.3222905633683
            ],
            [
              149.242185942851,
              -35.3209082541054
            ],
            [
              149.242925971613,
              -35.320663532333
            ],
            [
              149.244085727144,
              -35.3201578130892
            ],
            [
              149.244402976872,
              -35.3199608210647
            ],
            [
              149.244617185205,
              -35.3196926476477
            ],
            [
              149.244711998736,
              -35.3193817020964
            ],
            [
              149.244677060075,
              -35.3190625526118
            ],
            [
              149.244509778822,
              -35.3187645357704
            ],
            [
              149.243773443114,
              -35.3178668377316
            ],
            [
              149.243698490492,
              -35.3168777726236
            ],
            [
              149.244172356791,
              -35.3149174786147
            ],
            [
              149.245291400293,
              -35.3136955890445
            ],
            [
              149.248030107448,
              -35.3106639750371
            ],
            [
              149.249095734137,
              -35.3094568925218
            ],
            [
              149.250286931728,
              -35.308102387704
            ],
            [
              149.250899472496,
              -35.305935726928
            ],
            [
              149.252246407649,
              -35.3010115079555
            ],
            [
              149.254579203738,
              -35.2961765776803
            ],
            [
              149.255694663036,
              -35.29374944873
            ],
            [
              149.256398376405,
              -35.2927810298598
            ],
            [
              149.257343220252,
              -35.2917640169179
            ],
            [
              149.257820444541,
              -35.2906737750137
            ],
            [
              149.257921083208,
              -35.2898866489946
            ],
            [
              149.258583271524,
              -35.287211988543
            ],
            [
              149.259546005539,
              -35.2839099438014
            ],
            [
              149.259768876612,
              -35.2822386888415
            ],
            [
              149.259706315999,
              -35.2811337825038
            ],
            [
              149.259271280904,
              -35.2791126400483
            ],
            [
              149.25916950458,
              -35.277248781681
            ],
            [
              149.258973608594,
              -35.2759490094337
            ],
            [
              149.25889788605,
              -35.275298081344
            ],
            [
              149.260090187225,
              -35.2723824580146
            ],
            [
              149.260746804218,
              -35.2703111083218
            ],
            [
              149.263222055435,
              -35.2673655797202
            ],
            [
              149.263445518402,
              -35.2666697532789
            ],
            [
              149.262896080488,
              -35.2652459566251
            ],
            [
              149.26328851525,
              -35.2634991736968
            ],
            [
              149.262707295669,
              -35.2582233743752
            ],
            [
              149.262867693748,
              -35.2585208700688
            ],
            [
              149.267702418849,
              -35.259438821683
            ],
            [
              149.269596289285,
              -35.2587770311562
            ],
            [
              149.270546056117,
              -35.2591551494814
            ],
            [
              149.271749111324,
              -35.2590259346967
            ],
            [
              149.273178723817,
              -35.2591790686526
            ],
            [
              149.27331575669,
              -35.259937005562
            ],
            [
              149.272819169164,
              -35.2604888785991
            ],
            [
              149.273017180145,
              -35.261238403924
            ],
            [
              149.27255369158,
              -35.2618303505778
            ],
            [
              149.272777525217,
              -35.2626489967392
            ],
            [
              149.273791733646,
              -35.2632138589859
            ],
            [
              149.273511879857,
              -35.264222438841
            ],
            [
              149.273460667596,
              -35.2661017505159
            ],
            [
              149.272076218837,
              -35.2669650370319
            ],
            [
              149.27247667618,
              -35.2672894376825
            ],
            [
              149.272359456056,
              -35.2694286393657
            ],
            [
              149.271712866742,
              -35.2701376705594
            ],
            [
              149.271626385151,
              -35.2708047969255
            ],
            [
              149.272249418695,
              -35.271916501398
            ],
            [
              149.271807145229,
              -35.2734852309901
            ],
            [
              149.272438897327,
              -35.273394097118
            ],
            [
              149.274376253019,
              -35.2749174111617
            ],
            [
              149.275377468748,
              -35.2750513209356
            ],
            [
              149.275750238871,
              -35.2738013872672
            ],
            [
              149.27638021418,
              -35.2730818202033
            ],
            [
              149.277020337095,
              -35.2713377779331
            ],
            [
              149.27844718782,
              -35.2707517304677
            ],
            [
              149.279626966012,
              -35.2706514962594
            ],
            [
              149.28012574541,
              -35.2710607575481
            ],
            [
              149.281523651278,
              -35.2709940565433
            ],
            [
              149.282975613232,
              -35.2720591175211
            ],
            [
              149.285432241612,
              -35.2716306217591
            ],
            [
              149.287322790627,
              -35.2729626582004
            ],
            [
              149.2875196269,
              -35.2741281878724
            ],
            [
              149.288363767531,
              -35.2752468207161
            ],
            [
              149.289292209847,
              -35.2756985949847
            ],
            [
              149.291433291772,
              -35.274247322045
            ],
            [
              149.293639584868,
              -35.2741947070982
            ],
            [
              149.294299725226,
              -35.2735525825903
            ],
            [
              149.296671144552,
              -35.2724287419517
            ],
            [
              149.29732258016,
              -35.2727653974303
            ],
            [
              149.298461676652,
              -35.2721567687506
            ],
            [
              149.29878465969,
              -35.2721726183956
            ],
            [
              149.300664337523,
              -35.2728456974852
            ],
            [
              149.301642590644,
              -35.2728942396873
            ],
            [
              149.302098345045,
              -35.2732304467331
            ],
            [
              149.302228432377,
              -35.2739052352776
            ],
            [
              149.302710671544,
              -35.274109374843
            ],
            [
              149.303844908685,
              -35.2733771966446
            ],
            [
              149.305765684764,
              -35.2739932293297
            ],
            [
              149.306228125338,
              -35.2745012765645
            ],
            [
              149.305415863559,
              -35.2755323062948
            ],
            [
              149.30664434244,
              -35.2765448481208
            ],
            [
              149.309059840698,
              -35.2762066712469
            ],
            [
              149.30976728586,
              -35.2782688216985
            ],
            [
              149.311695774166,
              -35.2775251840819
            ],
            [
              149.312138089784,
              -35.2765877984032
            ],
            [
              149.314222419923,
              -35.2759659208865
            ],
            [
              149.315299369499,
              -35.2762310980156
            ],
            [
              149.31606768118,
              -35.2786703080916
            ],
            [
              149.316563864383,
              -35.2794478018862
            ],
            [
              149.316277434654,
              -35.2805571213078
            ],
            [
              149.316263286126,
              -35.2817881327425
            ],
            [
              149.317042670845,
              -35.2819602023254
            ],
            [
              149.318321104061,
              -35.2828240456557
            ],
            [
              149.31934479608,
              -35.28380872317
            ],
            [
              149.320346570343,
              -35.2839430046147
            ],
            [
              149.320948900187,
              -35.2844077957563
            ],
            [
              149.321268716007,
              -35.2852200638866
            ],
            [
              149.32203397835,
              -35.2857871899808
            ],
            [
              149.322475807913,
              -35.2867403986982
            ],
            [
              149.323514687633,
              -35.2864141262231
            ],
            [
              149.324579824351,
              -35.2863884153752
            ],
            [
              149.325023965844,
              -35.2843866971571
            ],
            [
              149.325433582832,
              -35.2834616253019
            ],
            [
              149.326529160963,
              -35.2824296167443
            ],
            [
              149.327560021281,
              -35.2824020819136
            ],
            [
              149.328792411287,
              -35.283162926821
            ],
            [
              149.330006536311,
              -35.2844316189478
            ],
            [
              149.331153633857,
              -35.2845304814682
            ],
            [
              149.331693965984,
              -35.2851896292407
            ],
            [
              149.332868854189,
              -35.2853545267069
            ],
            [
              149.334770813856,
              -35.2863026599781
            ],
            [
              149.334851304939,
              -35.2869766722917
            ],
            [
              149.335755820643,
              -35.2873825988
            ],
            [
              149.335803958801,
              -35.2884139192041
            ],
            [
              149.336323771741,
              -35.2887373761186
            ],
            [
              149.33761639419,
              -35.2878731348038
            ],
            [
              149.337696979223,
              -35.2869706948096
            ],
            [
              149.339707606676,
              -35.2863003789839
            ],
            [
              149.34149706187,
              -35.2867029962426
            ],
            [
              149.34143778839,
              -35.2889607717695
            ],
            [
              149.342836658642,
              -35.2901868849915
            ],
            [
              149.343209316647,
              -35.292047899147
            ],
            [
              149.345033082464,
              -35.2922060164571
            ],
            [
              149.345766544064,
              -35.2918706502467
            ],
            [
              149.347870903743,
              -35.2915872749588
            ],
            [
              149.348868708971,
              -35.2920695424891
            ],
            [
              149.348759801602,
              -35.2928621253932
            ],
            [
              149.34807849799,
              -35.2934795616853
            ],
            [
              149.348943049542,
              -35.2944358330504
            ],
            [
              149.349699516046,
              -35.2944039383923
            ],
            [
              149.350503574461,
              -35.2959520741051
            ],
            [
              149.350566806197,
              -35.2967083944137
            ],
            [
              149.350165143401,
              -35.2972626200251
            ],
            [
              149.350419764833,
              -35.298165687549
            ],
            [
              149.350340391064,
              -35.2987626266956
            ],
            [
              149.350551065732,
              -35.2993582582866
            ],
            [
              149.35201612879,
              -35.2998743224266
            ],
            [
              149.353711305038,
              -35.2997313939161
            ],
            [
              149.355023228876,
              -35.2996535456674
            ],
            [
              149.356613322846,
              -35.3005964732731
            ],
            [
              149.357614843953,
              -35.3008138734098
            ],
            [
              149.359505705872,
              -35.3015871270668
            ],
            [
              149.360952457756,
              -35.3016051952904
            ],
            [
              149.361989351464,
              -35.3030893879342
            ],
            [
              149.361923949278,
              -35.3042935994412
            ],
            [
              149.361060149385,
              -35.3059550260142
            ],
            [
              149.359657421059,
              -35.3075383278788
            ],
            [
              149.361664575767,
              -35.3090248962612
            ],
            [
              149.363795679223,
              -35.3086433346698
            ],
            [
              149.365838459551,
              -35.3085261464258
            ],
            [
              149.366805080661,
              -35.3080218632344
            ],
            [
              149.369889890203,
              -35.3082632805273
            ],
            [
              149.371961107588,
              -35.3067606350499
            ],
            [
              149.373791314283,
              -35.3048126459147
            ],
            [
              149.37600355973,
              -35.3051185727075
            ],
            [
              149.376051196416,
              -35.3048861430691
            ],
            [
              149.377795335489,
              -35.3051263005157
            ],
            [
              149.379860159206,
              -35.3057157127255
            ],
            [
              149.38162177914,
              -35.3056913884218
            ],
            [
              149.381896078898,
              -35.3062658312504
            ],
            [
              149.383695574986,
              -35.3064707678256
            ],
            [
              149.384174298758,
              -35.3043487745854
            ],
            [
              149.386577890211,
              -35.3034177414968
            ],
            [
              149.388264407168,
              -35.3036091035637
            ],
            [
              149.389674586672,
              -35.3026976616024
            ],
            [
              149.391604589883,
              -35.303455211073
            ],
            [
              149.393414449668,
              -35.3029240521136
            ],
            [
              149.394783736578,
              -35.3031888458451
            ],
            [
              149.394954016962,
              -35.3040352630971
            ],
            [
              149.395007337585,
              -35.3046525135489
            ],
            [
              149.394941136959,
              -35.3055881970005
            ],
            [
              149.394683835646,
              -35.3065582028404
            ],
            [
              149.395340751216,
              -35.3073119487674
            ],
            [
              149.394496285604,
              -35.3091911966455
            ],
            [
              149.39642640631,
              -35.3096796921159
            ],
            [
              149.397279550913,
              -35.3110031077551
            ],
            [
              149.397134835951,
              -35.3135388085351
            ],
            [
              149.396686830576,
              -35.3141818424557
            ],
            [
              149.397134062133,
              -35.3159692009916
            ],
            [
              149.397199873028,
              -35.3173133161061
            ],
            [
              149.398004066503,
              -35.3185843818833
            ],
            [
              149.399285571858,
              -35.3190897524804
            ],
            [
              149.398161471383,
              -35.3206154608359
            ],
            [
              149.398128279939,
              -35.321947797446
            ],
            [
              149.397420973242,
              -35.3233561125483
            ],
            [
              149.39717496525,
              -35.3242505281656
            ],
            [
              149.398034069018,
              -35.3252518823664
            ],
            [
              149.39712939352,
              -35.3257246120853
            ],
            [
              149.39654432523,
              -35.3261163348246
            ],
            [
              149.395142791951,
              -35.3268512122859
            ],
            [
              149.394909985272,
              -35.3269809806271
            ],
            [
              149.394466446687,
              -35.3272666491882
            ],
            [
              149.394162261393,
              -35.3274781635073
            ],
            [
              149.393995714804,
              -35.3275990975179
            ],
            [
              149.393836699755,
              -35.3277256467606
            ],
            [
              149.393715855312,
              -35.3278242785843
            ],
            [
              149.393623929733,
              -35.3279003541985
            ],
            [
              149.393517084532,
              -35.327994716972
            ],
            [
              149.393372193724,
              -35.3281244383327
            ],
            [
              149.393079721673,
              -35.3284161952075
            ],
            [
              149.392859645381,
              -35.3286516268277
            ],
            [
              149.392834537957,
              -35.328679880943
            ],
            [
              149.392697894891,
              -35.3288382245472
            ],
            [
              149.392248765442,
              -35.3293808844262
            ],
            [
              149.39186400939,
              -35.3298272772739
            ],
            [
              149.391727335528,
              -35.3299701103877
            ],
            [
              149.391576676097,
              -35.3301126126023
            ],
            [
              149.391431392301,
              -35.3302397541992
            ],
            [
              149.391270950394,
              -35.330365746109
            ],
            [
              149.391107837512,
              -35.3304898444758
            ],
            [
              149.390980822093,
              -35.3305824903819
            ],
            [
              149.390808864474,
              -35.330699760146
            ],
            [
              149.390631402885,
              -35.330809593577
            ],
            [
              149.390448437349,
              -35.3309119906498
            ],
            [
              149.390178328996,
              -35.3310562016223
            ],
            [
              149.389984470598,
              -35.3311451333403
            ],
            [
              149.389787109084,
              -35.3312245689343
            ],
            [
              149.389587271578,
              -35.3313041712667
            ],
            [
              149.389375632019,
              -35.3313803098827
            ],
            [
              149.38916971111,
              -35.331447673188
            ],
            [
              149.388960713294,
              -35.3315072707406
            ],
            [
              149.388748371162,
              -35.3315584245239
            ],
            [
              149.38860549674,
              -35.3315851847828
            ],
            [
              149.387273629122,
              -35.3318440222733
            ],
            [
              149.387058587304,
              -35.3318929927047
            ],
            [
              149.386844072176,
              -35.331942974579
            ],
            [
              149.386632331582,
              -35.3319982864373
            ],
            [
              149.386424841453,
              -35.3320617620976
            ],
            [
              149.386222824693,
              -35.3321357491034
            ],
            [
              149.386023150929,
              -35.332214236341
            ],
            [
              149.385825997361,
              -35.3322975646711
            ],
            [
              149.385631445582,
              -35.3323858911479
            ],
            [
              149.385352716265,
              -35.332515671156
            ],
            [
              149.382313478938,
              -35.334092179082
            ],
            [
              149.376429604294,
              -35.3371438608043
            ],
            [
              149.376144552952,
              -35.3372847437183
            ],
            [
              149.3759346268,
              -35.3373785189151
            ],
            [
              149.375735477535,
              -35.3374656374854
            ],
            [
              149.375460184809,
              -35.3375820197308
            ],
            [
              149.375260425524,
              -35.3376600612564
            ],
            [
              149.375059374102,
              -35.3377359905552
            ],
            [
              149.374856038246,
              -35.3378081910198
            ],
            [
              149.374594750539,
              -35.3378979245521
            ],
            [
              149.373954339377,
              -35.3380498362578
            ],
            [
              149.373274525587,
              -35.3382285601792
            ],
            [
              149.372697588521,
              -35.3384097338623
            ],
            [
              149.372200702146,
              -35.3385256592933
            ],
            [
              149.371971377641,
              -35.3384943377297
            ],
            [
              149.37199863985,
              -35.3385727980413
            ],
            [
              149.368413682432,
              -35.3394091019746
            ],
            [
              149.368199890642,
              -35.3394623507541
            ],
            [
              149.367988986484,
              -35.3395206906683
            ],
            [
              149.367780784356,
              -35.3395837945429
            ],
            [
              149.367578461977,
              -35.3396572611441
            ],
            [
              149.367381549619,
              -35.3397402640745
            ],
            [
              149.367187153655,
              -35.3398277056405
            ],
            [
              149.366996861641,
              -35.3399223789537
            ],
            [
              149.366852773987,
              -35.3400036465997
            ],
            [
              149.36660181114,
              -35.3401567274596
            ],
            [
              149.366415953569,
              -35.3402854215882
            ],
            [
              149.366221820918,
              -35.3404585669097
            ],
            [
              149.365984502508,
              -35.3406843226757
            ],
            [
              149.365847391037,
              -35.3408254630054
            ],
            [
              149.365752580903,
              -35.3409311542833
            ],
            [
              149.365632053796,
              -35.3410828364555
            ],
            [
              149.365440446332,
              -35.3413486168806
            ],
            [
              149.365386895081,
              -35.341427749623
            ],
            [
              149.365339184281,
              -35.3415138568985
            ],
            [
              149.365247534931,
              -35.3416841514019
            ],
            [
              149.365171976363,
              -35.3418569460217
            ],
            [
              149.365103365642,
              -35.3420308197205
            ],
            [
              149.365046059363,
              -35.3422064489394
            ],
            [
              149.365000931821,
              -35.3423839707241
            ],
            [
              149.364962546733,
              -35.3425625395859
            ],
            [
              149.36493850222,
              -35.3427433364162
            ],
            [
              149.364920110594,
              -35.3429250114605
            ],
            [
              149.364913464727,
              -35.3431085109513
            ],
            [
              149.364916156495,
              -35.3432934601558
            ],
            [
              149.364918291274,
              -35.3433329049088
            ],
            [
              149.364900198544,
              -35.3438120852072
            ],
            [
              149.364975677426,
              -35.3451427301521
            ],
            [
              149.364988068482,
              -35.3453279239176
            ],
            [
              149.365057154245,
              -35.346414188909
            ],
            [
              149.365055670924,
              -35.3464968021487
            ],
            [
              149.365044674436,
              -35.3465871637764
            ],
            [
              149.364997700656,
              -35.3468380516956
            ],
            [
              149.364984002904,
              -35.3468963408059
            ],
            [
              149.364916603221,
              -35.3470982613909
            ],
            [
              149.364819321494,
              -35.3472897846899
            ],
            [
              149.364771426453,
              -35.347362381022
            ],
            [
              149.364528378851,
              -35.3476545055123
            ],
            [
              149.364456688876,
              -35.347731640148
            ],
            [
              149.364301254926,
              -35.3478618532973
            ],
            [
              149.364129970851,
              -35.3479732100936
            ],
            [
              149.363891759691,
              -35.3481059620897
            ],
            [
              149.363649271547,
              -35.3482325007761
            ],
            [
              149.36356015992,
              -35.3482732016604
            ],
            [
              149.363446906718,
              -35.3483103552843
            ],
            [
              149.363340929365,
              -35.3483364491664
            ],
            [
              149.363049207678,
              -35.3483907820181
            ],
            [
              149.362783769525,
              -35.3484135158629
            ],
            [
              149.362448874322,
              -35.3484043525311
            ],
            [
              149.361989590393,
              -35.3483431510564
            ],
            [
              149.361250686347,
              -35.3482267964206
            ],
            [
              149.361144414404,
              -35.3482207651215
            ],
            [
              149.360686636015,
              -35.3482560785505
            ],
            [
              149.36062948384,
              -35.3482614050691
            ],
            [
              149.360466722343,
              -35.3482796854081
            ],
            [
              149.360251583974,
              -35.3483222819965
            ],
            [
              149.36011065417,
              -35.3483551848139
            ],
            [
              149.359899760874,
              -35.3484194324038
            ],
            [
              149.359695887921,
              -35.3484933221968
            ],
            [
              149.359555833657,
              -35.3485486954321
            ],
            [
              149.359500976583,
              -35.3485795179211
            ],
            [
              149.359324432383,
              -35.3486909374233
            ],
            [
              149.359122402574,
              -35.3488382466065
            ],
            [
              149.358817281565,
              -35.3491013704268
            ],
            [
              149.35846331776,
              -35.3494497486085
            ],
            [
              149.358320217583,
              -35.3495880454628
            ],
            [
              149.358163815347,
              -35.3497265143797
            ],
            [
              149.357896700095,
              -35.3499325442953
            ],
            [
              149.357723216662,
              -35.3500463284612
            ],
            [
              149.357544977347,
              -35.3501542079345
            ],
            [
              149.357360520011,
              -35.3502543695892
            ],
            [
              149.357090236564,
              -35.350368572451
            ],
            [
              149.356884685253,
              -35.3504398662791
            ],
            [
              149.356677724533,
              -35.3505069721355
            ],
            [
              149.356468523804,
              -35.3505674317681
            ],
            [
              149.356255849884,
              -35.3506175787313
            ],
            [
              149.356036878013,
              -35.350649029737
            ],
            [
              149.355564623634,
              -35.3507134794071
            ],
            [
              149.351445685778,
              -35.3512505873966
            ],
            [
              149.351223906205,
              -35.3512590318867
            ],
            [
              149.351002369033,
              -35.3512616840146
            ],
            [
              149.350780914986,
              -35.3512623464453
            ],
            [
              149.350559536868,
              -35.3512611878881
            ],
            [
              149.350338395504,
              -35.3512544182687
            ],
            [
              149.350117718079,
              -35.3512365875741
            ],
            [
              149.349935257945,
              -35.3512080467365
            ],
            [
              149.349719125416,
              -35.3511662378575
            ],
            [
              149.349288730748,
              -35.3510779617718
            ],
            [
              149.349079676538,
              -35.3510184008546
            ],
            [
              149.348874261881,
              -35.3509497075326
            ],
            [
              149.348771423798,
              -35.3509157044748
            ],
            [
              149.348628745605,
              -35.3508584498341
            ],
            [
              149.348437965836,
              -35.3507658742401
            ],
            [
              149.348247180076,
              -35.3506733047612
            ],
            [
              149.348058764665,
              -35.3505778827167
            ],
            [
              149.347874460094,
              -35.3504775126976
            ],
            [
              149.347700115157,
              -35.3503651543936
            ],
            [
              149.347520479731,
              -35.3502404145948
            ],
            [
              149.343853260147,
              -35.3472239857728
            ],
            [
              149.342523826673,
              -35.3461359550132
            ],
            [
              149.341245768326,
              -35.3450899290445
            ],
            [
              149.341052100035,
              -35.3449235042575
            ],
            [
              149.340905191501,
              -35.3447867887832
            ],
            [
              149.340769760676,
              -35.3446432855331
            ],
            [
              149.34064204633,
              -35.3444952182573
            ],
            [
              149.340524205439,
              -35.3443413120204
            ],
            [
              149.340443786709,
              -35.3442329958937
            ],
            [
              149.340348074219,
              -35.3440687007478
            ],
            [
              149.34025693194,
              -35.3439030198109
            ],
            [
              149.340180737273,
              -35.3437328043659
            ],
            [
              149.340111173999,
              -35.3435605764016
            ],
            [
              149.340052195707,
              -35.3433851388599
            ],
            [
              149.340042723589,
              -35.3433453812227
            ],
            [
              149.339931467147,
              -35.3426160931824
            ],
            [
              149.339803236514,
              -35.3422347055311
            ],
            [
              149.339416306131,
              -35.3416667364837
            ],
            [
              149.339308804999,
              -35.3415072353314
            ],
            [
              149.33919528344,
              -35.341351139099
            ],
            [
              149.3390690279,
              -35.3412022475194
            ],
            [
              149.338933486113,
              -35.3410586088904
            ],
            [
              149.338793201334,
              -35.34091765356
            ],
            [
              149.338749275021,
              -35.3408750849835
            ],
            [
              149.338593740701,
              -35.3407434417322
            ],
            [
              149.338432533544,
              -35.3406178314472
            ],
            [
              149.338268224912,
              -35.3404955180413
            ],
            [
              149.33809769897,
              -35.3403798142067
            ],
            [
              149.337917988262,
              -35.3402738755995
            ],
            [
              149.337727607919,
              -35.3401792795898
            ],
            [
              149.337532092592,
              -35.340090143501
            ],
            [
              149.337445950342,
              -35.3400519897447
            ],
            [
              149.337246867249,
              -35.3399686734123
            ],
            [
              149.337031572999,
              -35.339890589495
            ],
            [
              149.336834534376,
              -35.3398360160044
            ],
            [
              149.336623651402,
              -35.3397810041037
            ],
            [
              149.336412408437,
              -35.3397268524568
            ],
            [
              149.336195156078,
              -35.3396871144288
            ],
            [
              149.336071965961,
              -35.3396673821819
            ],
            [
              149.329225216622,
              -35.3385823715423
            ],
            [
              149.327018110358,
              -35.3382325200349
            ],
            [
              149.327060132469,
              -35.3380545279391
            ],
            [
              149.326464951112,
              -35.3379601780334
            ],
            [
              149.326303183002,
              -35.3381191969537
            ],
            [
              149.324044098314,
              -35.3377610478639
            ],
            [
              149.320546865689,
              -35.3372010073758
            ],
            [
              149.320213520312,
              -35.3371476197452
            ],
            [
              149.319552392648,
              -35.3370041667807
            ],
            [
              149.319261425975,
              -35.3369575648165
            ],
            [
              149.318914140441,
              -35.3367812736583
            ],
            [
              149.318647314325,
              -35.3367374430701
            ],
            [
              149.31574778199,
              -35.3362611105074
            ],
            [
              149.314927814999,
              -35.3361581069381
            ],
            [
              149.314018770901,
              -35.3360401612111
            ],
            [
              149.313306354828,
              -35.3359610799919
            ],
            [
              149.312223491479,
              -35.3358667986181
            ],
            [
              149.312076534764,
              -35.3358540031035
            ],
            [
              149.31185539139,
              -35.3358401208634
            ],
            [
              149.309377628734,
              -35.3358642511515
            ],
            [
              149.308623947039,
              -35.3358506964349
            ],
            [
              149.308626374817,
              -35.3357600723655
            ],
            [
              149.30796281296,
              -35.3357481350344
            ],
            [
              149.307960385539,
              -35.335838759098
            ],
            [
              149.307116036619,
              -35.3358235643754
            ],
            [
              149.305482649712,
              -35.3357941526168
            ],
            [
              149.305258831045,
              -35.3357958827659
            ],
            [
              149.3050374938,
              -35.335783428613
            ],
            [
              149.304819106555,
              -35.3357541120355
            ],
            [
              149.304603451929,
              -35.3357091829981
            ],
            [
              149.304503337806,
              -35.3356791027025
            ],
            [
              149.304307370071,
              -35.335591700794
            ],
            [
              149.304123092414,
              -35.335491095644
            ],
            [
              149.303940249933,
              -35.3353888708743
            ],
            [
              149.303764157182,
              -35.3352790233621
            ],
            [
              149.303599769597,
              -35.3351559580066
            ],
            [
              149.303566819179,
              -35.3351222580482
            ],
            [
              149.303199381639,
              -35.3347104682522
            ],
            [
              149.302825975032,
              -35.3341535798222
            ],
            [
              149.302510048691,
              -35.333692177191
            ],
            [
              149.302327200335,
              -35.3335132319195
            ],
            [
              149.301781511255,
              -35.3333110804635
            ],
            [
              149.301301659763,
              -35.3331706795556
            ],
            [
              149.301086791313,
              -35.3331151893005
            ],
            [
              149.300870416819,
              -35.3330703157882
            ],
            [
              149.30065281809,
              -35.3330340902842
            ],
            [
              149.300433814097,
              -35.3330077737555
            ],
            [
              149.300211875978,
              -35.3330021640456
            ],
            [
              149.299986747634,
              -35.3330190599059
            ],
            [
              149.299788582097,
              -35.3330266638271
            ],
            [
              149.298628627501,
              -35.3330740881253
            ],
            [
              149.298088896256,
              -35.3330514685608
            ],
            [
              149.297862277046,
              -35.3330626294422
            ]
          ]
        ]
      },
      "properties": {
        "OBJECTID": 52,
        "DISTRICT_CODE": 14,
        "DISTRICT_NAME": "KOWEN",
        "DISTRICT_SHORT": "KOWE",
        "ID": 9,
        "LAST_UPDATE_DATE": "Mon, 17 May 1993 00:00:00 GMT",
        "GlobalID": "d37379f7-1980-4cf9-ad7d-8bb5d284450e"
      }
    }
  ]
}