{
  "type": "FeatureCollection",
  "crs": {
    "type": "name",
    "properties": {
      "name": "EPSG:4326"
    }
  },
  "features": 
  {
      "type": "Feature",
      "id": 40,
      "geometry": {
        "type": "Polygon",
        "coordinates": [
          [
            [
              149.174144479739,
              -35.3016162113363
            ],
            [
              149.174251921515,
              -35.3015526446472
            ],
            [
              149.174364237017,
              -35.3014950172008
            ],
            [
              149.174480938487,
              -35.3014435792527
            ],
            [
              149.174646435884,
              -35.3013681399477
            ],
            [
              149.174802541221,
              -35.3012802707852
            ],
            [
              149.174947869655,
              -35.3011807512912
            ],
            [
              149.177576456556,
              -35.2992010917328
            ],
            [
              149.172680257879,
              -35.2945881085085
            ],
            [
              149.17039169601,
              -35.2924196030122
            ],
            [
              149.169333672621,
              -35.2897829308263
            ],
            [
              149.167188972043,
              -35.2879450964635
            ],
            [
              149.165620388311,
              -35.2871148011239
            ],
            [
              149.165525243139,
              -35.2872356401841
            ],
            [
              149.15980323755,
              -35.2842063028999
            ],
            [
              149.160108813921,
              -35.283612069466
            ],
            [
              149.160169197859,
              -35.2834788784866
            ],
            [
              149.16021536629,
              -35.2833419177708
            ],
            [
              149.160246976126,
              -35.2832022053224
            ],
            [
              149.160263792494,
              -35.2830607795928
            ],
            [
              149.160265690481,
              -35.2829186917622
            ],
            [
              149.160252656058,
              -35.2827769979269
            ],
            [
              149.160224786182,
              -35.2826367512489
            ],
            [
              149.160182288074,
              -35.2824989941292
            ],
            [
              149.16012547768,
              -35.2823647504594
            ],
            [
              149.160054777312,
              -35.2822350180126
            ],
            [
              149.159970712517,
              -35.2821107610274
            ],
            [
              149.159873908162,
              -35.2819929030423
            ],
            [
              149.159765083793,
              -35.2818823200315
            ],
            [
              149.159645048283,
              -35.2817798338955
            ],
            [
              149.159514693821,
              -35.2816862063526
            ],
            [
              149.159374989282,
              -35.2816021332787
            ],
            [
              149.159226973022,
              -35.2815282395354
            ],
            [
              149.156595659353,
              -35.2803389013639
            ],
            [
              149.156364362624,
              -35.2802241389981
            ],
            [
              149.156145104851,
              -35.2800944564083
            ],
            [
              149.155939314023,
              -35.2799506982251
            ],
            [
              149.1557483304,
              -35.2797938007512
            ],
            [
              149.15261707829,
              -35.2770047412646
            ],
            [
              149.152331559329,
              -35.276726743528
            ],
            [
              149.152077026755,
              -35.2764291941825
            ],
            [
              149.151855460812,
              -35.2761144085265
            ],
            [
              149.15166858516,
              -35.2757848359534
            ],
            [
              149.151517853472,
              -35.2754430408882
            ],
            [
              149.151404438133,
              -35.2750916828292
            ],
            [
              149.151329221133,
              -35.2747334956509
            ],
            [
              149.151292787216,
              -35.2743712663298
            ],
            [
              149.151295419345,
              -35.274007813257
            ],
            [
              149.151621218117,
              -35.2686744315317
            ],
            [
              149.151647421334,
              -35.268442622772
            ],
            [
              149.151697462638,
              -35.2682134660017
            ],
            [
              149.151770982432,
              -35.267988607023
            ],
            [
              149.151867452507,
              -35.2677696607577
            ],
            [
              149.151986179842,
              -35.2675581996496
            ],
            [
              149.152126311587,
              -35.2673557423725
            ],
            [
              149.152286841189,
              -35.267163742925
            ],
            [
              149.15794446315,
              -35.2609758955645
            ],
            [
              149.158134007754,
              -35.2607867534245
            ],
            [
              149.158343331392,
              -35.2606122046023
            ],
            [
              149.158570771247,
              -35.2604536355629
            ],
            [
              149.158814520636,
              -35.2603123058326
            ],
            [
              149.159072643359,
              -35.2601893379967
            ],
            [
              149.159343089078,
              -35.2600857087851
            ],
            [
              149.162680516021,
              -35.2589525350154
            ],
            [
              149.16288656699,
              -35.2588889912535
            ],
            [
              149.16309726208,
              -35.258836687486
            ],
            [
              149.163311691037,
              -35.2587958496725
            ],
            [
              149.164582391626,
              -35.258589679924
            ],
            [
              149.164815672985,
              -35.2585446596297
            ],
            [
              149.165044431665,
              -35.2584860709731
            ],
            [
              149.165267496224,
              -35.2584142139853
            ],
            [
              149.165589733488,
              -35.2585937656672
            ],
            [
              149.168982350567,
              -35.2604821439886
            ],
            [
              149.169798300039,
              -35.2589975617824
            ],
            [
              149.172571940314,
              -35.2577398685381
            ],
            [
              149.17445154361,
              -35.2556936917051
            ],
            [
              149.17629157639,
              -35.2558477765818
            ],
            [
              149.178701971222,
              -35.2539241547052
            ],
            [
              149.178810254725,
              -35.2530653732099
            ],
            [
              149.180297091065,
              -35.2512995418566
            ],
            [
              149.180237790153,
              -35.2496402210677
            ],
            [
              149.180267846528,
              -35.2487835566595
            ],
            [
              149.178079565296,
              -35.2450994721269
            ],
            [
              149.181348981747,
              -35.2379343456748
            ],
            [
              149.166681717975,
              -35.230865653591
            ],
            [
              149.166706564409,
              -35.230732008632
            ],
            [
              149.163386179709,
              -35.230304690892
            ],
            [
              149.163196516685,
              -35.229883118149
            ],
            [
              149.163041987759,
              -35.2299300170701
            ],
            [
              149.161301166392,
              -35.2260603617028
            ],
            [
              149.168089545121,
              -35.2240040573515
            ],
            [
              149.168051286279,
              -35.223919016298
            ],
            [
              149.172855561286,
              -35.2224635102222
            ],
            [
              149.177594895675,
              -35.2206853455956
            ],
            [
              149.178051296492,
              -35.2204768632167
            ],
            [
              149.17846313787,
              -35.2202136585139
            ],
            [
              149.178819024945,
              -35.2199003201708
            ],
            [
              149.182276684119,
              -35.2163431962582
            ],
            [
              149.182559520173,
              -35.2160864404889
            ],
            [
              149.18287933402,
              -35.2158606025981
            ],
            [
              149.183232333395,
              -35.2156714120759
            ],
            [
              149.185248660081,
              -35.2147257272875
            ],
            [
              149.185560519566,
              -35.2146066156811
            ],
            [
              149.185893232157,
              -35.2145329475747
            ],
            [
              149.186236941115,
              -35.2145085906625
            ],
            [
              149.186771400573,
              -35.2145068940238
            ],
            [
              149.187103750874,
              -35.2144783622723
            ],
            [
              149.187423439256,
              -35.2143957391897
            ],
            [
              149.18771664399,
              -35.214262251481
            ],
            [
              149.187970942166,
              -35.2140844082436
            ],
            [
              149.188178191334,
              -35.2138686971361
            ],
            [
              149.190812029974,
              -35.2104551341836
            ],
            [
              149.191191308644,
              -35.2100131975537
            ],
            [
              149.191622039259,
              -35.2096037805122
            ],
            [
              149.194395861159,
              -35.2072163616479
            ],
            [
              149.194785512897,
              -35.2069294590171
            ],
            [
              149.195224885249,
              -35.2066953090757
            ],
            [
              149.195704032892,
              -35.206521252246
            ],
            [
              149.196209965062,
              -35.2064107916857
            ],
            [
              149.200691227516,
              -35.2057314585157
            ],
            [
              149.200671570617,
              -35.2063564403201
            ],
            [
              149.204225061516,
              -35.2089525360758
            ],
            [
              149.205894533023,
              -35.2115672174073
            ],
            [
              149.207192643352,
              -35.2118517450206
            ],
            [
              149.208517309532,
              -35.2115117938807
            ],
            [
              149.208702458873,
              -35.213058952198
            ],
            [
              149.207554653372,
              -35.2160478869785
            ],
            [
              149.206098625133,
              -35.2162684770788
            ],
            [
              149.205612087983,
              -35.2174455974734
            ],
            [
              149.205027299276,
              -35.2198631816579
            ],
            [
              149.202455601402,
              -35.2246260294466
            ],
            [
              149.203279063473,
              -35.22614981408
            ],
            [
              149.204278013105,
              -35.2266899966868
            ],
            [
              149.204985784147,
              -35.2291005102406
            ],
            [
              149.209762255353,
              -35.2264910454297
            ],
            [
              149.210839500747,
              -35.225129142291
            ],
            [
              149.211949584862,
              -35.2221221159879
            ],
            [
              149.213049973888,
              -35.2202849537862
            ],
            [
              149.213784625454,
              -35.2196059044712
            ],
            [
              149.216003480106,
              -35.2197493295536
            ],
            [
              149.219988498572,
              -35.2207065790111
            ],
            [
              149.223509733515,
              -35.2191356533013
            ],
            [
              149.224277614548,
              -35.2193666870195
            ],
            [
              149.225799366253,
              -35.2193127565023
            ],
            [
              149.227037084031,
              -35.2198440623988
            ],
            [
              149.228775187868,
              -35.2216874862063
            ],
            [
              149.231714490204,
              -35.2220023765477
            ],
            [
              149.234391948636,
              -35.2210034135206
            ],
            [
              149.236510242907,
              -35.2215616178241
            ],
            [
              149.237104995835,
              -35.2223636086449
            ],
            [
              149.238697032675,
              -35.222227744807
            ],
            [
              149.23989954035,
              -35.2231387764804
            ],
            [
              149.240728113915,
              -35.2250464511279
            ],
            [
              149.241287439117,
              -35.2253446935543
            ],
            [
              149.243260693493,
              -35.2254663351269
            ],
            [
              149.245531220711,
              -35.2267229094299
            ],
            [
              149.246009289314,
              -35.2272648155278
            ],
            [
              149.246124723533,
              -35.2279794222089
            ],
            [
              149.246793673747,
              -35.2291506417668
            ],
            [
              149.246316920497,
              -35.2298688912612
            ],
            [
              149.245952878292,
              -35.2307154127525
            ],
            [
              149.244808095981,
              -35.2313715091838
            ],
            [
              149.24293426284,
              -35.2313302312125
            ],
            [
              149.242740341458,
              -35.2316669326479
            ],
            [
              149.242938577865,
              -35.2321358153778
            ],
            [
              149.242969906736,
              -35.232867528351
            ],
            [
              149.242764396942,
              -35.2336363582978
            ],
            [
              149.241517764206,
              -35.2350320477392
            ],
            [
              149.24124185307,
              -35.2367553756143
            ],
            [
              149.238425260021,
              -35.2379101064843
            ],
            [
              149.23848345335,
              -35.238348336496
            ],
            [
              149.237043436542,
              -35.2389099903275
            ],
            [
              149.236184473967,
              -35.2397411607896
            ],
            [
              149.23454988577,
              -35.2404697667236
            ],
            [
              149.234373274209,
              -35.2427917148898
            ],
            [
              149.234890298365,
              -35.2434194955469
            ],
            [
              149.237298217145,
              -35.2432951285202
            ],
            [
              149.237943117864,
              -35.2435717195144
            ],
            [
              149.240607789525,
              -35.2458111398168
            ],
            [
              149.241866663106,
              -35.2463597993007
            ],
            [
              149.24273603746,
              -35.2461208930706
            ],
            [
              149.244266122045,
              -35.2464111975564
            ],
            [
              149.245802700703,
              -35.2473790360746
            ],
            [
              149.247232942993,
              -35.2465275254503
            ],
            [
              149.249429049262,
              -35.2471834145193
            ],
            [
              149.250324132113,
              -35.2479869893587
            ],
            [
              149.249651073525,
              -35.2493544096709
            ],
            [
              149.249991748193,
              -35.2507336613422
            ],
            [
              149.250652758503,
              -35.2522402854235
            ],
            [
              149.25301108751,
              -35.2522307968801
            ],
            [
              149.253899680248,
              -35.2536400229497
            ],
            [
              149.25534098898,
              -35.255379070459
            ],
            [
              149.255378505746,
              -35.2563451346024
            ],
            [
              149.257328703854,
              -35.2572030209768
            ],
            [
              149.260005753249,
              -35.2573481933639
            ],
            [
              149.261291023667,
              -35.2569203536912
            ],
            [
              149.262260513479,
              -35.2573947071247
            ],
            [
              149.262707295669,
              -35.2582233743752
            ],
            [
              149.26328851525,
              -35.2634991736968
            ],
            [
              149.262896080488,
              -35.2652459566251
            ],
            [
              149.263445518402,
              -35.2666697532789
            ],
            [
              149.263222055435,
              -35.2673655797202
            ],
            [
              149.260746804218,
              -35.2703111083218
            ],
            [
              149.260090187225,
              -35.2723824580146
            ],
            [
              149.25889788605,
              -35.275298081344
            ],
            [
              149.258973608594,
              -35.2759490094337
            ],
            [
              149.25916950458,
              -35.277248781681
            ],
            [
              149.259271280904,
              -35.2791126400483
            ],
            [
              149.259706315999,
              -35.2811337825038
            ],
            [
              149.259768876612,
              -35.2822386888415
            ],
            [
              149.259546005539,
              -35.2839099438014
            ],
            [
              149.258583271524,
              -35.287211988543
            ],
            [
              149.257921083208,
              -35.2898866489946
            ],
            [
              149.257820444541,
              -35.2906737750137
            ],
            [
              149.257343220252,
              -35.2917640169179
            ],
            [
              149.256398376405,
              -35.2927810298598
            ],
            [
              149.255694663036,
              -35.29374944873
            ],
            [
              149.254579203738,
              -35.2961765776803
            ],
            [
              149.252246407649,
              -35.3010115079555
            ],
            [
              149.250899472496,
              -35.305935726928
            ],
            [
              149.250286931728,
              -35.308102387704
            ],
            [
              149.249095734137,
              -35.3094568925218
            ],
            [
              149.248030107448,
              -35.3106639750371
            ],
            [
              149.245291400293,
              -35.3136955890445
            ],
            [
              149.244172356791,
              -35.3149174786147
            ],
            [
              149.243698490492,
              -35.3168777726236
            ],
            [
              149.243773443114,
              -35.3178668377316
            ],
            [
              149.244509778822,
              -35.3187645357704
            ],
            [
              149.244677060075,
              -35.3190625526118
            ],
            [
              149.244711998736,
              -35.3193817020964
            ],
            [
              149.244617185205,
              -35.3196926476477
            ],
            [
              149.244402976872,
              -35.3199608210647
            ],
            [
              149.244085727144,
              -35.3201578130892
            ],
            [
              149.242925971613,
              -35.320663532333
            ],
            [
              149.242185942851,
              -35.3209082541054
            ],
            [
              149.241170750727,
              -35.3222905633683
            ],
            [
              149.240422614769,
              -35.3231974920542
            ],
            [
              149.239618303359,
              -35.3251689127967
            ],
            [
              149.238154434349,
              -35.3269391941948
            ],
            [
              149.237760643946,
              -35.3278207013271
            ],
            [
              149.237691735554,
              -35.3285181062096
            ],
            [
              149.237963639013,
              -35.3299476530445
            ],
            [
              149.238569088402,
              -35.3327497819214
            ],
            [
              149.238836365362,
              -35.3336695481177
            ],
            [
              149.239006800451,
              -35.3340315085495
            ],
            [
              149.239131549433,
              -35.3343370993502
            ],
            [
              149.241371982427,
              -35.3365457886119
            ],
            [
              149.24147425673,
              -35.336687108745
            ],
            [
              149.241384829391,
              -35.3367413049611
            ],
            [
              149.231479207638,
              -35.3422569538073
            ],
            [
              149.231450573993,
              -35.3422150011011
            ],
            [
              149.231376630169,
              -35.3420838252267
            ],
            [
              149.231336877717,
              -35.3418665174977
            ],
            [
              149.231362637593,
              -35.3416332266656
            ],
            [
              149.231441066791,
              -35.3413937111667
            ],
            [
              149.231565332763,
              -35.341223958102
            ],
            [
              149.231748510032,
              -35.3410783397668
            ],
            [
              149.231955409873,
              -35.3408802251326
            ],
            [
              149.232167032393,
              -35.340639832536
            ],
            [
              149.232370230518,
              -35.3403758425287
            ],
            [
              149.232521083556,
              -35.3402364120742
            ],
            [
              149.232679103003,
              -35.3400632604227
            ],
            [
              149.232860727647,
              -35.3399147592209
            ],
            [
              149.233010085846,
              -35.3397522584635
            ],
            [
              149.233112629257,
              -35.3396045341823
            ],
            [
              149.2332383367,
              -35.3394414462032
            ],
            [
              149.233253707001,
              -35.3392318770752
            ],
            [
              149.233222847507,
              -35.3390494311034
            ],
            [
              149.233184480546,
              -35.338856905766
            ],
            [
              149.23312570444,
              -35.3386024113766
            ],
            [
              149.232951031181,
              -35.3383982412511
            ],
            [
              149.23280994821,
              -35.338329737263
            ],
            [
              149.232592782621,
              -35.3382316321425
            ],
            [
              149.232542359443,
              -35.3381336685664
            ],
            [
              149.232281056485,
              -35.3379431767738
            ],
            [
              149.232080032994,
              -35.3377549152891
            ],
            [
              149.231920081925,
              -35.3375034015736
            ],
            [
              149.231779039518,
              -35.3374084889447
            ],
            [
              149.231556207175,
              -35.3373283265513
            ],
            [
              149.231246291986,
              -35.337216780908
            ],
            [
              149.230955161506,
              -35.3371373737423
            ],
            [
              149.230689851366,
              -35.3370882913725
            ],
            [
              149.230514013912,
              -35.3370992477002
            ],
            [
              149.230398196429,
              -35.3370983783466
            ],
            [
              149.230108632707,
              -35.3371496473563
            ],
            [
              149.2298350515,
              -35.3372137749233
            ],
            [
              149.229580581875,
              -35.3373088697637
            ],
            [
              149.229310175529,
              -35.3373273873901
            ],
            [
              149.228991647786,
              -35.3373245421505
            ],
            [
              149.228683350627,
              -35.3373634048159
            ],
            [
              149.228454272962,
              -35.3373722913972
            ],
            [
              149.228239090276,
              -35.3374352283424
            ],
            [
              149.227968254926,
              -35.3374988052748
            ],
            [
              149.227721494366,
              -35.3376400263709
            ],
            [
              149.227396101405,
              -35.3377842732019
            ],
            [
              149.22706144703,
              -35.338043444762
            ],
            [
              149.226756702361,
              -35.3382602929613
            ],
            [
              149.226473069121,
              -35.3383925652373
            ],
            [
              149.226111525615,
              -35.3386348386261
            ],
            [
              149.225722621487,
              -35.3389284414624
            ],
            [
              149.225388076759,
              -35.3391915738589
            ],
            [
              149.225287106762,
              -35.3393567729431
            ],
            [
              149.225224476572,
              -35.3394633222832
            ],
            [
              149.224803080284,
              -35.3396601856772
            ],
            [
              149.224446842712,
              -35.3397915013513
            ],
            [
              149.224096809038,
              -35.3398573733906
            ],
            [
              149.22389007195,
              -35.3397902368778
            ],
            [
              149.223449890086,
              -35.3397893052483
            ],
            [
              149.223074408672,
              -35.3397561729421
            ],
            [
              149.222833774916,
              -35.3397233415773
            ],
            [
              149.222580542868,
              -35.3397513669465
            ],
            [
              149.222304205166,
              -35.3396510043011
            ],
            [
              149.222107959856,
              -35.3395156217586
            ],
            [
              149.22195817876,
              -35.3393570848322
            ],
            [
              149.221816838608,
              -35.3391871782353
            ],
            [
              149.221775663347,
              -35.3388780315956
            ],
            [
              149.2218054804,
              -35.3385878670493
            ],
            [
              149.221933392489,
              -35.3383342110087
            ],
            [
              149.222061296853,
              -35.3380782120659
            ],
            [
              149.22208375549,
              -35.3377503878353
            ],
            [
              149.222068071525,
              -35.3374738220494
            ],
            [
              149.222075127287,
              -35.3371443131509
            ],
            [
              149.22217927749,
              -35.3368900679649
            ],
            [
              149.222211713388,
              -35.3366765042066
            ],
            [
              149.222153948881,
              -35.3365420498105
            ],
            [
              149.222187397224,
              -35.3364214033432
            ],
            [
              149.22238640241,
              -35.3363118217475
            ],
            [
              149.222566554458,
              -35.3360591540957
            ],
            [
              149.222673340305,
              -35.3357626352714
            ],
            [
              149.22270569332,
              -35.335476430831
            ],
            [
              149.222776085375,
              -35.3351844820204
            ],
            [
              149.222807215568,
              -35.3349771397017
            ],
            [
              149.222748583669,
              -35.3347220995411
            ],
            [
              149.222660968363,
              -35.3344445797994
            ],
            [
              149.222578353303,
              -35.334144518744
            ],
            [
              149.222487025945,
              -35.3338770986446
            ],
            [
              149.222326564284,
              -35.3335005687951
            ],
            [
              149.222059227877,
              -35.3330492431454
            ],
            [
              149.221685871395,
              -35.3327231960156
            ],
            [
              149.22119756636,
              -35.3324306056333
            ],
            [
              149.220668354417,
              -35.3321808941972
            ],
            [
              149.22022990115,
              -35.331982754478
            ],
            [
              149.219975208769,
              -35.3319049692878
            ],
            [
              149.219635610216,
              -35.3318689703418
            ],
            [
              149.219300158677,
              -35.331820525216
            ],
            [
              149.218939431987,
              -35.33173661343
            ],
            [
              149.218553883353,
              -35.3317507997992
            ],
            [
              149.218238771302,
              -35.3318274104864
            ],
            [
              149.217942786113,
              -35.3319433717984
            ],
            [
              149.217629371257,
              -35.3321675121579
            ],
            [
              149.217411623206,
              -35.3323437211844
            ],
            [
              149.217283875056,
              -35.3324053162153
            ],
            [
              149.217037437194,
              -35.3325876121873
            ],
            [
              149.216733538733,
              -35.332836607688
            ],
            [
              149.216471920214,
              -35.3330617384921
            ],
            [
              149.216247997648,
              -35.3332767993882
            ],
            [
              149.21590974957,
              -35.3335567654408
            ],
            [
              149.215543867702,
              -35.333783242842
            ],
            [
              149.215267116017,
              -35.3338118334719
            ],
            [
              149.21513821324,
              -35.3338532401183
            ],
            [
              149.214869448149,
              -35.3340823442356
            ],
            [
              149.214559151598,
              -35.3342851116651
            ],
            [
              149.214328731383,
              -35.3344562000287
            ],
            [
              149.214056202395,
              -35.3345901365143
            ],
            [
              149.213813635652,
              -35.3347432187682
            ],
            [
              149.21350145344,
              -35.3348541493262
            ],
            [
              149.21315434641,
              -35.3349848759019
            ],
            [
              149.212791815403,
              -35.3351059831109
            ],
            [
              149.212543810588,
              -35.335241046521
            ],
            [
              149.212280776728,
              -35.3353918168577
            ],
            [
              149.211910286535,
              -35.3355417754002
            ],
            [
              149.211612422589,
              -35.3357072935032
            ],
            [
              149.211343372643,
              -35.3358283296961
            ],
            [
              149.211077867897,
              -35.3359599954694
            ],
            [
              149.210656344613,
              -35.336112198413
            ],
            [
              149.210317571692,
              -35.3362372240751
            ],
            [
              149.209996854275,
              -35.336325628987
            ],
            [
              149.209624723382,
              -35.3364383610016
            ],
            [
              149.209321477303,
              -35.3365655792762
            ],
            [
              149.208896927127,
              -35.3367414834
            ],
            [
              149.208543966582,
              -35.336824259199
            ],
            [
              149.208397697816,
              -35.3368741588371
            ],
            [
              149.208114375059,
              -35.3369641191218
            ],
            [
              149.207831473699,
              -35.3370468683019
            ],
            [
              149.207517626244,
              -35.3371583270158
            ],
            [
              149.207235362816,
              -35.3371875392464
            ],
            [
              149.207002421837,
              -35.3372819205327
            ],
            [
              149.206689098464,
              -35.3373382200801
            ],
            [
              149.206371447408,
              -35.3373792944768
            ],
            [
              149.205944904214,
              -35.3373726886465
            ],
            [
              149.205546164887,
              -35.3373570233476
            ],
            [
              149.205102276025,
              -35.3373633310091
            ],
            [
              149.204655132015,
              -35.33738883827
            ],
            [
              149.204436056357,
              -35.3373959516797
            ],
            [
              149.204080544743,
              -35.3375188242749
            ],
            [
              149.203728169848,
              -35.3376658440376
            ],
            [
              149.203381005229,
              -35.3378302491123
            ],
            [
              149.203079774286,
              -35.3379783572815
            ],
            [
              149.202774143219,
              -35.338080777227
            ],
            [
              149.202512629467,
              -35.3381882644213
            ],
            [
              149.202262203842,
              -35.3383339453415
            ],
            [
              149.202014891812,
              -35.3385405454483
            ],
            [
              149.201830500871,
              -35.3387509205205
            ],
            [
              149.201697030419,
              -35.3390062767161
            ],
            [
              149.201583675301,
              -35.3392565542622
            ],
            [
              149.201462981315,
              -35.3395665049082
            ],
            [
              149.201349586318,
              -35.3398940192432
            ],
            [
              149.201263764416,
              -35.3401605649401
            ],
            [
              149.201138362953,
              -35.3404807065261
            ],
            [
              149.200999035839,
              -35.3407270593025
            ],
            [
              149.200794350659,
              -35.3410568797178
            ],
            [
              149.200625992627,
              -35.3413067023686
            ],
            [
              149.200479348238,
              -35.3414359929462
            ],
            [
              149.200232935688,
              -35.3415163229997
            ],
            [
              149.199944383289,
              -35.3415916720546
            ],
            [
              149.199655568438,
              -35.3416490859215
            ],
            [
              149.199257209833,
              -35.3416632319884
            ],
            [
              149.198930539019,
              -35.3416659070952
            ],
            [
              149.1986271086,
              -35.3416349292653
            ],
            [
              149.198330900362,
              -35.3415406711594
            ],
            [
              149.19800686453,
              -35.341399230679
            ],
            [
              149.197723196045,
              -35.3413045013355
            ],
            [
              149.197356989519,
              -35.34123810832
            ],
            [
              149.19699796514,
              -35.341185672696
            ],
            [
              149.196718576154,
              -35.3411810590434
            ],
            [
              149.196447028137,
              -35.3410946892115
            ],
            [
              149.196016083012,
              -35.340999642815
            ],
            [
              149.195685641327,
              -35.3409398596065
            ],
            [
              149.195404468635,
              -35.3408766642668
            ],
            [
              149.195010456989,
              -35.340818057677
            ],
            [
              149.194566454894,
              -35.3407838600735
            ],
            [
              149.194196074607,
              -35.3407179154019
            ],
            [
              149.193814225821,
              -35.340638557459
            ],
            [
              149.193480421368,
              -35.340597969283
            ],
            [
              149.1930587749,
              -35.340526510736
            ],
            [
              149.192713977698,
              -35.3404881004832
            ],
            [
              149.192418666788,
              -35.3404457389243
            ],
            [
              149.191983046032,
              -35.3404199914487
            ],
            [
              149.191638916101,
              -35.3403844606314
            ],
            [
              149.191330053328,
              -35.3402823635677
            ],
            [
              149.191092757004,
              -35.3401627639384
            ],
            [
              149.190911736586,
              -35.3399765675208
            ],
            [
              149.190763586267,
              -35.3398810778905
            ],
            [
              149.190519959871,
              -35.3396353116259
            ],
            [
              149.190242291595,
              -35.3394627774288
            ],
            [
              149.190330372405,
              -35.3391573029668
            ],
            [
              149.19040038759,
              -35.3389386451371
            ],
            [
              149.190345141367,
              -35.3387269339654
            ],
            [
              149.19039775282,
              -35.3384480080655
            ],
            [
              149.190453313937,
              -35.3381105870137
            ],
            [
              149.190467719794,
              -35.3379122909692
            ],
            [
              149.190435214653,
              -35.3376887395517
            ],
            [
              149.190452157914,
              -35.3375923704334
            ],
            [
              149.190475562738,
              -35.3371388265472
            ],
            [
              149.190369956663,
              -35.3368342722326
            ],
            [
              149.190357430062,
              -35.3364940693269
            ],
            [
              149.190397329159,
              -35.3362360716507
            ],
            [
              149.190448383892,
              -35.3358022230886
            ],
            [
              149.190581484206,
              -35.3352196367176
            ],
            [
              149.19104217419,
              -35.3344196256618
            ],
            [
              149.191391627754,
              -35.3337994911366
            ],
            [
              149.191659475547,
              -35.3332307585196
            ],
            [
              149.191810175963,
              -35.3328998623489
            ],
            [
              149.192014518146,
              -35.3325570787935
            ],
            [
              149.192130520006,
              -35.3323986443898
            ],
            [
              149.192155541341,
              -35.3322769376739
            ],
            [
              149.192156638872,
              -35.3321783388424
            ],
            [
              149.192189331191,
              -35.3320441833249
            ],
            [
              149.192321548526,
              -35.3319077137775
            ],
            [
              149.192446836847,
              -35.3316253426855
            ],
            [
              149.192634005359,
              -35.3311800214059
            ],
            [
              149.192715293462,
              -35.3305045915448
            ],
            [
              149.192716308076,
              -35.3300285495478
            ],
            [
              149.192604769237,
              -35.3295798054866
            ],
            [
              149.192551829682,
              -35.3294644352389
            ],
            [
              149.192294904285,
              -35.3290637674261
            ],
            [
              149.19190042601,
              -35.3283314660019
            ],
            [
              149.191636048995,
              -35.3277437990728
            ],
            [
              149.191275870271,
              -35.3271478929103
            ],
            [
              149.191118628869,
              -35.3269109200771
            ],
            [
              149.190840531279,
              -35.3264286281216
            ],
            [
              149.190289540967,
              -35.325525408476
            ],
            [
              149.189843987912,
              -35.3247549631518
            ],
            [
              149.189531955574,
              -35.3242867777587
            ],
            [
              149.189355188565,
              -35.3239180682361
            ],
            [
              149.189064149176,
              -35.3233924404275
            ],
            [
              149.188717922085,
              -35.3227721727941
            ],
            [
              149.188389305307,
              -35.3221074452468
            ],
            [
              149.188166011588,
              -35.321529262611
            ],
            [
              149.188071698442,
              -35.3212961571886
            ],
            [
              149.187633345986,
              -35.3210303945131
            ],
            [
              149.187123583274,
              -35.3204921061449
            ],
            [
              149.186670739459,
              -35.3201835511217
            ],
            [
              149.186258494573,
              -35.3199345984769
            ],
            [
              149.185738192442,
              -35.3199539238696
            ],
            [
              149.185008843496,
              -35.3199189354215
            ],
            [
              149.183753195097,
              -35.3196706558494
            ],
            [
              149.182599173127,
              -35.31937715411
            ],
            [
              149.182052889972,
              -35.3192258944394
            ],
            [
              149.180550229401,
              -35.3187413549053
            ],
            [
              149.179785791759,
              -35.3185379404914
            ],
            [
              149.178890489332,
              -35.3183797674437
            ],
            [
              149.177909599495,
              -35.3184133132223
            ],
            [
              149.177204363504,
              -35.318066140143
            ],
            [
              149.176961123563,
              -35.3175296918487
            ],
            [
              149.176475037615,
              -35.3170171910914
            ],
            [
              149.176376235242,
              -35.3165604823386
            ],
            [
              149.176424858455,
              -35.3161430448132
            ],
            [
              149.176531345972,
              -35.3158995595456
            ],
            [
              149.176952942514,
              -35.3152162761951
            ],
            [
              149.177330738147,
              -35.3146242592896
            ],
            [
              149.177889714038,
              -35.3141284234078
            ],
            [
              149.178094458132,
              -35.313761958772
            ],
            [
              149.178277732255,
              -35.3133820944127
            ],
            [
              149.178310262132,
              -35.3132682210255
            ],
            [
              149.178217860631,
              -35.3127197565718
            ],
            [
              149.177905483023,
              -35.3121895344116
            ],
            [
              149.177736128738,
              -35.3118050252582
            ],
            [
              149.177068582898,
              -35.3113114349759
            ],
            [
              149.1761435024,
              -35.3106925608819
            ],
            [
              149.175433746148,
              -35.3101415196949
            ],
            [
              149.175039191813,
              -35.3095753524277
            ],
            [
              149.174729098891,
              -35.3091786840636
            ],
            [
              149.174648701702,
              -35.308733845245
            ],
            [
              149.174913434442,
              -35.3079679573801
            ],
            [
              149.175308787263,
              -35.3071528620818
            ],
            [
              149.175389139623,
              -35.3066598556109
            ],
            [
              149.175286265158,
              -35.3062994946114
            ],
            [
              149.175473562531,
              -35.3056847620233
            ],
            [
              149.175575937697,
              -35.3053168190456
            ],
            [
              149.17599980443,
              -35.3048519998666
            ],
            [
              149.176065900839,
              -35.3041658737126
            ],
            [
              149.175730626025,
              -35.303543927939
            ],
            [
              149.175268561344,
              -35.3031209731811
            ],
            [
              149.174746582477,
              -35.3027510017526
            ],
            [
              149.174023742522,
              -35.3024861176012
            ],
            [
              149.173580842141,
              -35.3023447723844
            ],
            [
              149.173279796044,
              -35.3023023019368
            ],
            [
              149.173578662768,
              -35.3019747920235
            ],
            [
              149.174144479739,
              -35.3016162113363
            ]
          ]
        ]
      },
      "properties": {
        "OBJECTID": 40,
        "DISTRICT_CODE": 2,
        "DISTRICT_NAME": "MAJURA",
        "DISTRICT_SHORT": "MAJU",
        "ID": 107,
        "LAST_UPDATE_DATE": "Thu, 22 Sep 2016 10:22:52 GMT",
        "GlobalID": "807fd6e8-2080-4701-8c21-2c190b554b92"
      }
    }
}