{
  "type": "FeatureCollection",
  "crs": {
    "type": "name",
    "properties": {
      "name": "EPSG:4326"
    }
  },
  "features": 
    {
      "type": "Feature",
      "id": 57,
      "geometry": {
        "type": "Polygon",
        "coordinates": [
          [
            [
              149.034057351177,
              -35.2659876972883
            ],
            [
              149.034276589089,
              -35.2664594107426
            ],
            [
              149.034544533086,
              -35.2669138919436
            ],
            [
              149.034859194045,
              -35.2673477656687
            ],
            [
              149.03521823579,
              -35.2677578096888
            ],
            [
              149.035618992423,
              -35.268140978708
            ],
            [
              149.036058488112,
              -35.2684944269879
            ],
            [
              149.036533459188,
              -35.2688155294918
            ],
            [
              149.037040378378,
              -35.2691019013894
            ],
            [
              149.037575481011,
              -35.2693514157777
            ],
            [
              149.038134792978,
              -35.2695622194853
            ],
            [
              149.038714160265,
              -35.2697327468435
            ],
            [
              149.039309279817,
              -35.2698617313214
            ],
            [
              149.039915731515,
              -35.2699482149369
            ],
            [
              149.040529011024,
              -35.2699915553763
            ],
            [
              149.041144563272,
              -35.2699914307663
            ],
            [
              149.041757816302,
              -35.2699478420658
            ],
            [
              149.042364215253,
              -35.2698611130576
            ],
            [
              149.046669919602,
              -35.2690870956445
            ],
            [
              149.047440099381,
              -35.2689777982516
            ],
            [
              149.048219070639,
              -35.2689250291727
            ],
            [
              149.049000677688,
              -35.2689292053513
            ],
            [
              149.049778744041,
              -35.2689902937305
            ],
            [
              149.050547121178,
              -35.2691078115149
            ],
            [
              149.0512997371,
              -35.2692808299854
            ],
            [
              149.0517485698,
              -35.2694130664748
            ],
            [
              149.052187999957,
              -35.2695650674323
            ],
            [
              149.052616734708,
              -35.2697363856562
            ],
            [
              149.061341495139,
              -35.273465657776
            ],
            [
              149.064023101286,
              -35.2744889932863
            ],
            [
              149.066805805502,
              -35.2753110665449
            ],
            [
              149.069667194715,
              -35.2759252563084
            ],
            [
              149.072584220365,
              -35.2763266158061
            ],
            [
              149.075533384571,
              -35.2765119126781
            ],
            [
              149.07560150822,
              -35.2765143142742
            ],
            [
              149.075619426998,
              -35.2765149642929
            ],
            [
              149.075637343682,
              -35.2765156520279
            ],
            [
              149.075655258155,
              -35.2765163774748
            ],
            [
              149.076308177252,
              -35.2765686180758
            ],
            [
              149.076952322865,
              -35.2766705100621
            ],
            [
              149.077582093026,
              -35.2768211672683
            ],
            [
              149.078192010718,
              -35.2770192794289
            ],
            [
              149.07877677148,
              -35.2772631235674
            ],
            [
              149.08202711261,
              -35.2787788389209
            ],
            [
              149.082411126889,
              -35.2789401513291
            ],
            [
              149.082810826332,
              -35.2790734033261
            ],
            [
              149.083223168613,
              -35.2791775806558
            ],
            [
              149.083645015138,
              -35.2792518903669
            ],
            [
              149.086332643384,
              -35.2796255590004
            ],
            [
              149.086409919898,
              -35.2800188766187
            ],
            [
              149.086530312005,
              -35.2804048404909
            ],
            [
              149.086692831119,
              -35.2807802793989
            ],
            [
              149.086896142469,
              -35.2811421085605
            ],
            [
              149.087138576051,
              -35.2814873549803
            ],
            [
              149.087894501094,
              -35.2824591499238
            ],
            [
              149.087897021249,
              -35.2850692719443
            ],
            [
              149.087581681801,
              -35.2851180437748
            ],
            [
              149.087272447607,
              -35.2851883466642
            ],
            [
              149.086971501165,
              -35.2852796844441
            ],
            [
              149.086680966506,
              -35.2853914124859
            ],
            [
              149.086402894198,
              -35.2855227422483
            ],
            [
              149.086139246884,
              -35.2856727468409
            ],
            [
              149.085891885426,
              -35.2858403675639
            ],
            [
              149.08566255578,
              -35.286024421378
            ],
            [
              149.084160808969,
              -35.2873353722109
            ],
            [
              149.083887614888,
              -35.2875555763393
            ],
            [
              149.083593908365,
              -35.2877572506048
            ],
            [
              149.083281553394,
              -35.2879391149813
            ],
            [
              149.082952532372,
              -35.2881000151657
            ],
            [
              149.080872836961,
              -35.2890269973465
            ],
            [
              149.080714784494,
              -35.2891058673827
            ],
            [
              149.080566859781,
              -35.2891969922891
            ],
            [
              149.080430471383,
              -35.2892995043865
            ],
            [
              149.077248870275,
              -35.2919362116942
            ],
            [
              149.076006144283,
              -35.2929744438078
            ],
            [
              149.075794124447,
              -35.2931692758912
            ],
            [
              149.075605607297,
              -35.293379721758
            ],
            [
              149.075442293866,
              -35.2936038827292
            ],
            [
              149.074767155044,
              -35.2946392849491
            ],
            [
              149.074646947484,
              -35.2948059826365
            ],
            [
              149.074509724247,
              -35.2949636019838
            ],
            [
              149.074356498937,
              -35.2951109786145
            ],
            [
              149.07418840339,
              -35.295247023811
            ],
            [
              149.074006679312,
              -35.2953707325585
            ],
            [
              149.073812669106,
              -35.2954811909708
            ],
            [
              149.073607805956,
              -35.2955775830431
            ],
            [
              149.07339360324,
              -35.2956591966808
            ],
            [
              149.073171643346,
              -35.2957254289619
            ],
            [
              149.072055451088,
              -35.2960146021527
            ],
            [
              149.071896057431,
              -35.296062330086
            ],
            [
              149.071742413729,
              -35.2961213876766
            ],
            [
              149.071595715371,
              -35.2961913154488
            ],
            [
              149.071457103717,
              -35.2962715693537
            ],
            [
              149.07132765722,
              -35.2963615250009
            ],
            [
              149.071208383039,
              -35.2964604825163
            ],
            [
              149.071100209195,
              -35.2965676719857
            ],
            [
              149.071003977361,
              -35.2966822594452
            ],
            [
              149.070449500861,
              -35.2974091687107
            ],
            [
              149.07039024566,
              -35.297494990781
            ],
            [
              149.070340372297,
              -35.2975847324246
            ],
            [
              149.070300262968,
              -35.2976777059785
            ],
            [
              149.070270225054,
              -35.2977731990121
            ],
            [
              149.070250488765,
              -35.2978704797863
            ],
            [
              149.070241205373,
              -35.2979688028601
            ],
            [
              149.070242446052,
              -35.2980674148031
            ],
            [
              149.070254201334,
              -35.2981655599684
            ],
            [
              149.070276381178,
              -35.2982624862834
            ],
            [
              149.070308815658,
              -35.2983574510128
            ],
            [
              149.070351256267,
              -35.2984497264501
            ],
            [
              149.070403377817,
              -35.2985386054946
            ],
            [
              149.070464780934,
              -35.2986234070694
            ],
            [
              149.070534995114,
              -35.2987034813416
            ],
            [
              149.07061348233,
              -35.2987782147016
            ],
            [
              149.070699641151,
              -35.298847034466
            ],
            [
              149.070792811356,
              -35.2989094132662
            ],
            [
              149.070892278991,
              -35.2989648730899
            ],
            [
              149.072064207356,
              -35.299558511643
            ],
            [
              149.071936610522,
              -35.2997425269928
            ],
            [
              149.071848053702,
              -35.2999515740746
            ],
            [
              149.071784598972,
              -35.3002095463404
            ],
            [
              149.071709549558,
              -35.3004016434838
            ],
            [
              149.071572489479,
              -35.3005859306168
            ],
            [
              149.07122266085,
              -35.3011505674661
            ],
            [
              149.070948717772,
              -35.3019032557466
            ],
            [
              149.07083967552,
              -35.3025076938754
            ],
            [
              149.070798868092,
              -35.3027725041016
            ],
            [
              149.070775764757,
              -35.3033323763868
            ],
            [
              149.070886588545,
              -35.303773394762
            ],
            [
              149.071075043829,
              -35.3042295137636
            ],
            [
              149.071175687666,
              -35.3047251532612
            ],
            [
              149.071194783991,
              -35.3049696549503
            ],
            [
              149.071160760358,
              -35.3051915610114
            ],
            [
              149.071020277779,
              -35.3055138323055
            ],
            [
              149.07104117896,
              -35.3058191670405
            ],
            [
              149.070958656467,
              -35.3061689858742
            ],
            [
              149.070858610055,
              -35.3063177446071
            ],
            [
              149.070800901662,
              -35.3066259125771
            ],
            [
              149.070785681903,
              -35.3071446834989
            ],
            [
              149.070624119356,
              -35.3075125680967
            ],
            [
              149.070520109048,
              -35.3078027345289
            ],
            [
              149.070518096118,
              -35.3079046674951
            ],
            [
              149.069878553486,
              -35.3088124635
            ],
            [
              149.069672374171,
              -35.309073389569
            ],
            [
              149.069320387681,
              -35.3093146507515
            ],
            [
              149.06904824816,
              -35.309590749433
            ],
            [
              149.06887614159,
              -35.3098409328538
            ],
            [
              149.068524444376,
              -35.3100337933424
            ],
            [
              149.068262869921,
              -35.310179203673
            ],
            [
              149.068072932701,
              -35.3104091161135
            ],
            [
              149.067818602154,
              -35.3105393807563
            ],
            [
              149.067407835662,
              -35.3110116556227
            ],
            [
              149.067052466306,
              -35.3111560270865
            ],
            [
              149.066750364831,
              -35.3113746350183
            ],
            [
              149.066453571391,
              -35.3114818439784
            ],
            [
              149.065967537177,
              -35.3118853848129
            ],
            [
              149.064864095469,
              -35.3124221423519
            ],
            [
              149.064128476705,
              -35.3130235250934
            ],
            [
              149.06345392862,
              -35.3133803652987
            ],
            [
              149.063073304754,
              -35.3136030542985
            ],
            [
              149.062609181421,
              -35.3137615196455
            ],
            [
              149.061914511353,
              -35.3139680312647
            ],
            [
              149.060776747138,
              -35.3143931908375
            ],
            [
              149.060139682085,
              -35.3145962428437
            ],
            [
              149.059226929226,
              -35.3149368457376
            ],
            [
              149.058613047766,
              -35.3151252799458
            ],
            [
              149.058135328217,
              -35.3153783652707
            ],
            [
              149.05786568844,
              -35.3155192499688
            ],
            [
              149.057618410396,
              -35.3157300615998
            ],
            [
              149.057528554424,
              -35.3160652743136
            ],
            [
              149.057445122519,
              -35.316295668078
            ],
            [
              149.05673082579,
              -35.3168450843445
            ],
            [
              149.055987870224,
              -35.3170988962368
            ],
            [
              149.055373009153,
              -35.3171532062806
            ],
            [
              149.054780712022,
              -35.3172475214581
            ],
            [
              149.054160720833,
              -35.317374469147
            ],
            [
              149.05355646907,
              -35.3175324113004
            ],
            [
              149.052999978957,
              -35.3177658577781
            ],
            [
              149.051923507885,
              -35.3219252176271
            ],
            [
              149.052151673798,
              -35.3240520598723
            ],
            [
              149.050588143917,
              -35.3251281999744
            ],
            [
              149.051272221796,
              -35.3272169766154
            ],
            [
              149.051275084981,
              -35.3272257176658
            ],
            [
              149.050762893924,
              -35.3273176021308
            ],
            [
              149.050243463583,
              -35.3273761461364
            ],
            [
              149.04972002038,
              -35.3274009860162
            ],
            [
              149.049195815679,
              -35.3273919674555
            ],
            [
              149.048665314743,
              -35.3273481319869
            ],
            [
              149.048140801188,
              -35.3272696221352
            ],
            [
              149.047625644197,
              -35.3271569421824
            ],
            [
              149.047123152818,
              -35.3270108158996
            ],
            [
              149.046636554699,
              -35.3268321818955
            ],
            [
              149.04653259402,
              -35.3267889042517
            ],
            [
              149.046429574776,
              -35.3267441402147
            ],
            [
              149.046327528606,
              -35.3266979035332
            ],
            [
              149.045859998938,
              -35.3264602551851
            ],
            [
              149.045418028359,
              -35.3261917618358
            ],
            [
              149.045004639104,
              -35.3258942596015
            ],
            [
              149.044989491767,
              -35.3258823767076
            ],
            [
              149.044974389919,
              -35.3258704549923
            ],
            [
              149.044959333707,
              -35.3258584945727
            ],
            [
              149.044743702939,
              -35.3256864372071
            ],
            [
              149.044494381349,
              -35.325487496785
            ],
            [
              149.044257907636,
              -35.3252988067672
            ],
            [
              149.044009933241,
              -35.325100937833
            ],
            [
              149.043613145543,
              -35.3254349218275
            ],
            [
              149.0430735509,
              -35.3258891021072
            ],
            [
              149.042858741377,
              -35.3260699067844
            ],
            [
              149.042741678583,
              -35.3261684374673
            ],
            [
              149.042686071814,
              -35.3262142697363
            ],
            [
              149.042629303343,
              -35.3262591353117
            ],
            [
              149.042571398186,
              -35.3263030144218
            ],
            [
              149.042412448015,
              -35.3264145150132
            ],
            [
              149.042246172272,
              -35.32651859332
            ],
            [
              149.042073086325,
              -35.3266149267356
            ],
            [
              149.041979562681,
              -35.3266623520541
            ],
            [
              149.041737831908,
              -35.3267712902181
            ],
            [
              149.041487000709,
              -35.3268654021645
            ],
            [
              149.041228420762,
              -35.3269441807273
            ],
            [
              149.041123505286,
              -35.3269712164595
            ],
            [
              149.040833695175,
              -35.3270319095038
            ],
            [
              149.040538911557,
              -35.3270735148698
            ],
            [
              149.040241023231,
              -35.32709576879
            ],
            [
              149.039941918688,
              -35.3270985301763
            ],
            [
              149.039643494133,
              -35.3270817815155
            ],
            [
              149.03660172913,
              -35.3268109745856
            ],
            [
              149.036221938824,
              -35.3267771570314
            ],
            [
              149.034813310299,
              -35.326651716286
            ],
            [
              149.031845519999,
              -35.3263984651331
            ],
            [
              149.03054366247,
              -35.3261410305605
            ],
            [
              149.030394192278,
              -35.3261114724807
            ],
            [
              149.030395956822,
              -35.3261025494755
            ],
            [
              149.032211973367,
              -35.3169170964858
            ],
            [
              149.03206144662,
              -35.3163397894415
            ],
            [
              149.03172833748,
              -35.3158844285834
            ],
            [
              149.031371542504,
              -35.3157290348543
            ],
            [
              149.029930705061,
              -35.3145323153738
            ],
            [
              149.028562849602,
              -35.3142365050257
            ],
            [
              149.027596626171,
              -35.3139396932338
            ],
            [
              149.024946308346,
              -35.3128223830967
            ],
            [
              149.024340209179,
              -35.3122275791
            ],
            [
              149.022200964359,
              -35.3108631820547
            ],
            [
              149.020787194831,
              -35.3093838297076
            ],
            [
              149.019259847299,
              -35.3086144602938
            ],
            [
              149.018154593068,
              -35.307745383784
            ],
            [
              149.017360924671,
              -35.3073811092201
            ],
            [
              149.016797548139,
              -35.3071603565866
            ],
            [
              149.015566308468,
              -35.3068718708284
            ],
            [
              149.014634752583,
              -35.3066011730358
            ],
            [
              149.014348030029,
              -35.3057294245217
            ],
            [
              149.013466088582,
              -35.3047940999304
            ],
            [
              149.012098631805,
              -35.3025462071411
            ],
            [
              149.011298609411,
              -35.3018649834301
            ],
            [
              149.01054497685,
              -35.3009949440833
            ],
            [
              149.009562119415,
              -35.3006038979616
            ],
            [
              149.008779598026,
              -35.2999925783894
            ],
            [
              149.010824673177,
              -35.298247638436
            ],
            [
              149.012873125675,
              -35.2961208491995
            ],
            [
              149.015965663902,
              -35.2955079851653
            ],
            [
              149.019193365877,
              -35.2952335246491
            ],
            [
              149.019943305705,
              -35.2906956986457
            ],
            [
              149.021392440241,
              -35.2817263217779
            ],
            [
              149.021467922803,
              -35.2812792342803
            ],
            [
              149.021235484325,
              -35.2803240530527
            ],
            [
              149.02184356805,
              -35.2802213434282
            ],
            [
              149.021278278883,
              -35.279213984895
            ],
            [
              149.024122836975,
              -35.2779573158104
            ],
            [
              149.023903320226,
              -35.2768345347148
            ],
            [
              149.026979621756,
              -35.2733674663057
            ],
            [
              149.032630963889,
              -35.2673120872543
            ],
            [
              149.033999536277,
              -35.2658451252082
            ],
            [
              149.034057351177,
              -35.2659876972883
            ]
          ]
        ]
      },
      "properties": {
        "OBJECTID": 57,
        "DISTRICT_CODE": 21,
        "DISTRICT_NAME": "MOLONGLO VALLEY",
        "DISTRICT_SHORT": "MOLO",
        "ID": 88,
        "LAST_UPDATE_DATE": "Thu, 15 Sep 2011 13:56:53 GMT",
        "GlobalID": "bf643317-3e4f-4c24-8027-53cc1fb48a1a"
      }
    }
}