{
  "type": "FeatureCollection",
  "crs": {
    "type": "name",
    "properties": {
      "name": "EPSG:4326"
    }
  },
  "features": 
    {
      "type": "Feature",
      "id": 51,
      "geometry": {
        "type": "Polygon",
        "coordinates": [
          [
            [
              149.095920501542,
              -35.8175848684228
            ],
            [
              149.095800895566,
              -35.8182642361922
            ],
            [
              149.096045591102,
              -35.8197389142052
            ],
            [
              149.095405625617,
              -35.8201117990448
            ],
            [
              149.094511466924,
              -35.8212093573614
            ],
            [
              149.094983247768,
              -35.8219978418637
            ],
            [
              149.094317005344,
              -35.8229814031623
            ],
            [
              149.093571676314,
              -35.8241104100482
            ],
            [
              149.093375659375,
              -35.8256020319613
            ],
            [
              149.094253969057,
              -35.8270085982037
            ],
            [
              149.094704335273,
              -35.828626851774
            ],
            [
              149.094512956343,
              -35.8298076926494
            ],
            [
              149.094558113785,
              -35.8307629949869
            ],
            [
              149.093985764424,
              -35.8313204075475
            ],
            [
              149.09370709417,
              -35.8320759050152
            ],
            [
              149.093677440394,
              -35.833878566916
            ],
            [
              149.092259538228,
              -35.8348349706228
            ],
            [
              149.092045802202,
              -35.8353788290375
            ],
            [
              149.092612721248,
              -35.8372632163823
            ],
            [
              149.092968891654,
              -35.8377229712617
            ],
            [
              149.092987173863,
              -35.8382390123678
            ],
            [
              149.09340922972,
              -35.8382654579168
            ],
            [
              149.095384146362,
              -35.8391175726289
            ],
            [
              149.095035117861,
              -35.8400789283827
            ],
            [
              149.094610761134,
              -35.8414944160974
            ],
            [
              149.095814784971,
              -35.8433141467404
            ],
            [
              149.096018562407,
              -35.8442215783734
            ],
            [
              149.095687004128,
              -35.8456352225799
            ],
            [
              149.094858607568,
              -35.8468275177224
            ],
            [
              149.093315284135,
              -35.8464532074725
            ],
            [
              149.089006696926,
              -35.8481602602385
            ],
            [
              149.086572589341,
              -35.8481946393328
            ],
            [
              149.086206371013,
              -35.8488974150781
            ],
            [
              149.08527884534,
              -35.8497809199115
            ],
            [
              149.084203537362,
              -35.8502000966537
            ],
            [
              149.084531144438,
              -35.8522183126086
            ],
            [
              149.083780208568,
              -35.8528041889871
            ],
            [
              149.082193030131,
              -35.8531173256657
            ],
            [
              149.080812015236,
              -35.8561098021106
            ],
            [
              149.080866993363,
              -35.8570442892065
            ],
            [
              149.079756640319,
              -35.8589568984436
            ],
            [
              149.078083150722,
              -35.8599261646184
            ],
            [
              149.076828858061,
              -35.8605702338499
            ],
            [
              149.076147258774,
              -35.8621185364693
            ],
            [
              149.074803580503,
              -35.8637793989035
            ],
            [
              149.074718912433,
              -35.8647068481482
            ],
            [
              149.074316993877,
              -35.8657728355708
            ],
            [
              149.072825982026,
              -35.8663391042969
            ],
            [
              149.070392155591,
              -35.869286070445
            ],
            [
              149.069720114071,
              -35.8697255895063
            ],
            [
              149.067736654952,
              -35.8707495775241
            ],
            [
              149.066566759336,
              -35.8723982347154
            ],
            [
              149.06549469593,
              -35.8737881882129
            ],
            [
              149.064283339011,
              -35.8749458042371
            ],
            [
              149.064338230615,
              -35.8761120687495
            ],
            [
              149.063923878816,
              -35.876647838773
            ],
            [
              149.062923413154,
              -35.8777781485251
            ],
            [
              149.062455476015,
              -35.8784964134708
            ],
            [
              149.061710464034,
              -35.8798778891878
            ],
            [
              149.061517919179,
              -35.88007168504
            ],
            [
              149.061735225584,
              -35.8806809258858
            ],
            [
              149.061522763567,
              -35.8817066942793
            ],
            [
              149.061818408128,
              -35.8822938442136
            ],
            [
              149.061945696681,
              -35.8833382872208
            ],
            [
              149.062446600962,
              -35.8840715488531
            ],
            [
              149.062376238197,
              -35.8845141081691
            ],
            [
              149.06193935604,
              -35.8853970738149
            ],
            [
              149.061067879584,
              -35.8869598434333
            ],
            [
              149.060138881173,
              -35.8882913520112
            ],
            [
              149.060432294142,
              -35.8893359288706
            ],
            [
              149.061168695865,
              -35.8904735606376
            ],
            [
              149.061736759548,
              -35.8914463643854
            ],
            [
              149.061248668679,
              -35.8918259991285
            ],
            [
              149.061145230086,
              -35.8924127586629
            ],
            [
              149.060812842905,
              -35.8932809616623
            ],
            [
              149.05857717605,
              -35.8946639149534
            ],
            [
              149.058799270756,
              -35.8959458257218
            ],
            [
              149.058341638755,
              -35.8963640566974
            ],
            [
              149.056887518345,
              -35.8972257362263
            ],
            [
              149.056048605993,
              -35.8973552240838
            ],
            [
              149.054198070547,
              -35.8987604035119
            ],
            [
              149.053313149165,
              -35.8999931458331
            ],
            [
              149.052210450725,
              -35.9014395979917
            ],
            [
              149.051779888452,
              -35.9021005847342
            ],
            [
              149.051695630046,
              -35.9033706374189
            ],
            [
              149.052688601516,
              -35.9040760052661
            ],
            [
              149.054882794306,
              -35.9053597334293
            ],
            [
              149.057243785865,
              -35.907330567504
            ],
            [
              149.056842005296,
              -35.908230357276
            ],
            [
              149.056817330154,
              -35.9082703130174
            ],
            [
              149.056428056378,
              -35.9086914078138
            ],
            [
              149.055969361267,
              -35.9093447817361
            ],
            [
              149.055738371636,
              -35.9101994673374
            ],
            [
              149.055980424418,
              -35.91040987417
            ],
            [
              149.055838761403,
              -35.9108437245915
            ],
            [
              149.055478559619,
              -35.9117897186661
            ],
            [
              149.055422445415,
              -35.9123615584817
            ],
            [
              149.055126284352,
              -35.9128385637599
            ],
            [
              149.054951311973,
              -35.9134982856389
            ],
            [
              149.054869334718,
              -35.9139413432557
            ],
            [
              149.054313250841,
              -35.9146503547706
            ],
            [
              149.053905318605,
              -35.9148791842002
            ],
            [
              149.053219067992,
              -35.9155370863208
            ],
            [
              149.052627186326,
              -35.9156896417472
            ],
            [
              149.052639479266,
              -35.9160237430554
            ],
            [
              149.052088543435,
              -35.9166164114468
            ],
            [
              149.051356361862,
              -35.9171987955041
            ],
            [
              149.050737673482,
              -35.9180496022852
            ],
            [
              149.050207974525,
              -35.9185775340552
            ],
            [
              149.049906305802,
              -35.9195497638779
            ],
            [
              149.049543707487,
              -35.9199568149839
            ],
            [
              149.049042846823,
              -35.9202069609861
            ],
            [
              149.048448203944,
              -35.9202886824409
            ],
            [
              149.047517840465,
              -35.9203556396025
            ],
            [
              149.046380006155,
              -35.9205282453456
            ],
            [
              149.044901433825,
              -35.9193019085334
            ],
            [
              149.044537106532,
              -35.9181661618119
            ],
            [
              149.044171269282,
              -35.9171866637716
            ],
            [
              149.044066390936,
              -35.9162912980289
            ],
            [
              149.042675072585,
              -35.9155901318443
            ],
            [
              149.041489383097,
              -35.9143951797787
            ],
            [
              149.039964132876,
              -35.9138694052598
            ],
            [
              149.038748018334,
              -35.9142149214759
            ],
            [
              149.036888443163,
              -35.9138593956918
            ],
            [
              149.036313959987,
              -35.9137614319896
            ],
            [
              149.03531463617,
              -35.912830983482
            ],
            [
              149.034316360731,
              -35.9116944850051
            ],
            [
              149.034032152603,
              -35.9110273394934
            ],
            [
              149.032673345456,
              -35.9109524407481
            ],
            [
              149.031360461973,
              -35.911164762406
            ],
            [
              149.030378796544,
              -35.9115201528159
            ],
            [
              149.029728242439,
              -35.9118744346241
            ],
            [
              149.028534592439,
              -35.9122438747692
            ],
            [
              149.027768341969,
              -35.9127344045664
            ],
            [
              149.02728687782,
              -35.9124454578389
            ],
            [
              149.026595877803,
              -35.9120064434868
            ],
            [
              149.025789774052,
              -35.9112230372557
            ],
            [
              149.025511513214,
              -35.9107597988929
            ],
            [
              149.025092948668,
              -35.9103211022273
            ],
            [
              149.024450758656,
              -35.9088866124714
            ],
            [
              149.02405045619,
              -35.9080152269206
            ],
            [
              149.023932444285,
              -35.9070183354038
            ],
            [
              149.022881741436,
              -35.9059785856887
            ],
            [
              149.02148186673,
              -35.9053458594864
            ],
            [
              149.020861477285,
              -35.9051105237891
            ],
            [
              149.019306467118,
              -35.9043028948019
            ],
            [
              149.017676200625,
              -35.9033579084073
            ],
            [
              149.016414184233,
              -35.9018700906674
            ],
            [
              149.01534815082,
              -35.9016102529604
            ],
            [
              149.014054972817,
              -35.9001435289264
            ],
            [
              149.012394548592,
              -35.8996220341179
            ],
            [
              149.010929513331,
              -35.9007410099017
            ],
            [
              149.008819459652,
              -35.9013043473951
            ],
            [
              149.003486197607,
              -35.901201880139
            ],
            [
              148.999416681431,
              -35.9026756967324
            ],
            [
              148.997397730952,
              -35.9009943377853
            ],
            [
              148.997607100895,
              -35.8988406862861
            ],
            [
              148.997958304855,
              -35.8966959982436
            ],
            [
              148.997662332558,
              -35.896425034281
            ],
            [
              148.996956862576,
              -35.8961707202479
            ],
            [
              148.995320275453,
              -35.8958382607259
            ],
            [
              148.994697767101,
              -35.8956270231237
            ],
            [
              148.993249609218,
              -35.8951503406713
            ],
            [
              148.992003557284,
              -35.8951953831496
            ],
            [
              148.990817006584,
              -35.8958837851526
            ],
            [
              148.989611801606,
              -35.895800785644
            ],
            [
              148.987973016486,
              -35.8956359942473
            ],
            [
              148.986911606032,
              -35.8953871742537
            ],
            [
              148.986179645498,
              -35.8949957496929
            ],
            [
              148.984328619339,
              -35.8940562702365
            ],
            [
              148.983669786018,
              -35.893873626081
            ],
            [
              148.981645575499,
              -35.8937388104387
            ],
            [
              148.979967038875,
              -35.8932035299987
            ],
            [
              148.979176181131,
              -35.8929875412175
            ],
            [
              148.978618775651,
              -35.8928175829397
            ],
            [
              148.977244133677,
              -35.8923973927207
            ],
            [
              148.975655680218,
              -35.892174587239
            ],
            [
              148.972959743493,
              -35.8923752448594
            ],
            [
              148.97085074134,
              -35.8928367105168
            ],
            [
              148.970350962682,
              -35.8930076909482
            ],
            [
              148.969869977029,
              -35.8932859887008
            ],
            [
              148.967758731838,
              -35.8940041132724
            ],
            [
              148.967358872487,
              -35.8946564664351
            ],
            [
              148.967104119839,
              -35.895434648461
            ],
            [
              148.966354933619,
              -35.8967933599109
            ],
            [
              148.96629518047,
              -35.8971786930158
            ],
            [
              148.964246255457,
              -35.8969591103737
            ],
            [
              148.962173570841,
              -35.8966766860997
            ],
            [
              148.961599269489,
              -35.8967190046978
            ],
            [
              148.959179134855,
              -35.8954123531522
            ],
            [
              148.959539935397,
              -35.8942820636931
            ],
            [
              148.958502229343,
              -35.893003040568
            ],
            [
              148.958366774394,
              -35.8917149629706
            ],
            [
              148.956570355689,
              -35.8903547324519
            ],
            [
              148.955930674489,
              -35.8898287097604
            ],
            [
              148.954083546377,
              -35.8888494286758
            ],
            [
              148.952920161117,
              -35.888286506829
            ],
            [
              148.951807334562,
              -35.8873172133405
            ],
            [
              148.950971832959,
              -35.8864191804144
            ],
            [
              148.949752427582,
              -35.8856474803173
            ],
            [
              148.948345132068,
              -35.8843254620844
            ],
            [
              148.94708736898,
              -35.8835373251584
            ],
            [
              148.946364969912,
              -35.8829125379016
            ],
            [
              148.945678575349,
              -35.8824149969952
            ],
            [
              148.944555069954,
              -35.8814192275744
            ],
            [
              148.944314522621,
              -35.8808867466876
            ],
            [
              148.942933458729,
              -35.8796127968233
            ],
            [
              148.941935563841,
              -35.8783636132282
            ],
            [
              148.941065557506,
              -35.8772562319558
            ],
            [
              148.940549784569,
              -35.8758008708694
            ],
            [
              148.938524534644,
              -35.8750718877628
            ],
            [
              148.93723278611,
              -35.874671436549
            ],
            [
              148.936054971218,
              -35.874589138549
            ],
            [
              148.935618289738,
              -35.8741926933451
            ],
            [
              148.934175790399,
              -35.8740902162773
            ],
            [
              148.932897373873,
              -35.873587373086
            ],
            [
              148.932161031781,
              -35.872900709941
            ],
            [
              148.932206237036,
              -35.8714359637516
            ],
            [
              148.932210419713,
              -35.8705394323452
            ],
            [
              148.931220151185,
              -35.8691431808659
            ],
            [
              148.930346708182,
              -35.8681342186322
            ],
            [
              148.929018134113,
              -35.867756150057
            ],
            [
              148.928005248871,
              -35.8671567014791
            ],
            [
              148.927551908841,
              -35.8667844866954
            ],
            [
              148.926564652838,
              -35.8657865458405
            ],
            [
              148.926391872055,
              -35.8649962799153
            ],
            [
              148.925015111265,
              -35.863751501114
            ],
            [
              148.924409856713,
              -35.863416800466
            ],
            [
              148.92361080663,
              -35.8629278672927
            ],
            [
              148.922230142555,
              -35.862373229752
            ],
            [
              148.920823113672,
              -35.8612611349336
            ],
            [
              148.91981370808,
              -35.8607461081308
            ],
            [
              148.919458443373,
              -35.8597823522821
            ],
            [
              148.920466734249,
              -35.8587668921965
            ],
            [
              148.920045572962,
              -35.8572433291583
            ],
            [
              148.91819405211,
              -35.8565632755089
            ],
            [
              148.917728296527,
              -35.85628342158
            ],
            [
              148.916381485083,
              -35.855754614896
            ],
            [
              148.914724176347,
              -35.8556327115607
            ],
            [
              148.912957122127,
              -35.8555091617396
            ],
            [
              148.911983398945,
              -35.8547880121883
            ],
            [
              148.911696505332,
              -35.8545755312358
            ],
            [
              148.911357474467,
              -35.8541965200483
            ],
            [
              148.910619366758,
              -35.8532389835659
            ],
            [
              148.909446774609,
              -35.8530722190575
            ],
            [
              148.909051984027,
              -35.8525064434923
            ],
            [
              148.908709802525,
              -35.8517126522037
            ],
            [
              148.90786190422,
              -35.8507753211729
            ],
            [
              148.907972561198,
              -35.8498951659914
            ],
            [
              148.90767199627,
              -35.8489506775656
            ],
            [
              148.907959142087,
              -35.8483670422852
            ],
            [
              148.907907946592,
              -35.8478741164714
            ],
            [
              148.907354541803,
              -35.8469806210968
            ],
            [
              148.906469779556,
              -35.8462685022154
            ],
            [
              148.906504760536,
              -35.8458880575925
            ],
            [
              148.906074759873,
              -35.8449684955794
            ],
            [
              148.904896185986,
              -35.8441625216979
            ],
            [
              148.904832301065,
              -35.8433819238109
            ],
            [
              148.903989609413,
              -35.8425242328303
            ],
            [
              148.904215312132,
              -35.8413524419849
            ],
            [
              148.904817774981,
              -35.8405075009745
            ],
            [
              148.905156528402,
              -35.8399734162999
            ],
            [
              148.905312861294,
              -35.8396568122084
            ],
            [
              148.904565210779,
              -35.8390078222241
            ],
            [
              148.904389428086,
              -35.8385363585151
            ],
            [
              148.903926356438,
              -35.8377061554914
            ],
            [
              148.903685408364,
              -35.8373022727594
            ],
            [
              148.903311885271,
              -35.8363052172158
            ],
            [
              148.90314932808,
              -35.8352738478222
            ],
            [
              148.90322039908,
              -35.8342622115389
            ],
            [
              148.903790095434,
              -35.8333280900541
            ],
            [
              148.905091355679,
              -35.8332114662187
            ],
            [
              148.906597245394,
              -35.8320642650596
            ],
            [
              148.907064620644,
              -35.829577459619
            ],
            [
              148.906227906766,
              -35.8280153106709
            ],
            [
              148.90360716787,
              -35.8260943581466
            ],
            [
              148.901875182501,
              -35.8263504567862
            ],
            [
              148.899757279344,
              -35.8258739363165
            ],
            [
              148.897636244652,
              -35.8247033878969
            ],
            [
              148.8977044301,
              -35.8232685408315
            ],
            [
              148.897343768771,
              -35.8210473946409
            ],
            [
              148.896605272644,
              -35.8179038641381
            ],
            [
              148.895834668843,
              -35.8175810753769
            ],
            [
              148.894955831777,
              -35.817620038134
            ],
            [
              148.893730458511,
              -35.817237199532
            ],
            [
              148.892516948852,
              -35.8166083695504
            ],
            [
              148.892150272059,
              -35.8161327548757
            ],
            [
              148.891886293376,
              -35.8149467364076
            ],
            [
              148.89111066487,
              -35.8138497163041
            ],
            [
              148.88906221167,
              -35.81206493658
            ],
            [
              148.887752227799,
              -35.8112158154409
            ],
            [
              148.887415280527,
              -35.8107989607612
            ],
            [
              148.886680121408,
              -35.810062405779
            ],
            [
              148.886947863171,
              -35.8094918839086
            ],
            [
              148.887434012594,
              -35.8088263459096
            ],
            [
              148.889152822177,
              -35.8076253089407
            ],
            [
              148.889428464887,
              -35.8072129488885
            ],
            [
              148.889816733893,
              -35.8061198499092
            ],
            [
              148.890253248746,
              -35.804526346066
            ],
            [
              148.890761799043,
              -35.8035845989014
            ],
            [
              148.891992416995,
              -35.8025539701572
            ],
            [
              148.892957679078,
              -35.801512432694
            ],
            [
              148.893219918583,
              -35.8003499683545
            ],
            [
              148.893154871638,
              -35.7993191368177
            ],
            [
              148.894549951576,
              -35.7985304421927
            ],
            [
              148.895199802545,
              -35.797923370187
            ],
            [
              148.895853575751,
              -35.7972178007216
            ],
            [
              148.896350672165,
              -35.7967096711357
            ],
            [
              148.897181694764,
              -35.7956475962343
            ],
            [
              148.897778236814,
              -35.7946579957116
            ],
            [
              148.897052869192,
              -35.7935124898905
            ],
            [
              148.896985472557,
              -35.7931150902727
            ],
            [
              148.896568947204,
              -35.7916274228235
            ],
            [
              148.896368299659,
              -35.7902812633231
            ],
            [
              148.896345727033,
              -35.7897289515586
            ],
            [
              148.896158113795,
              -35.7884402876919
            ],
            [
              148.89543878161,
              -35.7867103901364
            ],
            [
              148.895324807271,
              -35.785519381983
            ],
            [
              148.894995467868,
              -35.7846613748365
            ],
            [
              148.895160481445,
              -35.7830630468197
            ],
            [
              148.895429448354,
              -35.7817863382756
            ],
            [
              148.894841501929,
              -35.7805258811763
            ],
            [
              148.895499411494,
              -35.7792813137356
            ],
            [
              148.894701171803,
              -35.7776692510142
            ],
            [
              148.895054163891,
              -35.7770227740573
            ],
            [
              148.895260696162,
              -35.7753054853548
            ],
            [
              148.894810467602,
              -35.7732705142623
            ],
            [
              148.894864009956,
              -35.7718769875119
            ],
            [
              148.895093488272,
              -35.7707880260771
            ],
            [
              148.896051682667,
              -35.7699629241862
            ],
            [
              148.897065926306,
              -35.7689514942168
            ],
            [
              148.898387401697,
              -35.7682120912771
            ],
            [
              148.899334491776,
              -35.7676830146155
            ],
            [
              148.900113149897,
              -35.7665063804058
            ],
            [
              148.900451998886,
              -35.7655785539915
            ],
            [
              148.901798923765,
              -35.7638108763887
            ],
            [
              148.902300300461,
              -35.7632909508721
            ],
            [
              148.902148293282,
              -35.7626680934173
            ],
            [
              148.901807892679,
              -35.7617447983364
            ],
            [
              148.902275906283,
              -35.7603795634062
            ],
            [
              148.902757101874,
              -35.7594392547702
            ],
            [
              148.903061757277,
              -35.7585679596153
            ],
            [
              148.903320758977,
              -35.7579361636543
            ],
            [
              148.903215993427,
              -35.7573931823834
            ],
            [
              148.903096487653,
              -35.7570812966987
            ],
            [
              148.903106551022,
              -35.7570891064408
            ],
            [
              148.903450902951,
              -35.75729163726
            ],
            [
              148.90466778082,
              -35.7581904657917
            ],
            [
              148.905912250263,
              -35.7586365489867
            ],
            [
              148.907159992011,
              -35.7595613329561
            ],
            [
              148.90802705772,
              -35.7602441762563
            ],
            [
              148.90870895617,
              -35.7614416153999
            ],
            [
              148.909138178154,
              -35.7620586563994
            ],
            [
              148.90951223083,
              -35.763561787498
            ],
            [
              148.909853022743,
              -35.7644378437739
            ],
            [
              148.910806592847,
              -35.7652423977759
            ],
            [
              148.911039261794,
              -35.7658519704785
            ],
            [
              148.910175251344,
              -35.7666454776847
            ],
            [
              148.909150808911,
              -35.7675030084538
            ],
            [
              148.909377440276,
              -35.7681605229156
            ],
            [
              148.909173974933,
              -35.7688694070588
            ],
            [
              148.909523169786,
              -35.7707346119524
            ],
            [
              148.91004909324,
              -35.772002475314
            ],
            [
              148.910819957111,
              -35.773322085322
            ],
            [
              148.911415624347,
              -35.7742626882321
            ],
            [
              148.91241126584,
              -35.7755009135336
            ],
            [
              148.913975562079,
              -35.7774988302954
            ],
            [
              148.915630330528,
              -35.7793672966252
            ],
            [
              148.9173368921,
              -35.781464950387
            ],
            [
              148.917854218232,
              -35.7827517866815
            ],
            [
              148.917730625568,
              -35.7840539031111
            ],
            [
              148.918402769363,
              -35.7852839898619
            ],
            [
              148.918532903662,
              -35.7860017007124
            ],
            [
              148.91795089808,
              -35.7868894664948
            ],
            [
              148.916903865816,
              -35.787999915358
            ],
            [
              148.91814609912,
              -35.7892236798962
            ],
            [
              148.919299026684,
              -35.7899336002934
            ],
            [
              148.920067227897,
              -35.7905920374849
            ],
            [
              148.920723045733,
              -35.7916643896755
            ],
            [
              148.921492355829,
              -35.7925470323258
            ],
            [
              148.922678250522,
              -35.7932220676026
            ],
            [
              148.923413850538,
              -35.794011130843
            ],
            [
              148.924323652559,
              -35.7948278887664
            ],
            [
              148.926011360343,
              -35.7953884343583
            ],
            [
              148.926365225201,
              -35.7964430630373
            ],
            [
              148.926691224817,
              -35.7976029293833
            ],
            [
              148.927022754427,
              -35.7983438386461
            ],
            [
              148.925320909391,
              -35.7993762266098
            ],
            [
              148.926603583422,
              -35.8000873376402
            ],
            [
              148.927938633214,
              -35.8004442158904
            ],
            [
              148.929250289894,
              -35.8008646876446
            ],
            [
              148.93025012149,
              -35.8010568506641
            ],
            [
              148.93073346381,
              -35.8016952940191
            ],
            [
              148.930910597046,
              -35.8024569090292
            ],
            [
              148.931442627681,
              -35.802982282742
            ],
            [
              148.932168410083,
              -35.803582577688
            ],
            [
              148.932599697322,
              -35.8044305045158
            ],
            [
              148.933365051108,
              -35.8052048350076
            ],
            [
              148.934036733322,
              -35.8054925550535
            ],
            [
              148.935547328234,
              -35.8054101326837
            ],
            [
              148.937094801274,
              -35.8055248014814
            ],
            [
              148.938449020253,
              -35.8057543278249
            ],
            [
              148.940639950985,
              -35.8059640435288
            ],
            [
              148.941879966545,
              -35.8067768898611
            ],
            [
              148.943133612276,
              -35.8071938424813
            ],
            [
              148.944807508426,
              -35.8071277051095
            ],
            [
              148.945522989674,
              -35.8068087090228
            ],
            [
              148.947693539835,
              -35.80639647057
            ],
            [
              148.949297521142,
              -35.8064445945922
            ],
            [
              148.951275153306,
              -35.8064213247548
            ],
            [
              148.954616142915,
              -35.8067788589562
            ],
            [
              148.956139470882,
              -35.8071822807638
            ],
            [
              148.9571398378,
              -35.8072835619486
            ],
            [
              148.958121019773,
              -35.8076325609443
            ],
            [
              148.958876491607,
              -35.8075033805268
            ],
            [
              148.960255317974,
              -35.8070944549978
            ],
            [
              148.960595943995,
              -35.8064447073398
            ],
            [
              148.974178223011,
              -35.8078080009472
            ],
            [
              148.981163560957,
              -35.8089503474796
            ],
            [
              148.985143157686,
              -35.8107606862327
            ],
            [
              148.985527399783,
              -35.8109446676586
            ],
            [
              148.986378072809,
              -35.8114359982658
            ],
            [
              148.987576377483,
              -35.8118044478277
            ],
            [
              148.988843559826,
              -35.8122740364115
            ],
            [
              148.989653990033,
              -35.812658689823
            ],
            [
              148.991026846134,
              -35.8130450844178
            ],
            [
              148.991038138182,
              -35.8130633941599
            ],
            [
              148.992326868612,
              -35.8134084099865
            ],
            [
              148.995788371313,
              -35.8148445711326
            ],
            [
              149.000350236005,
              -35.8165633428411
            ],
            [
              149.003895767499,
              -35.8188239906123
            ],
            [
              149.007011101049,
              -35.8210520087171
            ],
            [
              149.008115111566,
              -35.8219295117618
            ],
            [
              149.009001379702,
              -35.8231856805617
            ],
            [
              149.009947923381,
              -35.8239020511279
            ],
            [
              149.012029272784,
              -35.8251200806728
            ],
            [
              149.014678104277,
              -35.8262525684378
            ],
            [
              149.017093178734,
              -35.8272617951446
            ],
            [
              149.017946973152,
              -35.8275540231815
            ],
            [
              149.019273228139,
              -35.8282999141137
            ],
            [
              149.021310177376,
              -35.8295778904232
            ],
            [
              149.022266706952,
              -35.8284437611536
            ],
            [
              149.022519380326,
              -35.8278802568069
            ],
            [
              149.022639005306,
              -35.8273195895614
            ],
            [
              149.022169367821,
              -35.8255048238497
            ],
            [
              149.02199768687,
              -35.8246445613573
            ],
            [
              149.021881222894,
              -35.8236666099002
            ],
            [
              149.022030142939,
              -35.8227211964604
            ],
            [
              149.022400231795,
              -35.8214230062163
            ],
            [
              149.022507496796,
              -35.8210070065912
            ],
            [
              149.022784401841,
              -35.8202023686415
            ],
            [
              149.023641708822,
              -35.8192564970863
            ],
            [
              149.023647941966,
              -35.818453149587
            ],
            [
              149.027449153779,
              -35.8195949554404
            ],
            [
              149.02819435643,
              -35.819680628737
            ],
            [
              149.030070045915,
              -35.8199990165718
            ],
            [
              149.032078996171,
              -35.8258281998285
            ],
            [
              149.033610931214,
              -35.8299268502268
            ],
            [
              149.033807869859,
              -35.831705535553
            ],
            [
              149.034697600953,
              -35.8343464640901
            ],
            [
              149.034227618229,
              -35.836486490496
            ],
            [
              149.033299290553,
              -35.8407286409227
            ],
            [
              149.033377383258,
              -35.8416743999446
            ],
            [
              149.033496512552,
              -35.8431568185456
            ],
            [
              149.033682264171,
              -35.8439428666107
            ],
            [
              149.033849603433,
              -35.8442212297145
            ],
            [
              149.034332025777,
              -35.845518822715
            ],
            [
              149.034391345367,
              -35.8461662401312
            ],
            [
              149.033907493112,
              -35.8471653050076
            ],
            [
              149.033837743298,
              -35.8487470708852
            ],
            [
              149.033498246917,
              -35.8493437210427
            ],
            [
              149.033131115724,
              -35.850579130411
            ],
            [
              149.033341243145,
              -35.8510883044943
            ],
            [
              149.041048648428,
              -35.8522102516917
            ],
            [
              149.043445683539,
              -35.8526229167823
            ],
            [
              149.044764194683,
              -35.8530713884832
            ],
            [
              149.044950272939,
              -35.8530854108079
            ],
            [
              149.044987843822,
              -35.8529956417568
            ],
            [
              149.045225739049,
              -35.8527792887296
            ],
            [
              149.045545827371,
              -35.852205776116
            ],
            [
              149.045931133623,
              -35.8516869433715
            ],
            [
              149.046652386282,
              -35.8514113229117
            ],
            [
              149.046978701396,
              -35.8509318860057
            ],
            [
              149.047697889874,
              -35.8502968718633
            ],
            [
              149.047972405472,
              -35.8496181094986
            ],
            [
              149.048388095581,
              -35.8490440168377
            ],
            [
              149.048507263859,
              -35.8487297383397
            ],
            [
              149.048232613925,
              -35.8484374868282
            ],
            [
              149.047693380446,
              -35.8480552012489
            ],
            [
              149.047317337152,
              -35.8477427927928
            ],
            [
              149.046897792064,
              -35.8476550598444
            ],
            [
              149.046823309248,
              -35.8479119184066
            ],
            [
              149.046221860242,
              -35.8479644622333
            ],
            [
              149.045529352748,
              -35.8478593251747
            ],
            [
              149.045362476766,
              -35.8477044635217
            ],
            [
              149.045444061021,
              -35.8472324943131
            ],
            [
              149.045323303975,
              -35.8467476078014
            ],
            [
              149.04536426908,
              -35.8465273484942
            ],
            [
              149.046068899662,
              -35.8463051754339
            ],
            [
              149.046779293505,
              -35.8461056162546
            ],
            [
              149.046646178131,
              -35.8459524580712
            ],
            [
              149.046822289012,
              -35.845272015901
            ],
            [
              149.046643870194,
              -35.8445674426893
            ],
            [
              149.046392784144,
              -35.843965985552
            ],
            [
              149.046005332137,
              -35.843583105025
            ],
            [
              149.045388063538,
              -35.8433399740403
            ],
            [
              149.045150076764,
              -35.8430409444822
            ],
            [
              149.045061410292,
              -35.8427689060793
            ],
            [
              149.045573673599,
              -35.842361602057
            ],
            [
              149.046195005309,
              -35.8418330536738
            ],
            [
              149.046618724022,
              -35.8412083182038
            ],
            [
              149.047267309582,
              -35.8405395324393
            ],
            [
              149.047804169711,
              -35.8400110922792
            ],
            [
              149.048272785579,
              -35.8393564180115
            ],
            [
              149.048570456498,
              -35.8388128214968
            ],
            [
              149.048995948256,
              -35.8384860056056
            ],
            [
              149.049137699179,
              -35.8382201114834
            ],
            [
              149.049515478373,
              -35.8378797919753
            ],
            [
              149.049545017854,
              -35.8376392581389
            ],
            [
              149.050065655171,
              -35.8372685189434
            ],
            [
              149.050453623204,
              -35.8367428208805
            ],
            [
              149.050999208262,
              -35.836268974766
            ],
            [
              149.05174673177,
              -35.8357415251554
            ],
            [
              149.052362210254,
              -35.8352034842221
            ],
            [
              149.052844011262,
              -35.8348997036883
            ],
            [
              149.053073996928,
              -35.8343239485555
            ],
            [
              149.053621465586,
              -35.8337126600291
            ],
            [
              149.05402344765,
              -35.8331870357489
            ],
            [
              149.054031810069,
              -35.8327059839969
            ],
            [
              149.053878269906,
              -35.8324249632868
            ],
            [
              149.053559859518,
              -35.8321722749527
            ],
            [
              149.054022206309,
              -35.8322351047061
            ],
            [
              149.060607619216,
              -35.8331298016744
            ],
            [
              149.061173488024,
              -35.8315457612605
            ],
            [
              149.061220126059,
              -35.8311551221268
            ],
            [
              149.061402749664,
              -35.8307107255426
            ],
            [
              149.061844184213,
              -35.8299834610072
            ],
            [
              149.062013935104,
              -35.8291546521197
            ],
            [
              149.061355195702,
              -35.8290651761963
            ],
            [
              149.06343054574,
              -35.818931288398
            ],
            [
              149.064100454966,
              -35.8190444649398
            ],
            [
              149.06447919785,
              -35.818880367141
            ],
            [
              149.064727120314,
              -35.8185085169017
            ],
            [
              149.065027184949,
              -35.8183377844877
            ],
            [
              149.065476818347,
              -35.818292516623
            ],
            [
              149.065909146846,
              -35.8181835417938
            ],
            [
              149.066284009124,
              -35.8178656994893
            ],
            [
              149.066791211749,
              -35.8175641934661
            ],
            [
              149.067358363702,
              -35.8173920663554
            ],
            [
              149.067939202076,
              -35.817177213697
            ],
            [
              149.068551280933,
              -35.8170192076215
            ],
            [
              149.069211796149,
              -35.8169777870864
            ],
            [
              149.069724388652,
              -35.8170946835239
            ],
            [
              149.07029912831,
              -35.8173078835567
            ],
            [
              149.070625035735,
              -35.8172401290433
            ],
            [
              149.071236614919,
              -35.8170156028924
            ],
            [
              149.071903716323,
              -35.8166260380477
            ],
            [
              149.072160461125,
              -35.8162699384002
            ],
            [
              149.072421842147,
              -35.8157629779791
            ],
            [
              149.073007004394,
              -35.8153142421989
            ],
            [
              149.073651474034,
              -35.8148790806844
            ],
            [
              149.073938186921,
              -35.8146599632066
            ],
            [
              149.095920501542,
              -35.8175848684228
            ]
          ]
        ]
      },
      "properties": {
        "OBJECTID": 51,
        "DISTRICT_CODE": 13,
        "DISTRICT_NAME": "MOUNT CLEAR",
        "DISTRICT_SHORT": "MOUN",
        "ID": 11,
        "LAST_UPDATE_DATE": "Mon, 17 May 1993 00:00:00 GMT",
        "GlobalID": "fab2d0d2-0a6b-4d14-8aa3-21bef000c8e2"
      }
    }
}