{
  "type": "FeatureCollection",
  "crs": {
    "type": "name",
    "properties": {
      "name": "EPSG:4326"
    }
  },
  "features":
    {
      "type": "Feature",
      "id": 48,
      "geometry": {
        "type": "Polygon",
        "coordinates": [
          [
            [
              149.024118382459,
              -35.3493889152991
            ],
            [
              149.024047093809,
              -35.3494484402293
            ],
            [
              149.023970008941,
              -35.3495029007517
            ],
            [
              149.023887662092,
              -35.3495519194187
            ],
            [
              149.023800623973,
              -35.3495951564973
            ],
            [
              149.02370949781,
              -35.3496323123244
            ],
            [
              149.023614915165,
              -35.3496631293835
            ],
            [
              149.023517531559,
              -35.3496873940899
            ],
            [
              149.023418021927,
              -35.3497049382712
            ],
            [
              149.023317075943,
              -35.3497156403327
            ],
            [
              149.023378794021,
              -35.3498454268073
            ],
            [
              149.023786766778,
              -35.3507041400354
            ],
            [
              149.02415586011,
              -35.3507042801704
            ],
            [
              149.024870591045,
              -35.3507076727015
            ],
            [
              149.025540686021,
              -35.35053052947
            ],
            [
              149.026492424152,
              -35.3499741471677
            ],
            [
              149.026589798416,
              -35.3500859519544
            ],
            [
              149.026541482564,
              -35.3505393029322
            ],
            [
              149.026540906654,
              -35.3505514192117
            ],
            [
              149.026541621116,
              -35.350563530538
            ],
            [
              149.026543620519,
              -35.3505755448441
            ],
            [
              149.026546889664,
              -35.3505873708007
            ],
            [
              149.026551403702,
              -35.3505989185101
            ],
            [
              149.026557128318,
              -35.3506101001896
            ],
            [
              149.026564019996,
              -35.3506208308392
            ],
            [
              149.026572026347,
              -35.3506310288872
            ],
            [
              149.027169060409,
              -35.3513165223461
            ],
            [
              149.027155304383,
              -35.3513245637792
            ],
            [
              149.027080474466,
              -35.3513721219589
            ],
            [
              149.027010583872,
              -35.3514244820806
            ],
            [
              149.026946090411,
              -35.3514813011725
            ],
            [
              149.026887416545,
              -35.3515422070547
            ],
            [
              149.026408629402,
              -35.3520822968694
            ],
            [
              149.026355607876,
              -35.3521479738105
            ],
            [
              149.026309741578,
              -35.3522171719388
            ],
            [
              149.026271376445,
              -35.352289369371
            ],
            [
              149.026240801842,
              -35.352364021602
            ],
            [
              149.026218248384,
              -35.352440565611
            ],
            [
              149.026203886189,
              -35.3525184241084
            ],
            [
              149.026197823601,
              -35.3525970098886
            ],
            [
              149.026200106367,
              -35.3526757302596
            ],
            [
              149.026210717296,
              -35.3527539915123
            ],
            [
              149.026229576383,
              -35.3528312033987
            ],
            [
              149.026256541416,
              -35.3529067835836
            ],
            [
              149.026291409044,
              -35.3529801620366
            ],
            [
              149.026333916314,
              -35.3530507853313
            ],
            [
              149.02638374265,
              -35.3531181208197
            ],
            [
              149.026440512273,
              -35.3531816606498
            ],
            [
              149.026503797035,
              -35.3532409255955
            ],
            [
              149.026573119645,
              -35.353295468672
            ],
            [
              149.026647957271,
              -35.3533448785063
            ],
            [
              149.026727745482,
              -35.353388782441
            ],
            [
              149.026811882508,
              -35.3534268493445
            ],
            [
              149.026899733774,
              -35.3534587921092
            ],
            [
              149.026990636691,
              -35.3534843698163
            ],
            [
              149.027083905651,
              -35.353503389554
            ],
            [
              149.027178837199,
              -35.3535157078718
            ],
            [
              149.028971647532,
              -35.3536827752448
            ],
            [
              149.031296711483,
              -35.3544745784583
            ],
            [
              149.03157969189,
              -35.3547708463723
            ],
            [
              149.031845206591,
              -35.354972004025
            ],
            [
              149.03145365615,
              -35.3561143723804
            ],
            [
              149.031399347262,
              -35.3562760757166
            ],
            [
              149.032884757225,
              -35.3581833881063
            ],
            [
              149.032283084959,
              -35.3587732723388
            ],
            [
              149.033051221874,
              -35.3607877825212
            ],
            [
              149.034456691602,
              -35.3753221889871
            ],
            [
              149.014199632909,
              -35.3881076427823
            ],
            [
              149.014113183867,
              -35.3877544520004
            ],
            [
              149.013955887164,
              -35.3872542682448
            ],
            [
              149.013751020526,
              -35.3862173048256
            ],
            [
              149.013609112941,
              -35.3852748782491
            ],
            [
              149.013333292968,
              -35.3846519484598
            ],
            [
              149.013212973337,
              -35.3839349216434
            ],
            [
              149.01316518704,
              -35.3834200428034
            ],
            [
              149.012545564738,
              -35.3822248303524
            ],
            [
              149.012176781646,
              -35.3818186485581
            ],
            [
              149.011684969274,
              -35.3813821860429
            ],
            [
              149.0113003464,
              -35.3809095801547
            ],
            [
              149.010962603512,
              -35.3803159346033
            ],
            [
              149.010668778059,
              -35.3799435438683
            ],
            [
              149.010232556505,
              -35.3794348848041
            ],
            [
              149.009670122665,
              -35.3791093577457
            ],
            [
              149.009348355937,
              -35.3788615159082
            ],
            [
              149.009236773197,
              -35.3786046614477
            ],
            [
              149.008965408832,
              -35.3784209865582
            ],
            [
              149.008761393237,
              -35.3780909497013
            ],
            [
              149.008644312363,
              -35.3777146791261
            ],
            [
              149.008619334915,
              -35.3774234869119
            ],
            [
              149.008479586064,
              -35.3771761844808
            ],
            [
              149.008681292199,
              -35.3769356436234
            ],
            [
              149.008941870209,
              -35.3765227834555
            ],
            [
              149.009037386578,
              -35.3760553083953
            ],
            [
              149.008894776659,
              -35.3758603682364
            ],
            [
              149.008909083455,
              -35.3754981575421
            ],
            [
              149.008713438312,
              -35.375147842423
            ],
            [
              149.008481260998,
              -35.374876926777
            ],
            [
              149.008028246855,
              -35.3742944477986
            ],
            [
              149.007740289393,
              -35.3738821239102
            ],
            [
              149.007147312525,
              -35.3735723559849
            ],
            [
              149.006627073155,
              -35.3732974657402
            ],
            [
              149.006034099092,
              -35.3731503677613
            ],
            [
              149.005482825501,
              -35.3730906884602
            ],
            [
              149.004834070237,
              -35.3728929328491
            ],
            [
              149.004132059254,
              -35.3727278858618
            ],
            [
              149.0035390853,
              -35.3726934311668
            ],
            [
              149.002644202698,
              -35.3723560486426
            ],
            [
              149.001726980484,
              -35.3721171638553
            ],
            [
              149.001081098591,
              -35.3719684154102
            ],
            [
              149.000555375577,
              -35.3718094886609
            ],
            [
              148.99990376244,
              -35.3717728489927
            ],
            [
              148.999048028983,
              -35.3718065759179
            ],
            [
              148.998225860302,
              -35.3718037092247
            ],
            [
              148.997585698882,
              -35.3717185702658
            ],
            [
              148.996744294144,
              -35.3716013237047
            ],
            [
              148.995653511413,
              -35.3717493698383
            ],
            [
              148.99470551469,
              -35.3720832604453
            ],
            [
              148.994067721454,
              -35.3722819960443
            ],
            [
              148.993486298886,
              -35.3722994055247
            ],
            [
              148.992773116522,
              -35.3725533706994
            ],
            [
              148.992305868163,
              -35.3727566270381
            ],
            [
              148.991587204726,
              -35.3728844096878
            ],
            [
              148.990611118421,
              -35.3732199766815
            ],
            [
              148.98990612233,
              -35.3736795007609
            ],
            [
              148.988993650792,
              -35.3743332938567
            ],
            [
              148.988282787373,
              -35.374858688321
            ],
            [
              148.987560463208,
              -35.3754077795217
            ],
            [
              148.986726818608,
              -35.3757844370329
            ],
            [
              148.985761681864,
              -35.3761194257416
            ],
            [
              148.985280676611,
              -35.3761993614232
            ],
            [
              148.984599276853,
              -35.3759603033264
            ],
            [
              148.983912309275,
              -35.3755929931156
            ],
            [
              148.983192046282,
              -35.3750999485341
            ],
            [
              148.982782570742,
              -35.3745061183209
            ],
            [
              148.982652652063,
              -35.3737299368455
            ],
            [
              148.98276878053,
              -35.3729362353168
            ],
            [
              148.982806665081,
              -35.3721645960164
            ],
            [
              148.982570569783,
              -35.3713883007679
            ],
            [
              148.982379011377,
              -35.3706994362026
            ],
            [
              148.982295954967,
              -35.3703169284205
            ],
            [
              148.982208370064,
              -35.3699902072444
            ],
            [
              148.981896195879,
              -35.3693885541001
            ],
            [
              148.981608631913,
              -35.368908034241
            ],
            [
              148.980865216354,
              -35.3675047097915
            ],
            [
              148.980293129672,
              -35.3664270431564
            ],
            [
              148.979581465342,
              -35.3652755263748
            ],
            [
              148.978918171747,
              -35.363986577713
            ],
            [
              148.978401820145,
              -35.3628727755928
            ],
            [
              148.977941942597,
              -35.361708425237
            ],
            [
              148.977501560883,
              -35.3605209155982
            ],
            [
              148.977284949326,
              -35.3593733902179
            ],
            [
              148.977019546133,
              -35.3583775297434
            ],
            [
              148.9766148318,
              -35.3577566410115
            ],
            [
              148.976307176474,
              -35.3568124998918
            ],
            [
              148.976303368946,
              -35.3556268164698
            ],
            [
              148.976506005173,
              -35.3545521333102
            ],
            [
              148.97690229035,
              -35.3533794448662
            ],
            [
              148.977275881536,
              -35.3522592023875
            ],
            [
              148.977316590344,
              -35.3511286864119
            ],
            [
              148.977225633173,
              -35.349974521875
            ],
            [
              148.976835767575,
              -35.3491818585579
            ],
            [
              148.97640142497,
              -35.348769419664
            ],
            [
              148.975760684219,
              -35.34871859325
            ],
            [
              148.974846826936,
              -35.3488844358988
            ],
            [
              148.973912641786,
              -35.3487383428488
            ],
            [
              148.972587725221,
              -35.3483706878589
            ],
            [
              148.971380887998,
              -35.3479230249785
            ],
            [
              148.970641327172,
              -35.3475138934925
            ],
            [
              148.969410529819,
              -35.346850443229
            ],
            [
              148.968390569678,
              -35.3465042919913
            ],
            [
              148.966467648442,
              -35.3459347558466
            ],
            [
              148.96464430301,
              -35.3455628703984
            ],
            [
              148.963048398561,
              -35.3450856884476
            ],
            [
              148.961878849835,
              -35.3444363342932
            ],
            [
              148.960847931056,
              -35.3435741497939
            ],
            [
              148.960273394151,
              -35.3427205244166
            ],
            [
              148.959863541307,
              -35.3414844717551
            ],
            [
              148.95969670446,
              -35.3403708186863
            ],
            [
              148.959410698872,
              -35.3395252372234
            ],
            [
              148.959360100817,
              -35.3386374839608
            ],
            [
              148.959018113526,
              -35.3378053967764
            ],
            [
              148.958588768843,
              -35.337030141515
            ],
            [
              148.957873185094,
              -35.3363572352299
            ],
            [
              148.95717205665,
              -35.335631427226
            ],
            [
              148.956707096759,
              -35.3352093496578
            ],
            [
              148.95598392586,
              -35.3344171030754
            ],
            [
              148.955193174619,
              -35.3332270085698
            ],
            [
              148.954637196318,
              -35.3326116542092
            ],
            [
              148.954336192469,
              -35.3319452220259
            ],
            [
              148.953618632422,
              -35.3307439741982
            ],
            [
              148.953120881893,
              -35.3297799447053
            ],
            [
              148.952373692406,
              -35.328854099467
            ],
            [
              148.951698412177,
              -35.327662413264
            ],
            [
              148.951236979177,
              -35.3267193014053
            ],
            [
              148.950928852747,
              -35.3259328097136
            ],
            [
              148.950686052481,
              -35.3249976422387
            ],
            [
              148.950402279324,
              -35.3243102990286
            ],
            [
              148.950340399063,
              -35.3239632860422
            ],
            [
              148.950304457803,
              -35.3234856044356
            ],
            [
              148.950389242283,
              -35.3225776330018
            ],
            [
              148.950484872249,
              -35.3217242835852
            ],
            [
              148.950681440084,
              -35.3208806254335
            ],
            [
              148.951004476193,
              -35.3203220043635
            ],
            [
              148.951262910539,
              -35.3198325677941
            ],
            [
              148.951559770141,
              -35.3194255232986
            ],
            [
              148.951900288956,
              -35.3191631506452
            ],
            [
              148.952496858092,
              -35.3191268420143
            ],
            [
              148.953401316362,
              -35.3190945485703
            ],
            [
              148.954658531844,
              -35.3190619569766
            ],
            [
              148.956327244251,
              -35.3189984409661
            ],
            [
              148.957365475343,
              -35.3190399895969
            ],
            [
              148.95847388874,
              -35.3190428041324
            ],
            [
              148.959216314371,
              -35.3189225266713
            ],
            [
              148.959937257571,
              -35.3186850726433
            ],
            [
              148.960639103496,
              -35.3183806436963
            ],
            [
              148.961212677132,
              -35.3179798154578
            ],
            [
              148.961472639594,
              -35.3172054708414
            ],
            [
              148.961409417576,
              -35.3166387373489
            ],
            [
              148.96122162222,
              -35.3162455357127
            ],
            [
              148.961136390723,
              -35.3160838164252
            ],
            [
              148.961031286724,
              -35.3156872227047
            ],
            [
              148.960617722428,
              -35.3151631576735
            ],
            [
              148.960081411669,
              -35.3147055529242
            ],
            [
              148.959636412536,
              -35.3140001392003
            ],
            [
              148.959466046947,
              -35.3133584658367
            ],
            [
              148.959474292843,
              -35.3126426028409
            ],
            [
              148.959920795753,
              -35.3115866056495
            ],
            [
              148.960424505352,
              -35.3108212842494
            ],
            [
              148.961078127264,
              -35.3097693315371
            ],
            [
              148.961711298625,
              -35.3092513609629
            ],
            [
              148.962432472105,
              -35.3090247068245
            ],
            [
              148.963866319056,
              -35.3086105867885
            ],
            [
              148.965168366631,
              -35.3081188044072
            ],
            [
              148.966047497332,
              -35.3075090625475
            ],
            [
              148.9670953294,
              -35.3063665501642
            ],
            [
              148.968095333197,
              -35.3051693073225
            ],
            [
              148.968626573903,
              -35.3043009467948
            ],
            [
              148.96908898898,
              -35.3029694958343
            ],
            [
              148.969200578099,
              -35.3020795414782
            ],
            [
              148.969133391814,
              -35.3012193597609
            ],
            [
              148.968942664666,
              -35.3003050621392
            ],
            [
              148.968793665543,
              -35.2992753262599
            ],
            [
              148.968373637062,
              -35.2983362550734
            ],
            [
              148.96788769392,
              -35.2977615375989
            ],
            [
              148.967088265122,
              -35.2971191155751
            ],
            [
              148.9662558788,
              -35.2966664805133
            ],
            [
              148.96513508415,
              -35.2961393811567
            ],
            [
              148.964378336131,
              -35.2957144295743
            ],
            [
              148.963484695661,
              -35.2953563850594
            ],
            [
              148.962170053751,
              -35.2945858442503
            ],
            [
              148.960340499715,
              -35.2936928714408
            ],
            [
              148.958513807884,
              -35.2928573725621
            ],
            [
              148.956896703655,
              -35.2919706554786
            ],
            [
              148.95625178822,
              -35.2914419663813
            ],
            [
              148.955861003881,
              -35.2907793697035
            ],
            [
              148.955792604752,
              -35.2903186159685
            ],
            [
              148.955925052426,
              -35.2896646314317
            ],
            [
              148.955869726542,
              -35.288882765681
            ],
            [
              148.955720896433,
              -35.287710522843
            ],
            [
              148.954913229005,
              -35.2858749290668
            ],
            [
              148.95436957792,
              -35.2844147332798
            ],
            [
              148.954324312408,
              -35.2830869781128
            ],
            [
              148.954713088077,
              -35.2819234485695
            ],
            [
              148.954901606072,
              -35.2812374040288
            ],
            [
              148.954675455888,
              -35.2801873351929
            ],
            [
              148.953612251535,
              -35.2788203591612
            ],
            [
              148.952487585158,
              -35.2773839487857
            ],
            [
              148.951180215769,
              -35.2752946560028
            ],
            [
              148.949930041267,
              -35.2736842175035
            ],
            [
              148.948425707059,
              -35.2720927431809
            ],
            [
              148.947417563843,
              -35.2709983714065
            ],
            [
              148.946913212655,
              -35.2703272128752
            ],
            [
              148.945927462924,
              -35.2690373564322
            ],
            [
              148.94511756208,
              -35.2676213177478
            ],
            [
              148.94460188516,
              -35.2664573336181
            ],
            [
              148.944220417428,
              -35.2654054467917
            ],
            [
              148.944031587367,
              -35.2639503478698
            ],
            [
              148.943994252863,
              -35.2630958409185
            ],
            [
              148.944144500676,
              -35.2625044236744
            ],
            [
              148.94422784781,
              -35.2621626191622
            ],
            [
              148.944243476467,
              -35.2617198372328
            ],
            [
              148.9443886076,
              -35.2607882804267
            ],
            [
              148.944480525435,
              -35.2605804090675
            ],
            [
              148.944505038809,
              -35.2601546655738
            ],
            [
              148.944431597074,
              -35.2595168925307
            ],
            [
              148.944428668004,
              -35.2590561653682
            ],
            [
              148.944604028874,
              -35.256995161756
            ],
            [
              148.944778355314,
              -35.2552569880926
            ],
            [
              148.945151370942,
              -35.2537402699381
            ],
            [
              148.945919287049,
              -35.2525983239318
            ],
            [
              148.946853121585,
              -35.2518405763859
            ],
            [
              148.94773425955,
              -35.2512952227449
            ],
            [
              148.948242655588,
              -35.2508206044763
            ],
            [
              148.948928839927,
              -35.2504592723732
            ],
            [
              148.950214987776,
              -35.2496741853658
            ],
            [
              148.951434389733,
              -35.2486253432508
            ],
            [
              148.952106058142,
              -35.2476111991722
            ],
            [
              148.952560680921,
              -35.2465079053213
            ],
            [
              148.952627441465,
              -35.2456145129739
            ],
            [
              148.9524223189,
              -35.2449982217978
            ],
            [
              148.952310346379,
              -35.2445621369766
            ],
            [
              148.951953554562,
              -35.2435734606702
            ],
            [
              148.951874457137,
              -35.2424823517529
            ],
            [
              148.952069003392,
              -35.2409389367207
            ],
            [
              148.952389745303,
              -35.2405217124437
            ],
            [
              148.953070609792,
              -35.2394387990883
            ],
            [
              148.953543108314,
              -35.2389360214834
            ],
            [
              148.954273883865,
              -35.2385662972298
            ],
            [
              148.955729820305,
              -35.2383168494484
            ],
            [
              148.956909229997,
              -35.2382688787578
            ],
            [
              148.958004691557,
              -35.2382524943252
            ],
            [
              148.959134095499,
              -35.238415196641
            ],
            [
              148.960381483893,
              -35.238764948341
            ],
            [
              148.961689340879,
              -35.2394239348943
            ],
            [
              148.962636944886,
              -35.2396124892642
            ],
            [
              148.96372733782,
              -35.2402403664218
            ],
            [
              148.964796606617,
              -35.2407579109941
            ],
            [
              148.965959547387,
              -35.2411593970501
            ],
            [
              148.96704084993,
              -35.2416126657612
            ],
            [
              148.968681366162,
              -35.2417934814565
            ],
            [
              148.969607630104,
              -35.241904193948
            ],
            [
              148.968575443583,
              -35.2422716566828
            ],
            [
              148.967270633125,
              -35.2427494214915
            ],
            [
              148.966302486094,
              -35.2430943556461
            ],
            [
              148.965120479438,
              -35.2433552960523
            ],
            [
              148.964081303906,
              -35.2435779749296
            ],
            [
              148.963195467409,
              -35.243836844109
            ],
            [
              148.962623436875,
              -35.2440089469499
            ],
            [
              148.962290394894,
              -35.2442949693544
            ],
            [
              148.961905425459,
              -35.244702100642
            ],
            [
              148.961647965099,
              -35.2449841856138
            ],
            [
              148.961615450697,
              -35.2453502659733
            ],
            [
              148.961817247464,
              -35.2457621337048
            ],
            [
              148.962321071044,
              -35.2461538403817
            ],
            [
              148.963302107593,
              -35.2468126810736
            ],
            [
              148.964550895672,
              -35.2472807259136
            ],
            [
              148.966170355168,
              -35.2478028773998
            ],
            [
              148.967258386854,
              -35.2481621441318
            ],
            [
              148.968160144523,
              -35.248423730906
            ],
            [
              148.968737445814,
              -35.2485157645323
            ],
            [
              148.96919055601,
              -35.2486978818537
            ],
            [
              148.969549541405,
              -35.2490427338869
            ],
            [
              148.970055257925,
              -35.2497295725466
            ],
            [
              148.970906834624,
              -35.2509167205805
            ],
            [
              148.971258407355,
              -35.2516434314469
            ],
            [
              148.971520767096,
              -35.2521409205301
            ],
            [
              148.97207662217,
              -35.2528254235048
            ],
            [
              148.972615436695,
              -35.2533111886904
            ],
            [
              148.972825891923,
              -35.2536909549419
            ],
            [
              148.9728622714,
              -35.2541567392976
            ],
            [
              148.972698728973,
              -35.2545104356146
            ],
            [
              148.97243956672,
              -35.2546844805113
            ],
            [
              148.972458443822,
              -35.254973431961
            ],
            [
              148.972525366832,
              -35.2554392249588
            ],
            [
              148.972792208068,
              -35.2557874638558
            ],
            [
              148.973479152674,
              -35.256040564265
            ],
            [
              148.97437379791,
              -35.2559721501725
            ],
            [
              148.975615645895,
              -35.2553844285242
            ],
            [
              148.976566889575,
              -35.2552635598588
            ],
            [
              148.977329994998,
              -35.2552124830057
            ],
            [
              148.977855016477,
              -35.2556869558018
            ],
            [
              148.978362553144,
              -35.2562154069918
            ],
            [
              148.978326137296,
              -35.256913876783
            ],
            [
              148.978104983803,
              -35.2574072615003
            ],
            [
              148.978002899259,
              -35.257995308912
            ],
            [
              148.978176908263,
              -35.2583863223932
            ],
            [
              148.979026160866,
              -35.2592933885466
            ],
            [
              148.979580691082,
              -35.2594011375459
            ],
            [
              148.980151440995,
              -35.2593252096149
            ],
            [
              148.980729264179,
              -35.2591310355404
            ],
            [
              148.981199923498,
              -35.2590156943852
            ],
            [
              148.98161043183,
              -35.259032642966
            ],
            [
              148.981841524837,
              -35.2593165935688
            ],
            [
              148.981926823383,
              -35.259875936707
            ],
            [
              148.982147986062,
              -35.2602929105344
            ],
            [
              148.982482371853,
              -35.2605819302489
            ],
            [
              148.98326297646,
              -35.2609341342207
            ],
            [
              148.984202431893,
              -35.2610841227341
            ],
            [
              148.985197706966,
              -35.2612477247979
            ],
            [
              148.985823094745,
              -35.2614911888656
            ],
            [
              148.986591279127,
              -35.2619352083114
            ],
            [
              148.987074906906,
              -35.2622428988453
            ],
            [
              148.987397253792,
              -35.2624479946751
            ],
            [
              148.987750057141,
              -35.2625938828363
            ],
            [
              148.988121279471,
              -35.2624824620422
            ],
            [
              148.988511644857,
              -35.2622746988316
            ],
            [
              148.988774550378,
              -35.2620375319314
            ],
            [
              148.989028884697,
              -35.2617897277257
            ],
            [
              148.989381240586,
              -35.2615205792077
            ],
            [
              148.990019810087,
              -35.2613809874595
            ],
            [
              148.990595160762,
              -35.2613838717348
            ],
            [
              148.991219388744,
              -35.2614825647528
            ],
            [
              148.991597690392,
              -35.2616166392619
            ],
            [
              148.991985300407,
              -35.2619034772159
            ],
            [
              148.992192815089,
              -35.262175507736
            ],
            [
              148.992331100042,
              -35.2624616781895
            ],
            [
              148.992630204057,
              -35.2624769513421
            ],
            [
              148.993066024058,
              -35.2624043688112
            ],
            [
              148.993865864573,
              -35.2624793685746
            ],
            [
              148.994269326963,
              -35.2626754447235
            ],
            [
              148.994650804256,
              -35.2629238790977
            ],
            [
              148.994994745247,
              -35.2629363577688
            ],
            [
              148.995478040226,
              -35.2628428633135
            ],
            [
              148.995596868132,
              -35.2625927771393
            ],
            [
              148.995839412072,
              -35.262436254878
            ],
            [
              148.996106582735,
              -35.2621917717936
            ],
            [
              148.996085631216,
              -35.2619709600002
            ],
            [
              148.99606087173,
              -35.2615102324019
            ],
            [
              148.996024052358,
              -35.2608888976231
            ],
            [
              148.996167092758,
              -35.2603836657399
            ],
            [
              148.996114571567,
              -35.2596936524808
            ],
            [
              148.996243763951,
              -35.2591883289527
            ],
            [
              148.996505483256,
              -35.2585974893387
            ],
            [
              148.99658419849,
              -35.2583366717526
            ],
            [
              148.996814523885,
              -35.2582195312914
            ],
            [
              148.997193820702,
              -35.2582731058136
            ],
            [
              148.99788461043,
              -35.2584371122732
            ],
            [
              148.998660879262,
              -35.2586866531416
            ],
            [
              148.998955450883,
              -35.2588196153101
            ],
            [
              148.999154533855,
              -35.2589773529406
            ],
            [
              148.999690390738,
              -35.2592382230137
            ],
            [
              149.000609916531,
              -35.2598669233004
            ],
            [
              149.000782514654,
              -35.2601232555471
            ],
            [
              149.001332315913,
              -35.2606110561299
            ],
            [
              149.001832664365,
              -35.2612453969726
            ],
            [
              149.002172799795,
              -35.2619681403217
            ],
            [
              149.002275408756,
              -35.2622368130029
            ],
            [
              149.002376130924,
              -35.2627359380889
            ],
            [
              149.002603428967,
              -35.2633972071246
            ],
            [
              149.002754804537,
              -35.2639903356276
            ],
            [
              149.002976288279,
              -35.2646127597742
            ],
            [
              149.003270628906,
              -35.2652881805354
            ],
            [
              149.003483659455,
              -35.2659039334457
            ],
            [
              149.00365988626,
              -35.2664187421627
            ],
            [
              149.003618089803,
              -35.2669600386544
            ],
            [
              149.003691996422,
              -35.2676867295955
            ],
            [
              149.003597011861,
              -35.2682190093816
            ],
            [
              149.003608183799,
              -35.2687394884377
            ],
            [
              149.003965421666,
              -35.26914164845
            ],
            [
              149.004344538295,
              -35.2694452990991
            ],
            [
              149.004589802038,
              -35.2698092385049
            ],
            [
              149.005109363694,
              -35.270254211114
            ],
            [
              149.00568233973,
              -35.2707043194836
            ],
            [
              149.006272136278,
              -35.2711769570737
            ],
            [
              149.006536211063,
              -35.2713938076044
            ],
            [
              149.006736106383,
              -35.2716546365409
            ],
            [
              149.007034140711,
              -35.2719402527461
            ],
            [
              149.007399105664,
              -35.2721796335546
            ],
            [
              149.007852436623,
              -35.2722263261437
            ],
            [
              149.008515014988,
              -35.2721481031014
            ],
            [
              149.009160668293,
              -35.2720450016855
            ],
            [
              149.009667079449,
              -35.2720382417413
            ],
            [
              149.01023151512,
              -35.2719238684116
            ],
            [
              149.010631763239,
              -35.2718732144155
            ],
            [
              149.01121444238,
              -35.2718517573023
            ],
            [
              149.012010870891,
              -35.271789825238
            ],
            [
              149.012781805145,
              -35.271820719525
            ],
            [
              149.013501644171,
              -35.2719536331928
            ],
            [
              149.014184544998,
              -35.2718612286863
            ],
            [
              149.015094383165,
              -35.2717536684186
            ],
            [
              149.015779473238,
              -35.2715851881981
            ],
            [
              149.016200377938,
              -35.2715468612693
            ],
            [
              149.016574375389,
              -35.2717338511549
            ],
            [
              149.017262814269,
              -35.2721393758607
            ],
            [
              149.017956418895,
              -35.2724761301341
            ],
            [
              149.018267284093,
              -35.2731340280605
            ],
            [
              149.018365079182,
              -35.2739829181206
            ],
            [
              149.018320880395,
              -35.27480982795
            ],
            [
              149.018284357411,
              -35.2754925357141
            ],
            [
              149.018179040021,
              -35.2762242764063
            ],
            [
              149.017959400858,
              -35.2767718078142
            ],
            [
              149.017719773681,
              -35.2775096864822
            ],
            [
              149.017562998439,
              -35.2781029073019
            ],
            [
              149.017590081147,
              -35.2785574104204
            ],
            [
              149.01769577367,
              -35.2792570517255
            ],
            [
              149.018262628085,
              -35.2797927201356
            ],
            [
              149.018799234424,
              -35.2800708979728
            ],
            [
              149.019504660757,
              -35.2803085933091
            ],
            [
              149.020008605366,
              -35.2803839853586
            ],
            [
              149.021044498367,
              -35.2803563118376
            ],
            [
              149.021235484325,
              -35.2803240530527
            ],
            [
              149.021467922803,
              -35.2812792342803
            ],
            [
              149.021392440241,
              -35.2817263217779
            ],
            [
              149.019943305705,
              -35.2906956986457
            ],
            [
              149.019193365877,
              -35.2952335246491
            ],
            [
              149.015965663902,
              -35.2955079851653
            ],
            [
              149.012873125675,
              -35.2961208491995
            ],
            [
              149.010824673177,
              -35.298247638436
            ],
            [
              149.008779598026,
              -35.2999925783894
            ],
            [
              149.009562119415,
              -35.3006038979616
            ],
            [
              149.01054497685,
              -35.3009949440833
            ],
            [
              149.011298609411,
              -35.3018649834301
            ],
            [
              149.012098631805,
              -35.3025462071411
            ],
            [
              149.013466088582,
              -35.3047940999304
            ],
            [
              149.014348030029,
              -35.3057294245217
            ],
            [
              149.014634752583,
              -35.3066011730358
            ],
            [
              149.015566308468,
              -35.3068718708284
            ],
            [
              149.016797548139,
              -35.3071603565866
            ],
            [
              149.017360924671,
              -35.3073811092201
            ],
            [
              149.018154593068,
              -35.307745383784
            ],
            [
              149.019259847299,
              -35.3086144602938
            ],
            [
              149.020787194831,
              -35.3093838297076
            ],
            [
              149.022200964382,
              -35.3108631829558
            ],
            [
              149.024340209179,
              -35.3122275791
            ],
            [
              149.024946308346,
              -35.3128223830967
            ],
            [
              149.027596626171,
              -35.3139396932338
            ],
            [
              149.028562849602,
              -35.3142365050257
            ],
            [
              149.029930705061,
              -35.3145323153738
            ],
            [
              149.031371542504,
              -35.3157290348543
            ],
            [
              149.03172833748,
              -35.3158844285834
            ],
            [
              149.03206144662,
              -35.3163397894415
            ],
            [
              149.032211973367,
              -35.3169170964858
            ],
            [
              149.030395956822,
              -35.3261025494755
            ],
            [
              149.030394192278,
              -35.3261114724807
            ],
            [
              149.028298396632,
              -35.3256970057953
            ],
            [
              149.026065540175,
              -35.3253060702778
            ],
            [
              149.022436789664,
              -35.3371905004568
            ],
            [
              149.025799883709,
              -35.3478637451554
            ],
            [
              149.024118382459,
              -35.3493889152991
            ]
          ]
        ]
      },
      "properties": {
        "OBJECTID": 48,
        "DISTRICT_CODE": 10,
        "DISTRICT_NAME": "STROMLO",
        "DISTRICT_SHORT": "STRO",
        "ID": 93,
        "LAST_UPDATE_DATE": "Mon, 19 Jun 2023 11:10:24 GMT",
        "GlobalID": "1ad88966-0bee-457a-8771-973d6401d539"
      }
    }
}