{
  "type": "FeatureCollection",
  "crs": {
    "type": "name",
    "properties": {
      "name": "EPSG:4326"
    }
  },
  "features": 
    {
      "type": "Feature",
      "id": 55,
      "geometry": {
        "type": "Polygon",
        "coordinates": [
          [
            [
              148.955900269755,
              -35.5103026517522
            ],
            [
              148.955163964411,
              -35.5137715576879
            ],
            [
              148.959635416944,
              -35.5144114128691
            ],
            [
              148.960446090195,
              -35.5106236962026
            ],
            [
              148.98959843455,
              -35.5144417617473
            ],
            [
              148.99065434035,
              -35.5091471537602
            ],
            [
              148.991011467015,
              -35.5073622573464
            ],
            [
              148.994295264687,
              -35.5078009533672
            ],
            [
              148.993580802212,
              -35.5113778862165
            ],
            [
              148.998263804554,
              -35.512003152345
            ],
            [
              148.998409646713,
              -35.511272810142
            ],
            [
              148.998642146416,
              -35.5112340206519
            ],
            [
              149.000969955525,
              -35.5131832481814
            ],
            [
              149.002873456362,
              -35.5134393124068
            ],
            [
              149.003680820604,
              -35.5094194733033
            ],
            [
              149.005326081632,
              -35.5096407725497
            ],
            [
              149.005636440801,
              -35.5080980511468
            ],
            [
              149.008458725908,
              -35.5084776142527
            ],
            [
              149.010723928701,
              -35.5110985961941
            ],
            [
              149.0128752904,
              -35.5127307129878
            ],
            [
              149.015321438443,
              -35.5134550380474
            ],
            [
              149.017270096804,
              -35.5158976298558
            ],
            [
              149.021733741985,
              -35.519307283491
            ],
            [
              149.022920749303,
              -35.52010050114
            ],
            [
              149.030144398963,
              -35.521080056837
            ],
            [
              149.030162369774,
              -35.5209906059013
            ],
            [
              149.039565353222,
              -35.5222577286838
            ],
            [
              149.046134411466,
              -35.5231408954614
            ],
            [
              149.050396393234,
              -35.5237458327848
            ],
            [
              149.04958826852,
              -35.527703628624
            ],
            [
              149.058456733442,
              -35.5289112569861
            ],
            [
              149.057503613902,
              -35.5335909567159
            ],
            [
              149.070653191219,
              -35.5354140377943
            ],
            [
              149.070593380678,
              -35.5352787400739
            ],
            [
              149.070692969408,
              -35.5348792677457
            ],
            [
              149.070639975561,
              -35.5342068029602
            ],
            [
              149.070831410879,
              -35.5336721015678
            ],
            [
              149.071569126757,
              -35.533681366146
            ],
            [
              149.072484853028,
              -35.5339079082417
            ],
            [
              149.073280777357,
              -35.5339068575026
            ],
            [
              149.074043816691,
              -35.5337324248032
            ],
            [
              149.074551738828,
              -35.5334375420727
            ],
            [
              149.074791484942,
              -35.5330978318045
            ],
            [
              149.075004462707,
              -35.5327890479394
            ],
            [
              149.074802274134,
              -35.5325361846269
            ],
            [
              149.07520250529,
              -35.5322847960892
            ],
            [
              149.075396510785,
              -35.5317005177006
            ],
            [
              149.075492319873,
              -35.5310291454736
            ],
            [
              149.075571554279,
              -35.5304494352309
            ],
            [
              149.075557938987,
              -35.5297121533544
            ],
            [
              149.075155194586,
              -35.5291631687193
            ],
            [
              149.07477214865,
              -35.5285640634342
            ],
            [
              149.074398677654,
              -35.5283474316825
            ],
            [
              149.073946117156,
              -35.5279364470249
            ],
            [
              149.073406347007,
              -35.5273741013908
            ],
            [
              149.073166380312,
              -35.5268638660342
            ],
            [
              149.072985877528,
              -35.526543486352
            ],
            [
              149.072993233036,
              -35.5262252609375
            ],
            [
              149.073361942713,
              -35.525878635654
            ],
            [
              149.073985128806,
              -35.5254423815493
            ],
            [
              149.074263655431,
              -35.5249606182677
            ],
            [
              149.074272375938,
              -35.5242914558629
            ],
            [
              149.074135544825,
              -35.5235773096543
            ],
            [
              149.073993271062,
              -35.5229481520818
            ],
            [
              149.074030374658,
              -35.5223387250114
            ],
            [
              149.074042347513,
              -35.5217366111271
            ],
            [
              149.074155674121,
              -35.5213281154478
            ],
            [
              149.074456714467,
              -35.520897077896
            ],
            [
              149.074917930374,
              -35.5206096085255
            ],
            [
              149.075633570677,
              -35.5201934826014
            ],
            [
              149.076215282801,
              -35.5199267601815
            ],
            [
              149.076269489581,
              -35.5208223664141
            ],
            [
              149.076393359475,
              -35.521971898484
            ],
            [
              149.076683522677,
              -35.5238400627841
            ],
            [
              149.076714935376,
              -35.524888798974
            ],
            [
              149.076538323153,
              -35.5259417058448
            ],
            [
              149.076581838327,
              -35.5265657790074
            ],
            [
              149.076779603208,
              -35.5272083301139
            ],
            [
              149.077431888057,
              -35.5279509323359
            ],
            [
              149.078306241769,
              -35.528585797398
            ],
            [
              149.078735374676,
              -35.5287742669315
            ],
            [
              149.079144803766,
              -35.5289953717029
            ],
            [
              149.079694237777,
              -35.5293290452741
            ],
            [
              149.080272230717,
              -35.5295387814854
            ],
            [
              149.080892481558,
              -35.5296567459822
            ],
            [
              149.082452425826,
              -35.5301869010822
            ],
            [
              149.083989784886,
              -35.5308315051964
            ],
            [
              149.08536762272,
              -35.5313454231236
            ],
            [
              149.086223849435,
              -35.5314817756036
            ],
            [
              149.087268310967,
              -35.5316529690326
            ],
            [
              149.088202997972,
              -35.5319683300527
            ],
            [
              149.08868837237,
              -35.532352652749
            ],
            [
              149.088921937293,
              -35.5327394835194
            ],
            [
              149.089637495023,
              -35.5341961954092
            ],
            [
              149.090408725961,
              -35.5351830573006
            ],
            [
              149.091526106963,
              -35.5360942476595
            ],
            [
              149.092732513599,
              -35.5364939224737
            ],
            [
              149.09451391504,
              -35.5367765628315
            ],
            [
              149.095903479084,
              -35.5370667580082
            ],
            [
              149.097725711849,
              -35.5372597396873
            ],
            [
              149.099397892166,
              -35.5373543031369
            ],
            [
              149.10032268752,
              -35.5375974795703
            ],
            [
              149.101027335974,
              -35.5381635435198
            ],
            [
              149.101702367008,
              -35.5391420242718
            ],
            [
              149.1023161848,
              -35.5402827684092
            ],
            [
              149.103017832446,
              -35.5417438256976
            ],
            [
              149.103251934016,
              -35.5432656241484
            ],
            [
              149.103301794274,
              -35.5449846625012
            ],
            [
              149.103038365871,
              -35.5468847289134
            ],
            [
              149.102718019001,
              -35.54849644817
            ],
            [
              149.102471300623,
              -35.5494193067978
            ],
            [
              149.10185804559,
              -35.5504634814147
            ],
            [
              149.101715748635,
              -35.5516790644061
            ],
            [
              149.101965119001,
              -35.5527609666403
            ],
            [
              149.102903214644,
              -35.5538512576714
            ],
            [
              149.103628250383,
              -35.5548319396197
            ],
            [
              149.104076325637,
              -35.5558605999584
            ],
            [
              149.104281448385,
              -35.5572584981987
            ],
            [
              149.10410878007,
              -35.5586983295248
            ],
            [
              149.104209515773,
              -35.5597644816462
            ],
            [
              149.104652772169,
              -35.5601392191984
            ],
            [
              149.105335979868,
              -35.5601060526884
            ],
            [
              149.106355832686,
              -35.5601981525177
            ],
            [
              149.107507602708,
              -35.5604777692622
            ],
            [
              149.108458125535,
              -35.5608673089641
            ],
            [
              149.109454530967,
              -35.5616945246912
            ],
            [
              149.109895879666,
              -35.5623688986565
            ],
            [
              149.110121875748,
              -35.5630778780987
            ],
            [
              149.110461665616,
              -35.5634961182542
            ],
            [
              149.110738114704,
              -35.5653749238333
            ],
            [
              149.110480377595,
              -35.5665382506223
            ],
            [
              149.11041258974,
              -35.5674535832256
            ],
            [
              149.110715548249,
              -35.5688265117846
            ],
            [
              149.110973719779,
              -35.5701877619717
            ],
            [
              149.11106372675,
              -35.5715840305078
            ],
            [
              149.110906832405,
              -35.5727765611681
            ],
            [
              149.1107512683,
              -35.5745898480549
            ],
            [
              149.110676651006,
              -35.5763917102435
            ],
            [
              149.110792364763,
              -35.5780510201165
            ],
            [
              149.110663936163,
              -35.5796102302702
            ],
            [
              149.110615547441,
              -35.5806061130361
            ],
            [
              149.110070925542,
              -35.5814147780198
            ],
            [
              149.109702738666,
              -35.5822577203401
            ],
            [
              149.108917193062,
              -35.5832751215964
            ],
            [
              149.108668852726,
              -35.5838065022952
            ],
            [
              149.108574459269,
              -35.5840098051493
            ],
            [
              149.094947526116,
              -35.5822031236103
            ],
            [
              149.084614780996,
              -35.5808145037572
            ],
            [
              149.082923193651,
              -35.5845938011082
            ],
            [
              149.078148244284,
              -35.5864168007552
            ],
            [
              149.077997148934,
              -35.5880107478358
            ],
            [
              149.078309663823,
              -35.5890247452727
            ],
            [
              149.078725701227,
              -35.5925555758578
            ],
            [
              149.079120786594,
              -35.5930435310419
            ],
            [
              149.079121476874,
              -35.5933930458922
            ],
            [
              149.066124108106,
              -35.5912852179754
            ],
            [
              149.065936959613,
              -35.5914904864011
            ],
            [
              149.06605939409,
              -35.5917528621808
            ],
            [
              149.066129254673,
              -35.5920935780469
            ],
            [
              149.065889517448,
              -35.5925910702764
            ],
            [
              149.065879069691,
              -35.5934241571142
            ],
            [
              149.065714784795,
              -35.5939035887029
            ],
            [
              149.065887642887,
              -35.5941608945342
            ],
            [
              149.066161155371,
              -35.5947685435358
            ],
            [
              149.066267579206,
              -35.5954747735798
            ],
            [
              149.066336749397,
              -35.5960808064315
            ],
            [
              149.066596125831,
              -35.5966563781903
            ],
            [
              149.066510301663,
              -35.5971509145478
            ],
            [
              149.06662981116,
              -35.5977844994125
            ],
            [
              149.066839011465,
              -35.5983921777386
            ],
            [
              149.067066637075,
              -35.5988370874986
            ],
            [
              149.067451801263,
              -35.5993866420537
            ],
            [
              149.067505397468,
              -35.5998027961299
            ],
            [
              149.067497054836,
              -35.6001667088003
            ],
            [
              149.067823239557,
              -35.6003254349905
            ],
            [
              149.067637488357,
              -35.6005756110311
            ],
            [
              149.06713756132,
              -35.6007954771027
            ],
            [
              149.066507895724,
              -35.6009061757496
            ],
            [
              149.065736841787,
              -35.600811912297
            ],
            [
              149.064965194924,
              -35.6006557297587
            ],
            [
              149.064191169963,
              -35.600565963196
            ],
            [
              149.063372373794,
              -35.600846790633
            ],
            [
              149.06263143844,
              -35.6010701704165
            ],
            [
              149.061780864852,
              -35.6012023001414
            ],
            [
              149.06097894146,
              -35.6014904932702
            ],
            [
              149.059871102547,
              -35.6017337490082
            ],
            [
              149.058998487859,
              -35.6019306665641
            ],
            [
              149.057900788956,
              -35.602356935795
            ],
            [
              149.057129511399,
              -35.6026355383686
            ],
            [
              149.056445546776,
              -35.6029703374613
            ],
            [
              149.05562669744,
              -35.6032466957518
            ],
            [
              149.054686606448,
              -35.6033980055533
            ],
            [
              149.053346454309,
              -35.6032717916432
            ],
            [
              149.0526793848,
              -35.6028472922685
            ],
            [
              149.052190809114,
              -35.6023169233732
            ],
            [
              149.052078250518,
              -35.6018961875643
            ],
            [
              149.051870748045,
              -35.6015723025319
            ],
            [
              149.051792569788,
              -35.6014106616759
            ],
            [
              149.051736633082,
              -35.6012809252451
            ],
            [
              149.051690495434,
              -35.6011525543751
            ],
            [
              149.051649155593,
              -35.6009757516075
            ],
            [
              149.051607854367,
              -35.6008312747525
            ],
            [
              149.051573405752,
              -35.6006862457606
            ],
            [
              149.051526732218,
              -35.6004822184296
            ],
            [
              149.051482539569,
              -35.6003140046572
            ],
            [
              149.051420250977,
              -35.6001060180226
            ],
            [
              149.051316999716,
              -35.5999349408255
            ],
            [
              149.051149901445,
              -35.5997368132242
            ],
            [
              149.050973066015,
              -35.5995293614162
            ],
            [
              149.05085530054,
              -35.5993881458911
            ],
            [
              149.05071084309,
              -35.5992052221335
            ],
            [
              149.05061390843,
              -35.5990800503145
            ],
            [
              149.050488938031,
              -35.598938882228
            ],
            [
              149.050341781563,
              -35.5988027684376
            ],
            [
              149.050220823813,
              -35.5986742604699
            ],
            [
              149.050117649824,
              -35.5985585976134
            ],
            [
              149.049996715622,
              -35.5984531782824
            ],
            [
              149.049861695706,
              -35.5983114088617
            ],
            [
              149.049769210562,
              -35.5982099097462
            ],
            [
              149.049652757733,
              -35.5980832563563
            ],
            [
              149.049325572942,
              -35.5978652806347
            ],
            [
              149.04908332598,
              -35.5977483650879
            ],
            [
              149.048885539233,
              -35.5976813715518
            ],
            [
              149.048740654004,
              -35.5976234076559
            ],
            [
              149.048541487052,
              -35.5975544213352
            ],
            [
              149.048335099837,
              -35.5974762543046
            ],
            [
              149.048185681842,
              -35.5973979602768
            ],
            [
              149.048010565575,
              -35.5972966476697
            ],
            [
              149.047824168591,
              -35.5971860656618
            ],
            [
              149.047617959107,
              -35.597037836778
            ],
            [
              149.047476573093,
              -35.5969307278191
            ],
            [
              149.047336371672,
              -35.5968091894908
            ],
            [
              149.04722168768,
              -35.5966988805325
            ],
            [
              149.047113057178,
              -35.5965811351465
            ],
            [
              149.047010348381,
              -35.5964764739014
            ],
            [
              149.046849157055,
              -35.5963455774234
            ],
            [
              149.04671664255,
              -35.5962580931932
            ],
            [
              149.046577333362,
              -35.596149351338
            ],
            [
              149.04646049169,
              -35.5960486311258
            ],
            [
              149.046325784911,
              -35.5959430236118
            ],
            [
              149.046217276534,
              -35.5958450228546
            ],
            [
              149.046093730719,
              -35.5957243161046
            ],
            [
              149.045982871027,
              -35.5956241076996
            ],
            [
              149.04581459188,
              -35.5954991518249
            ],
            [
              149.045647015776,
              -35.5953890471766
            ],
            [
              149.045463736032,
              -35.5952737108702
            ],
            [
              149.04534590963,
              -35.5952084357533
            ],
            [
              149.045193538754,
              -35.5951235955638
            ],
            [
              149.045000274462,
              -35.5950584586388
            ],
            [
              149.044850909025,
              -35.5950078642578
            ],
            [
              149.044618652403,
              -35.5949674767148
            ],
            [
              149.04438673965,
              -35.5949817290135
            ],
            [
              149.044172891332,
              -35.5950265009618
            ],
            [
              149.04393835628,
              -35.5951026935437
            ],
            [
              149.043697426222,
              -35.5951904410154
            ],
            [
              149.043533236123,
              -35.5952787712342
            ],
            [
              149.043407832155,
              -35.595398541933
            ],
            [
              149.043292390844,
              -35.595567145565
            ],
            [
              149.043198620855,
              -35.5957415025031
            ],
            [
              149.043112013374,
              -35.5958927143812
            ],
            [
              149.043031842891,
              -35.5960554504858
            ],
            [
              149.042961362805,
              -35.596199826955
            ],
            [
              149.042896312092,
              -35.5963185618831
            ],
            [
              149.042812263806,
              -35.5964976378222
            ],
            [
              149.042770661666,
              -35.5966477013394
            ],
            [
              149.042737896252,
              -35.5967943111133
            ],
            [
              149.042694048479,
              -35.5969572982757
            ],
            [
              149.042636165376,
              -35.5971208839976
            ],
            [
              149.042574106866,
              -35.5972738824248
            ],
            [
              149.042503498033,
              -35.5974572529408
            ],
            [
              149.042448934811,
              -35.5976463515406
            ],
            [
              149.042393408653,
              -35.5978306201451
            ],
            [
              149.042344837116,
              -35.5980202391229
            ],
            [
              149.042290893291,
              -35.5982136722252
            ],
            [
              149.042268920198,
              -35.5983942086615
            ],
            [
              149.042223208091,
              -35.5985890905602
            ],
            [
              149.042159480337,
              -35.5987949990211
            ],
            [
              149.04210011722,
              -35.5989599365326
            ],
            [
              149.04203850161,
              -35.5991239377111
            ],
            [
              149.041980149041,
              -35.5993352611261
            ],
            [
              149.041938261456,
              -35.5994676423688
            ],
            [
              149.0419086719,
              -35.5995876921872
            ],
            [
              149.04187941853,
              -35.5997762244673
            ],
            [
              149.041844380362,
              -35.5999034305321
            ],
            [
              149.041767594103,
              -35.6000744930007
            ],
            [
              149.041677588306,
              -35.6002173859277
            ],
            [
              149.041601051417,
              -35.6003784350618
            ],
            [
              149.041569961521,
              -35.6004767388582
            ],
            [
              149.041540315317,
              -35.6006232205985
            ],
            [
              149.041536348961,
              -35.6007742468239
            ],
            [
              149.041537297145,
              -35.6009104372241
            ],
            [
              149.041532906306,
              -35.6010781631277
            ],
            [
              149.04153038543,
              -35.6012047566878
            ],
            [
              149.041520008746,
              -35.6013039741769
            ],
            [
              149.041496167247,
              -35.6013711842559
            ],
            [
              149.041457678588,
              -35.6014531237503
            ],
            [
              149.041393776447,
              -35.6015931076595
            ],
            [
              149.041312528104,
              -35.6017312670397
            ],
            [
              149.040898713185,
              -35.602402058063
            ],
            [
              149.040703953913,
              -35.6029794244595
            ],
            [
              149.040465278977,
              -35.6032893233065
            ],
            [
              149.04007910638,
              -35.6037101079091
            ],
            [
              149.039765779562,
              -35.6041782766612
            ],
            [
              149.039362959575,
              -35.604660525403
            ],
            [
              149.039026864708,
              -35.6050531768433
            ],
            [
              149.038690069452,
              -35.6053523704844
            ],
            [
              149.038181319765,
              -35.6058926796921
            ],
            [
              149.037807761034,
              -35.6061664658135
            ],
            [
              149.03729403749,
              -35.6063975671175
            ],
            [
              149.037032014386,
              -35.6065936409302
            ],
            [
              149.036779738822,
              -35.6065717085904
            ],
            [
              149.036222465271,
              -35.6066112170766
            ],
            [
              149.03560097607,
              -35.6066851634834
            ],
            [
              149.034919734696,
              -35.6066036599437
            ],
            [
              149.034193587322,
              -35.606542980312
            ],
            [
              149.033551869334,
              -35.6065048094222
            ],
            [
              149.033002287307,
              -35.6064361555062
            ],
            [
              149.032559544329,
              -35.6064199295548
            ],
            [
              149.032125904745,
              -35.6064522628942
            ],
            [
              149.031617118985,
              -35.6064479373433
            ],
            [
              149.031054325307,
              -35.6068812237403
            ],
            [
              149.030578099847,
              -35.607208406536
            ],
            [
              149.029982766472,
              -35.6074339421296
            ],
            [
              149.029522756366,
              -35.6076992339094
            ],
            [
              149.029008603087,
              -35.6079114902844
            ],
            [
              149.028451125319,
              -35.6080397675065
            ],
            [
              149.027928829637,
              -35.6080868917809
            ],
            [
              149.027265708954,
              -35.6078940815471
            ],
            [
              149.02682781355,
              -35.6081101267913
            ],
            [
              149.026375397554,
              -35.6083157575798
            ],
            [
              149.025684150736,
              -35.6084358046011
            ],
            [
              149.025009331107,
              -35.6084866324576
            ],
            [
              149.024233192895,
              -35.6084743841495
            ],
            [
              149.023368642711,
              -35.6083322005519
            ],
            [
              149.022370386263,
              -35.6085375938942
            ],
            [
              149.021749661184,
              -35.6087370979546
            ],
            [
              149.021272972803,
              -35.609091411902
            ],
            [
              149.020740894084,
              -35.6095472051837
            ],
            [
              149.020284854903,
              -35.6100637311681
            ],
            [
              149.019626063514,
              -35.6104468039364
            ],
            [
              149.018906981739,
              -35.6106006092598
            ],
            [
              149.017847916298,
              -35.6107638476915
            ],
            [
              149.016991602151,
              -35.6107877470613
            ],
            [
              149.016321830672,
              -35.6107928347817
            ],
            [
              149.015557149807,
              -35.6108053125107
            ],
            [
              149.01469160425,
              -35.6108847508662
            ],
            [
              149.013528520159,
              -35.6108369420969
            ],
            [
              149.012997959887,
              -35.6106756863759
            ],
            [
              149.012337583997,
              -35.6105519376343
            ],
            [
              149.011812537806,
              -35.6106757166377
            ],
            [
              149.011211716213,
              -35.6110558673179
            ],
            [
              149.01067043462,
              -35.6116216647361
            ],
            [
              149.010334838001,
              -35.6121565166537
            ],
            [
              149.01001777234,
              -35.6125503935357
            ],
            [
              149.009608882112,
              -35.6128394135518
            ],
            [
              149.009133152214,
              -35.6131422336187
            ],
            [
              149.008878277649,
              -35.6136819543061
            ],
            [
              149.0087488191,
              -35.6139688156805
            ],
            [
              149.008667620143,
              -35.6142340300321
            ],
            [
              149.008667617015,
              -35.6146362707515
            ],
            [
              149.009017440006,
              -35.6150737829012
            ],
            [
              149.009284303397,
              -35.6156410052657
            ],
            [
              149.009427780074,
              -35.6161602818415
            ],
            [
              149.009333195291,
              -35.6167123627981
            ],
            [
              149.009061909575,
              -35.6172000974064
            ],
            [
              149.008871631245,
              -35.6175730173691
            ],
            [
              149.008862468431,
              -35.6181459376211
            ],
            [
              149.008813745549,
              -35.618548178503
            ],
            [
              149.009111348344,
              -35.6189917920898
            ],
            [
              149.009277236054,
              -35.6195274710359
            ],
            [
              149.009496434787,
              -35.6200124114855
            ],
            [
              149.009429769725,
              -35.6205706206764
            ],
            [
              149.009486171478,
              -35.6210285250283
            ],
            [
              149.009346659371,
              -35.6216284599163
            ],
            [
              149.009019285385,
              -35.6222231666296
            ],
            [
              149.008582415607,
              -35.6226653875638
            ],
            [
              149.008072037558,
              -35.6228888384637
            ],
            [
              149.007935707428,
              -35.6235603721772
            ],
            [
              149.007833808697,
              -35.6242458462448
            ],
            [
              149.007687441813,
              -35.6248811806948
            ],
            [
              149.007528152316,
              -35.6254236155923
            ],
            [
              149.0073952502,
              -35.6259034251238
            ],
            [
              149.0072815483,
              -35.6262835624172
            ],
            [
              149.007081220088,
              -35.6266990603632
            ],
            [
              149.006658911479,
              -35.6272736806799
            ],
            [
              149.0063247048,
              -35.6277402363874
            ],
            [
              149.005806442877,
              -35.6280606923952
            ],
            [
              149.005571311288,
              -35.6283925097917
            ],
            [
              149.005509918316,
              -35.6287816489853
            ],
            [
              149.00581863409,
              -35.6294587360632
            ],
            [
              149.005796535357,
              -35.6299346635026
            ],
            [
              149.005749213492,
              -35.6304959999201
            ],
            [
              149.005763702388,
              -35.6310308005209
            ],
            [
              149.005968560386,
              -35.6315089871749
            ],
            [
              149.005924053699,
              -35.6319984321169
            ],
            [
              149.005924359771,
              -35.6325819634339
            ],
            [
              149.005918812125,
              -35.6327030124777
            ],
            [
              148.980508531075,
              -35.6293294343766
            ],
            [
              148.973722057464,
              -35.6263683477793
            ],
            [
              148.953820915293,
              -35.623492261266
            ],
            [
              148.952850467526,
              -35.6279658128668
            ],
            [
              148.931878413583,
              -35.6449951069323
            ],
            [
              148.930057269527,
              -35.6440880117207
            ],
            [
              148.929336657168,
              -35.6433096142672
            ],
            [
              148.928370729907,
              -35.6427621175776
            ],
            [
              148.927345055716,
              -35.6424633950922
            ],
            [
              148.926121425978,
              -35.6424940981072
            ],
            [
              148.925631831497,
              -35.642135619441
            ],
            [
              148.924691532145,
              -35.6415074524021
            ],
            [
              148.923401353183,
              -35.6407044658452
            ],
            [
              148.921722152838,
              -35.6396989518285
            ],
            [
              148.920950530297,
              -35.6389346163946
            ],
            [
              148.919802338859,
              -35.6381880201863
            ],
            [
              148.918391312774,
              -35.6373460474808
            ],
            [
              148.918453861206,
              -35.636411633188
            ],
            [
              148.918115783851,
              -35.6358718257799
            ],
            [
              148.918528908892,
              -35.6350638462424
            ],
            [
              148.918427542997,
              -35.6344041764057
            ],
            [
              148.917730595341,
              -35.6337649630105
            ],
            [
              148.91694761666,
              -35.633358822069
            ],
            [
              148.915469752327,
              -35.6327544114289
            ],
            [
              148.912995236068,
              -35.6326781079218
            ],
            [
              148.912658634827,
              -35.6339806221066
            ],
            [
              148.912021203263,
              -35.6346442075558
            ],
            [
              148.910908580399,
              -35.6354369060505
            ],
            [
              148.910768983937,
              -35.6369227007129
            ],
            [
              148.909182653728,
              -35.6369687049613
            ],
            [
              148.907300979886,
              -35.6365210282084
            ],
            [
              148.906356022113,
              -35.6369336074997
            ],
            [
              148.90537617455,
              -35.6374267169546
            ],
            [
              148.904150747964,
              -35.6377022329012
            ],
            [
              148.903348166985,
              -35.6371157451673
            ],
            [
              148.901488961728,
              -35.6366454669351
            ],
            [
              148.899999395311,
              -35.6368924964726
            ],
            [
              148.898782362965,
              -35.6368362317727
            ],
            [
              148.897352956673,
              -35.6365257070821
            ],
            [
              148.895894580409,
              -35.6360207482112
            ],
            [
              148.894817868279,
              -35.635041379354
            ],
            [
              148.894561783451,
              -35.6344047037164
            ],
            [
              148.894722362865,
              -35.6339693936063
            ],
            [
              148.894541607283,
              -35.6334606709135
            ],
            [
              148.893624997047,
              -35.6332563912716
            ],
            [
              148.892332388739,
              -35.6332128762264
            ],
            [
              148.891887188128,
              -35.6326819025575
            ],
            [
              148.891100570826,
              -35.6325194564715
            ],
            [
              148.890700825792,
              -35.6318640662898
            ],
            [
              148.890296669753,
              -35.6312846421784
            ],
            [
              148.890356957707,
              -35.6307518179908
            ],
            [
              148.890235792545,
              -35.6301298656143
            ],
            [
              148.889878244634,
              -35.6293189661052
            ],
            [
              148.888927238665,
              -35.6284618722769
            ],
            [
              148.888367187656,
              -35.6276321997575
            ],
            [
              148.887961651924,
              -35.6269676921788
            ],
            [
              148.88762365422,
              -35.6263184820693
            ],
            [
              148.887821956828,
              -35.6248942337073
            ],
            [
              148.887920133846,
              -35.6239852842247
            ],
            [
              148.886142526449,
              -35.6235373813912
            ],
            [
              148.88473922636,
              -35.6235865855098
            ],
            [
              148.88356000512,
              -35.6228515065444
            ],
            [
              148.882600151399,
              -35.6225862662895
            ],
            [
              148.881271808752,
              -35.6222908872434
            ],
            [
              148.880671927976,
              -35.6215968584592
            ],
            [
              148.88017539365,
              -35.6201307819471
            ],
            [
              148.879867195639,
              -35.6191277664954
            ],
            [
              148.87974776689,
              -35.6184483973955
            ],
            [
              148.878774722442,
              -35.6185295367951
            ],
            [
              148.877053358616,
              -35.61854856642
            ],
            [
              148.87574591085,
              -35.6180193760283
            ],
            [
              148.874351780226,
              -35.6170664163577
            ],
            [
              148.872537968272,
              -35.6169494658803
            ],
            [
              148.874177735491,
              -35.6164725943165
            ],
            [
              148.875833825167,
              -35.6161235101763
            ],
            [
              148.87747607608,
              -35.6159265129615
            ],
            [
              148.878885415882,
              -35.6157483459856
            ],
            [
              148.880014411391,
              -35.6153006709624
            ],
            [
              148.881076218489,
              -35.6145538028638
            ],
            [
              148.881513217739,
              -35.6137499379198
            ],
            [
              148.882668682779,
              -35.6121666521574
            ],
            [
              148.882760939339,
              -35.6115398675757
            ],
            [
              148.883702411821,
              -35.6109843565591
            ],
            [
              148.884771696529,
              -35.6103377671978
            ],
            [
              148.884148344572,
              -35.6093046044179
            ],
            [
              148.883635671153,
              -35.6089211465599
            ],
            [
              148.882802831238,
              -35.6086955127178
            ],
            [
              148.881496157566,
              -35.608658626268
            ],
            [
              148.880326618849,
              -35.6084393760313
            ],
            [
              148.878367415694,
              -35.6081979007387
            ],
            [
              148.877356210864,
              -35.6077360991669
            ],
            [
              148.876748267548,
              -35.6070645705284
            ],
            [
              148.876390411875,
              -35.6056498168861
            ],
            [
              148.876037081967,
              -35.6047735391168
            ],
            [
              148.874856824826,
              -35.6042765618605
            ],
            [
              148.874360573977,
              -35.6034249934976
            ],
            [
              148.874144787563,
              -35.6025381402309
            ],
            [
              148.873383893578,
              -35.601781348755
            ],
            [
              148.87265005992,
              -35.6012770115882
            ],
            [
              148.872590287604,
              -35.6009316898219
            ],
            [
              148.873326664395,
              -35.6005185074598
            ],
            [
              148.873938290648,
              -35.5997430733092
            ],
            [
              148.874378943122,
              -35.5995835123715
            ],
            [
              148.874956268175,
              -35.5989206855918
            ],
            [
              148.875467732949,
              -35.598045367096
            ],
            [
              148.875627928674,
              -35.5974609292102
            ],
            [
              148.876008152249,
              -35.5970686927489
            ],
            [
              148.877646793436,
              -35.5962780589784
            ],
            [
              148.878267518902,
              -35.5956969137696
            ],
            [
              148.87777434334,
              -35.5949990182885
            ],
            [
              148.876861218964,
              -35.5945108224631
            ],
            [
              148.875477523337,
              -35.5948167871013
            ],
            [
              148.87514993314,
              -35.5939563054922
            ],
            [
              148.874504658672,
              -35.5933799808615
            ],
            [
              148.873427428295,
              -35.592350307397
            ],
            [
              148.872312595733,
              -35.5912591182199
            ],
            [
              148.872024777526,
              -35.590719144574
            ],
            [
              148.872421213154,
              -35.5895452251476
            ],
            [
              148.872629529962,
              -35.5888233202704
            ],
            [
              148.87273360935,
              -35.5880861555665
            ],
            [
              148.872561554582,
              -35.5877282686393
            ],
            [
              148.872702689922,
              -35.587323513991
            ],
            [
              148.873087000923,
              -35.5867133775393
            ],
            [
              148.873176143933,
              -35.5862577340912
            ],
            [
              148.873174344535,
              -35.5858871536983
            ],
            [
              148.87392384927,
              -35.5849315396909
            ],
            [
              148.874865738795,
              -35.5837779594895
            ],
            [
              148.875017371041,
              -35.5826916257168
            ],
            [
              148.875591211996,
              -35.5819245197474
            ],
            [
              148.876315848874,
              -35.5815575358852
            ],
            [
              148.875946850279,
              -35.5806812383786
            ],
            [
              148.87547390287,
              -35.5803574489139
            ],
            [
              148.875171080276,
              -35.5798287297173
            ],
            [
              148.87443365037,
              -35.5788185463546
            ],
            [
              148.873159465286,
              -35.5781902282181
            ],
            [
              148.872923023972,
              -35.5774965663431
            ],
            [
              148.871127131387,
              -35.5763955792635
            ],
            [
              148.870214332579,
              -35.5762475414498
            ],
            [
              148.869367693276,
              -35.5758635443852
            ],
            [
              148.869416864561,
              -35.5746114537087
            ],
            [
              148.868843656326,
              -35.5734330789774
            ],
            [
              148.868783481004,
              -35.572139674833
            ],
            [
              148.869011417617,
              -35.5717355645134
            ],
            [
              148.869081845587,
              -35.5712625086351
            ],
            [
              148.868402060519,
              -35.5701137474186
            ],
            [
              148.868576622047,
              -35.5697005632623
            ],
            [
              148.868808771771,
              -35.5690277166725
            ],
            [
              148.868508539427,
              -35.5685176382421
            ],
            [
              148.868181965059,
              -35.5678098016205
            ],
            [
              148.868224850739,
              -35.5668788054155
            ],
            [
              148.869160107398,
              -35.5659121710935
            ],
            [
              148.868691359102,
              -35.5643244022527
            ],
            [
              148.868772704233,
              -35.5632182537271
            ],
            [
              148.869262509839,
              -35.5624003387218
            ],
            [
              148.870402252284,
              -35.5613298407951
            ],
            [
              148.870397557269,
              -35.5604077096991
            ],
            [
              148.870471727221,
              -35.5595449698904
            ],
            [
              148.869890835979,
              -35.5584616671828
            ],
            [
              148.870177021038,
              -35.557894230429
            ],
            [
              148.871242741865,
              -35.5576909699865
            ],
            [
              148.871380050771,
              -35.5571104728909
            ],
            [
              148.872268543257,
              -35.5568343622128
            ],
            [
              148.872644049905,
              -35.5561289544432
            ],
            [
              148.873041990452,
              -35.5554574567638
            ],
            [
              148.873052080297,
              -35.55524323065
            ],
            [
              148.872976598713,
              -35.5547374897121
            ],
            [
              148.8731576883,
              -35.5533650492955
            ],
            [
              148.873795739762,
              -35.5524020059712
            ],
            [
              148.87449741276,
              -35.5518306093121
            ],
            [
              148.87619306075,
              -35.5513616066657
            ],
            [
              148.877357256674,
              -35.550694813836
            ],
            [
              148.87861003258,
              -35.5503374030442
            ],
            [
              148.879523807639,
              -35.5495706426245
            ],
            [
              148.880592407659,
              -35.5489313820601
            ],
            [
              148.881454374889,
              -35.5479217626518
            ],
            [
              148.88185295883,
              -35.5463540636274
            ],
            [
              148.882474756691,
              -35.5455971545186
            ],
            [
              148.883538872542,
              -35.5446739785017
            ],
            [
              148.884712048404,
              -35.5442296337973
            ],
            [
              148.885924046151,
              -35.5442043842631
            ],
            [
              148.886418612199,
              -35.5433289941389
            ],
            [
              148.887237735588,
              -35.542780172757
            ],
            [
              148.888028530576,
              -35.5422176179749
            ],
            [
              148.888695053746,
              -35.5420178561319
            ],
            [
              148.889497537563,
              -35.542035509008
            ],
            [
              148.890489241845,
              -35.542274773455
            ],
            [
              148.8906094715,
              -35.5417239755241
            ],
            [
              148.890880573113,
              -35.5410759044686
            ],
            [
              148.891791732728,
              -35.5409670271956
            ],
            [
              148.893255629054,
              -35.5408670582627
            ],
            [
              148.894889935356,
              -35.5401842340707
            ],
            [
              148.895808397139,
              -35.5394990933715
            ],
            [
              148.897391262226,
              -35.5382680642907
            ],
            [
              148.897457374301,
              -35.5367912953326
            ],
            [
              148.89693893637,
              -35.5347394531093
            ],
            [
              148.89643702432,
              -35.5338957113752
            ],
            [
              148.89643724391,
              -35.5331093963656
            ],
            [
              148.898408098738,
              -35.5330503926559
            ],
            [
              148.900030481915,
              -35.5328801017913
            ],
            [
              148.90221586841,
              -35.5320005783698
            ],
            [
              148.903274864056,
              -35.531392017487
            ],
            [
              148.903885917892,
              -35.5301786977147
            ],
            [
              148.905125612964,
              -35.5293698474709
            ],
            [
              148.906622361383,
              -35.5290922931447
            ],
            [
              148.907626123906,
              -35.5291253177305
            ],
            [
              148.90902580856,
              -35.5292295001519
            ],
            [
              148.909646615854,
              -35.5284256743734
            ],
            [
              148.91114191991,
              -35.5282218732852
            ],
            [
              148.911845811109,
              -35.5276101536913
            ],
            [
              148.912506618536,
              -35.5268796141321
            ],
            [
              148.91190687338,
              -35.5259801620518
            ],
            [
              148.910540831961,
              -35.5247348218455
            ],
            [
              148.909284914019,
              -35.5238832122741
            ],
            [
              148.908017169653,
              -35.5223760297364
            ],
            [
              148.906669738677,
              -35.520830364538
            ],
            [
              148.934626087071,
              -35.5248392153996
            ],
            [
              148.937736055492,
              -35.5103300752819
            ],
            [
              148.937845253629,
              -35.5103457204265
            ],
            [
              148.938405115875,
              -35.507733172064
            ],
            [
              148.953448518171,
              -35.5098874754261
            ],
            [
              148.953430739125,
              -35.5099787820797
            ],
            [
              148.955900269755,
              -35.5103026517522
            ]
          ]
        ]
      },
      "properties": {
        "OBJECTID": 55,
        "DISTRICT_CODE": 17,
        "DISTRICT_NAME": "TENNENT",
        "DISTRICT_SHORT": "TENN",
        "ID": 96,
        "LAST_UPDATE_DATE": "Fri, 21 Sep 2012 15:06:45 GMT",
        "GlobalID": "c36c513f-cabe-4835-a320-7d0934dbec6d"
      }
    }
}