{
  "type": "FeatureCollection",
  "crs": {
    "type": "name",
    "properties": {
      "name": "EPSG:4326"
    }
  },
  "features": 
    {
      "type": "Feature",
      "id": 44,
      "geometry": {
        "type": "Polygon",
        "coordinates": [
          [
            [
              149.04847352101,
              -35.3645168643869
            ],
            [
              149.049840688377,
              -35.3636925178172
            ],
            [
              149.05043825347,
              -35.3643575007623
            ],
            [
              149.050750579212,
              -35.3647370433317
            ],
            [
              149.051023180992,
              -35.3651365979562
            ],
            [
              149.051254159395,
              -35.3655533814995
            ],
            [
              149.051441904861,
              -35.3659844907752
            ],
            [
              149.05418960457,
              -35.3655866165331
            ],
            [
              149.054936890706,
              -35.3653257910758
            ],
            [
              149.055357064922,
              -35.3649961997684
            ],
            [
              149.055670470458,
              -35.3654084796983
            ],
            [
              149.056143772791,
              -35.3655376979071
            ],
            [
              149.05635806699,
              -35.3656600306303
            ],
            [
              149.057051075933,
              -35.3662473026477
            ],
            [
              149.05873685046,
              -35.366875295363
            ],
            [
              149.059636512165,
              -35.3668867179624
            ],
            [
              149.061260261904,
              -35.3667010690956
            ],
            [
              149.06176764002,
              -35.366492980395
            ],
            [
              149.062027567537,
              -35.3663863762481
            ],
            [
              149.062904933021,
              -35.3663855252156
            ],
            [
              149.077619665768,
              -35.3663785934779
            ],
            [
              149.078152127442,
              -35.3669916143127
            ],
            [
              149.078686720115,
              -35.3676807900311
            ],
            [
              149.078954652459,
              -35.3683078425677
            ],
            [
              149.080707615762,
              -35.3704467134102
            ],
            [
              149.08165506034,
              -35.3720359595931
            ],
            [
              149.081927265191,
              -35.3747724664468
            ],
            [
              149.081214574082,
              -35.3764246276786
            ],
            [
              149.081621466777,
              -35.3779435292042
            ],
            [
              149.082422707026,
              -35.3782374117613
            ],
            [
              149.083273609211,
              -35.3781942721933
            ],
            [
              149.084523627947,
              -35.3776489415959
            ],
            [
              149.085985018367,
              -35.377504590322
            ],
            [
              149.090177933834,
              -35.3779437711438
            ],
            [
              149.092402425813,
              -35.3775105829097
            ],
            [
              149.093513866502,
              -35.3774726673565
            ],
            [
              149.094014788251,
              -35.3774812398145
            ],
            [
              149.096775201239,
              -35.3776175551639
            ],
            [
              149.099708043106,
              -35.3787727149271
            ],
            [
              149.10070258872,
              -35.3798968065544
            ],
            [
              149.100996656068,
              -35.3801849293695
            ],
            [
              149.101815814682,
              -35.3807632130836
            ],
            [
              149.103264534602,
              -35.3811719826239
            ],
            [
              149.103869963772,
              -35.3815966024423
            ],
            [
              149.104508041759,
              -35.3826894916968
            ],
            [
              149.104997717293,
              -35.383776541296
            ],
            [
              149.10546939111,
              -35.3842618683954
            ],
            [
              149.107297279862,
              -35.3840790180634
            ],
            [
              149.109016092279,
              -35.3837807142111
            ],
            [
              149.10967978704,
              -35.3837451227109
            ],
            [
              149.110475353832,
              -35.3838704268299
            ],
            [
              149.111751099985,
              -35.3838635835001
            ],
            [
              149.113489839311,
              -35.3833398810262
            ],
            [
              149.118535820469,
              -35.3821083793921
            ],
            [
              149.11896389783,
              -35.3829127505755
            ],
            [
              149.120673767811,
              -35.3852057759019
            ],
            [
              149.12104369307,
              -35.3859603442525
            ],
            [
              149.121539601696,
              -35.3872425752116
            ],
            [
              149.122228098183,
              -35.3876964091503
            ],
            [
              149.123081316422,
              -35.3882095381102
            ],
            [
              149.124516339866,
              -35.3884670661247
            ],
            [
              149.125630140424,
              -35.3880086966711
            ],
            [
              149.127171216069,
              -35.3887216343835
            ],
            [
              149.128186095735,
              -35.388735688908
            ],
            [
              149.128839812118,
              -35.3886070940238
            ],
            [
              149.12993338128,
              -35.3884768387222
            ],
            [
              149.131896370063,
              -35.3886360360365
            ],
            [
              149.13674940252,
              -35.3894322426257
            ],
            [
              149.137124582715,
              -35.3903215353496
            ],
            [
              149.137602533209,
              -35.3911063120403
            ],
            [
              149.138221187121,
              -35.391737167746
            ],
            [
              149.140724613884,
              -35.3942219367824
            ],
            [
              149.141821093596,
              -35.3949108477585
            ],
            [
              149.144004165463,
              -35.3962823929685
            ],
            [
              149.152755651602,
              -35.3974783274928
            ],
            [
              149.153346608692,
              -35.3980151512171
            ],
            [
              149.150094378847,
              -35.400415319024
            ],
            [
              149.149605979152,
              -35.4008293061703
            ],
            [
              149.156885779591,
              -35.401825254113
            ],
            [
              149.157091745748,
              -35.4007436244533
            ],
            [
              149.161460344335,
              -35.401332873786
            ],
            [
              149.16268355047,
              -35.4015036233614
            ],
            [
              149.1610930467,
              -35.4031886533136
            ],
            [
              149.159593630949,
              -35.4047756998299
            ],
            [
              149.159580079723,
              -35.4047900421374
            ],
            [
              149.159440092395,
              -35.404938207583
            ],
            [
              149.159350272751,
              -35.4050332741137
            ],
            [
              149.157463181652,
              -35.4070305194461
            ],
            [
              149.157323129991,
              -35.4071713529052
            ],
            [
              149.157175234369,
              -35.4073063072343
            ],
            [
              149.157023911467,
              -35.4074386939299
            ],
            [
              149.156915108553,
              -35.4075341213112
            ],
            [
              149.156611405881,
              -35.4078054700711
            ],
            [
              149.156574349336,
              -35.4078391439022
            ],
            [
              149.15642481988,
              -35.4079728752834
            ],
            [
              149.156190284621,
              -35.4081689325618
            ],
            [
              149.155873638898,
              -35.4084225840141
            ],
            [
              149.155712667758,
              -35.408547098475
            ],
            [
              149.155549117741,
              -35.4086693555113
            ],
            [
              149.155193871269,
              -35.408931964523
            ],
            [
              149.155029362251,
              -35.4090541586652
            ],
            [
              149.154860789701,
              -35.4091720565862
            ],
            [
              149.154691939116,
              -35.4092896626561
            ],
            [
              149.154520109307,
              -35.409404118734
            ],
            [
              149.154346242973,
              -35.4095164221409
            ],
            [
              149.154171695232,
              -35.4096280063685
            ],
            [
              149.153995522271,
              -35.4097378731957
            ],
            [
              149.153819349926,
              -35.4098477397611
            ],
            [
              149.153642501851,
              -35.4099568933466
            ],
            [
              149.153464427345,
              -35.4100647497022
            ],
            [
              149.152833283493,
              -35.4104286880837
            ],
            [
              149.15090540908,
              -35.4115642104602
            ],
            [
              149.149009482384,
              -35.4126808540124
            ],
            [
              149.148835096981,
              -35.4127936943912
            ],
            [
              149.148666781286,
              -35.4129118200048
            ],
            [
              149.148501188482,
              -35.413032315582
            ],
            [
              149.148339998219,
              -35.4131566458851
            ],
            [
              149.14818306162,
              -35.4132846783599
            ],
            [
              149.148025966699,
              -35.4134125728241
            ],
            [
              149.14787023526,
              -35.4135416553119
            ],
            [
              149.147740638038,
              -35.4136575979542
            ],
            [
              149.147596387655,
              -35.4137953878014
            ],
            [
              149.147458404907,
              -35.4139372073559
            ],
            [
              149.14732181646,
              -35.4140799232624
            ],
            [
              149.147187843405,
              -35.4142243188217
            ],
            [
              149.147042669335,
              -35.4143853842577
            ],
            [
              149.146803980973,
              -35.4146911970012
            ],
            [
              149.146687411711,
              -35.4148454313086
            ],
            [
              149.146582327398,
              -35.4150051369616
            ],
            [
              149.146478583303,
              -35.4151654821806
            ],
            [
              149.146390121135,
              -35.4153032387445
            ],
            [
              149.146295476868,
              -35.4154672009914
            ],
            [
              149.1462034665,
              -35.4156321241868
            ],
            [
              149.14609322047,
              -35.4158483443752
            ],
            [
              149.145877468132,
              -35.4163386802281
            ],
            [
              149.145813746399,
              -35.4165140621859
            ],
            [
              149.145701355093,
              -35.4168649172436
            ],
            [
              149.145601018012,
              -35.4172562495209
            ],
            [
              149.1453605535,
              -35.4185060942524
            ],
            [
              149.145353917724,
              -35.4185419420471
            ],
            [
              149.144502514827,
              -35.4231408238019
            ],
            [
              149.144448595196,
              -35.4233171288622
            ],
            [
              149.144393836835,
              -35.4234932108097
            ],
            [
              149.144329595897,
              -35.4236667603764
            ],
            [
              149.144258623158,
              -35.4238385147671
            ],
            [
              149.144185964172,
              -35.4240098185861
            ],
            [
              149.144064516665,
              -35.4242404287078
            ],
            [
              149.143962687384,
              -35.4244016510237
            ],
            [
              149.14385184501,
              -35.4245586179274
            ],
            [
              149.143753782245,
              -35.424681478645
            ],
            [
              149.143360767292,
              -35.4248711557182
            ],
            [
              149.143088681833,
              -35.425387803891
            ],
            [
              149.142929747087,
              -35.425514551895
            ],
            [
              149.142764297888,
              -35.4256351266716
            ],
            [
              149.142590735738,
              -35.425748015051
            ],
            [
              149.142523687007,
              -35.4257872752603
            ],
            [
              149.139094349146,
              -35.4278635218271
            ],
            [
              149.139067687644,
              -35.4278796628161
            ],
            [
              149.138947800451,
              -35.4279603308838
            ],
            [
              149.138837738008,
              -35.4280416477857
            ],
            [
              149.138693003765,
              -35.4281766423189
            ],
            [
              149.138561541956,
              -35.4283455384906
            ],
            [
              149.138463716681,
              -35.4285003390386
            ],
            [
              149.138376253258,
              -35.4286673124215
            ],
            [
              149.138298803235,
              -35.4288371958928
            ],
            [
              149.138243889948,
              -35.4290136277222
            ],
            [
              149.138220202391,
              -35.4291029334469
            ],
            [
              149.138202979045,
              -35.4291941187108
            ],
            [
              149.138187426079,
              -35.4292857882205
            ],
            [
              149.138178630782,
              -35.4293791878385
            ],
            [
              149.138163840314,
              -35.4295395955384
            ],
            [
              149.138165186144,
              -35.4297239381466
            ],
            [
              149.138191563124,
              -35.4299043837835
            ],
            [
              149.138228821462,
              -35.4300831356893
            ],
            [
              149.138267538629,
              -35.4302081339773
            ],
            [
              149.138324943683,
              -35.4303826516913
            ],
            [
              149.138386597463,
              -35.4305226145819
            ],
            [
              149.138493669807,
              -35.4307192605194
            ],
            [
              149.138582672021,
              -35.4308806508234
            ],
            [
              149.138609314837,
              -35.4311183540227
            ],
            [
              149.138592448508,
              -35.431257718482
            ],
            [
              149.138696309508,
              -35.431418387449
            ],
            [
              149.13879409499,
              -35.431581246377
            ],
            [
              149.138880120629,
              -35.4317483431936
            ],
            [
              149.138912083969,
              -35.4318518336829
            ],
            [
              149.1389330555,
              -35.4319426846965
            ],
            [
              149.138980838007,
              -35.4322102115315
            ],
            [
              149.139018261655,
              -35.4323889340133
            ],
            [
              149.139069187253,
              -35.4325324049145
            ],
            [
              149.139162600816,
              -35.4326979173708
            ],
            [
              149.139264371332,
              -35.4328593448935
            ],
            [
              149.139376041888,
              -35.4330159353256
            ],
            [
              149.139502547055,
              -35.433165275369
            ],
            [
              149.139610641654,
              -35.4332745286657
            ],
            [
              149.139767583368,
              -35.4334036100496
            ],
            [
              149.139930337616,
              -35.4335269764994
            ],
            [
              149.140104427632,
              -35.4336391969501
            ],
            [
              149.140362755664,
              -35.4337868610987
            ],
            [
              149.140339453307,
              -35.4339013204017
            ],
            [
              149.140053727569,
              -35.4338288181148
            ],
            [
              149.140323853462,
              -35.4339782536741
            ],
            [
              149.140591216108,
              -35.4341046599471
            ],
            [
              149.141098528786,
              -35.4342455335793
            ],
            [
              149.141753283529,
              -35.4343033702527
            ],
            [
              149.142327741612,
              -35.4342692515897
            ],
            [
              149.142878923183,
              -35.4341487931137
            ],
            [
              149.14335744227,
              -35.4340967424795
            ],
            [
              149.143258995692,
              -35.4339761403906
            ],
            [
              149.144318606852,
              -35.4333988950474
            ],
            [
              149.144414577497,
              -35.4333502151956
            ],
            [
              149.144514368474,
              -35.4333098627862
            ],
            [
              149.144616490379,
              -35.4332745892312
            ],
            [
              149.144725625139,
              -35.433254594404
            ],
            [
              149.14484366451,
              -35.4332374836998
            ],
            [
              149.14506401611,
              -35.4332122541766
            ],
            [
              149.145284518977,
              -35.4331897422026
            ],
            [
              149.145394929427,
              -35.4331814711629
            ],
            [
              149.145505622192,
              -35.4331782774952
            ],
            [
              149.145727898482,
              -35.4331878156246
            ],
            [
              149.145827523491,
              -35.4332010007237
            ],
            [
              149.146043599546,
              -35.4332428950044
            ],
            [
              149.146882576837,
              -35.4332959938818
            ],
            [
              149.147352031874,
              -35.4333982104047
            ],
            [
              149.147569548809,
              -35.433434673779
            ],
            [
              149.147788074491,
              -35.4334650284739
            ],
            [
              149.148006837461,
              -35.4334939443076
            ],
            [
              149.148226902821,
              -35.4335149550076
            ],
            [
              149.148447650323,
              -35.4335318298373
            ],
            [
              149.148662107172,
              -35.4335428908896
            ],
            [
              149.148884368203,
              -35.4335520159804
            ],
            [
              149.149106125488,
              -35.4335520925627
            ],
            [
              149.149327518663,
              -35.4335456413678
            ],
            [
              149.149548619126,
              -35.4335339412143
            ],
            [
              149.149769537898,
              -35.4335189733603
            ],
            [
              149.150318015586,
              -35.433481074165
            ],
            [
              149.151685013947,
              -35.4333830947765
            ],
            [
              149.151909219859,
              -35.4333801765541
            ],
            [
              149.152130649387,
              -35.4333934103676
            ],
            [
              149.152350472656,
              -35.4334159791864
            ],
            [
              149.152567826956,
              -35.433452916883
            ],
            [
              149.152783299594,
              -35.4335007946221
            ],
            [
              149.152847376712,
              -35.4335169652892
            ],
            [
              149.152898062206,
              -35.4335309795959
            ],
            [
              149.15311043391,
              -35.4336001290323
            ],
            [
              149.153256045898,
              -35.4336577133644
            ],
            [
              149.153453390412,
              -35.4337403196729
            ],
            [
              149.15353525016,
              -35.4337804862009
            ],
            [
              149.15371654955,
              -35.4338853913304
            ],
            [
              149.153894074491,
              -35.4339940920121
            ],
            [
              149.154061804808,
              -35.4341126390916
            ],
            [
              149.154197919796,
              -35.4342220332921
            ],
            [
              149.154342790396,
              -35.4343602244168
            ],
            [
              149.154479519645,
              -35.4345031347404
            ],
            [
              149.154613669995,
              -35.4346653129525
            ],
            [
              149.154722714569,
              -35.4348251599952
            ],
            [
              149.154724348649,
              -35.4348301826516
            ],
            [
              149.154886098317,
              -35.4351224292856
            ],
            [
              149.154956700211,
              -35.4352945877977
            ],
            [
              149.155015542632,
              -35.4354693766767
            ],
            [
              149.155055355018,
              -35.4356291271723
            ],
            [
              149.155080918086,
              -35.435810378799
            ],
            [
              149.155094961424,
              -35.4359916531184
            ],
            [
              149.155095945152,
              -35.4361729532933
            ],
            [
              149.155080520818,
              -35.4363542859304
            ],
            [
              149.155057901295,
              -35.4364967332963
            ],
            [
              149.155016038563,
              -35.4366755820956
            ],
            [
              149.154958219418,
              -35.4368506330412
            ],
            [
              149.154888281533,
              -35.4370228001907
            ],
            [
              149.154823379533,
              -35.4371567488852
            ],
            [
              149.154727307593,
              -35.4373212197574
            ],
            [
              149.154619343848,
              -35.4374797160832
            ],
            [
              149.154500999975,
              -35.4376329987284
            ],
            [
              149.154368109237,
              -35.4377789722095
            ],
            [
              149.154317184983,
              -35.4378316192113
            ],
            [
              149.154053839225,
              -35.438092310631
            ],
            [
              149.15391137741,
              -35.4382312327913
            ],
            [
              149.153771689537,
              -35.4383719623099
            ],
            [
              149.153631828531,
              -35.4385125784723
            ],
            [
              149.153496120291,
              -35.4386559005054
            ],
            [
              149.153456055424,
              -35.4387069966728
            ],
            [
              149.153340369108,
              -35.4388628495669
            ],
            [
              149.15323591934,
              -35.4390230128227
            ],
            [
              149.153143106809,
              -35.4391876397809
            ],
            [
              149.153094454901,
              -35.4392871130833
            ],
            [
              149.153015334469,
              -35.439464994257
            ],
            [
              149.15299815723,
              -35.4395065176334
            ],
            [
              149.152939222279,
              -35.4396829163219
            ],
            [
              149.152892355162,
              -35.4398606637506
            ],
            [
              149.152861069276,
              -35.4400401506958
            ],
            [
              149.152841643709,
              -35.4402209639629
            ],
            [
              149.152832748247,
              -35.4404029524008
            ],
            [
              149.152832119089,
              -35.4405018682126
            ],
            [
              149.152845335702,
              -35.4406832178931
            ],
            [
              149.152872387961,
              -35.4408631623646
            ],
            [
              149.152919528056,
              -35.4410783276117
            ],
            [
              149.153018447728,
              -35.4414319089929
            ],
            [
              149.153070630814,
              -35.4416082589169
            ],
            [
              149.153106950299,
              -35.441787207709
            ],
            [
              149.153116390596,
              -35.4418830483293
            ],
            [
              149.15312297134,
              -35.4420996708684
            ],
            [
              149.153014560308,
              -35.4424510320488
            ],
            [
              149.152870927207,
              -35.4428089152786
            ],
            [
              149.152838904532,
              -35.4428602878682
            ],
            [
              149.152568756491,
              -35.4432936700893
            ],
            [
              149.152440311393,
              -35.4434143662241
            ],
            [
              149.152340628544,
              -35.4434917168988
            ],
            [
              149.152212094966,
              -35.4435794981754
            ],
            [
              149.152031659623,
              -35.4436873890218
            ],
            [
              149.151841354016,
              -35.4437804885306
            ],
            [
              149.151641489148,
              -35.443859262577
            ],
            [
              149.15146306974,
              -35.4439142004734
            ],
            [
              149.15124707331,
              -35.4439592013016
            ],
            [
              149.151028606635,
              -35.4439898331047
            ],
            [
              149.150807641096,
              -35.4440059269018
            ],
            [
              149.150655308616,
              -35.4440071678783
            ],
            [
              149.150433679573,
              -35.4439960142193
            ],
            [
              149.150213723597,
              -35.4439742498079
            ],
            [
              149.149995101536,
              -35.4439440297944
            ],
            [
              149.149776108998,
              -35.4439161516858
            ],
            [
              149.149600792743,
              -35.4438958103389
            ],
            [
              149.149376654828,
              -35.4438812666255
            ],
            [
              149.14915400524,
              -35.4438798952904
            ],
            [
              149.148932313963,
              -35.4438870136379
            ],
            [
              149.14871294774,
              -35.4439147094714
            ],
            [
              149.148495129242,
              -35.4439561256514
            ],
            [
              149.148328873499,
              -35.4439920044005
            ],
            [
              149.148203153763,
              -35.4440274903808
            ],
            [
              149.148052679314,
              -35.444077627617
            ],
            [
              149.147853731957,
              -35.4441585588753
            ],
            [
              149.147663047931,
              -35.4442508707344
            ],
            [
              149.147455601996,
              -35.444367993316
            ],
            [
              149.146284603609,
              -35.4450831134574
            ],
            [
              149.144162564713,
              -35.4463841253501
            ],
            [
              149.143993515782,
              -35.4465034544898
            ],
            [
              149.143837107031,
              -35.4466321450651
            ],
            [
              149.143690887711,
              -35.4467683845351
            ],
            [
              149.143557641272,
              -35.4469142338329
            ],
            [
              149.143523243659,
              -35.4469620755155
            ],
            [
              149.143408146545,
              -35.4471186948471
            ],
            [
              149.143310080314,
              -35.4472814561889
            ],
            [
              149.143228028411,
              -35.447449992708
            ],
            [
              149.143164120242,
              -35.4476289082817
            ],
            [
              149.143115940102,
              -35.4478069513312
            ],
            [
              149.14307878188,
              -35.4479859930649
            ],
            [
              149.143066277306,
              -35.448167269811
            ],
            [
              149.143065738483,
              -35.4483556738099
            ],
            [
              149.143077449179,
              -35.4484694836486
            ],
            [
              149.143124945821,
              -35.4487409387751
            ],
            [
              149.143152719015,
              -35.4491101821453
            ],
            [
              149.14315204986,
              -35.44919443721
            ],
            [
              149.143014784767,
              -35.4497855324481
            ],
            [
              149.143063999034,
              -35.4502445301748
            ],
            [
              149.143056741899,
              -35.450322851569
            ],
            [
              149.142881456456,
              -35.4506282630428
            ],
            [
              149.142828077747,
              -35.4506952399381
            ],
            [
              149.142575480935,
              -35.4509241144004
            ],
            [
              149.142417141476,
              -35.451052183956
            ],
            [
              149.142250900015,
              -35.4511730195804
            ],
            [
              149.141887547986,
              -35.4513914564473
            ],
            [
              149.141524355647,
              -35.4513892251201
            ],
            [
              149.141249102243,
              -35.4513875326792
            ],
            [
              149.140797619652,
              -35.4514148699765
            ],
            [
              149.14012986801,
              -35.4515143268613
            ],
            [
              149.13916605345,
              -35.4515205479304
            ],
            [
              149.138753948639,
              -35.4515241667954
            ],
            [
              149.137925610876,
              -35.4515467317158
            ],
            [
              149.137706698031,
              -35.4515855113942
            ],
            [
              149.137495903118,
              -35.4516419346802
            ],
            [
              149.137293383691,
              -35.4517163395831
            ],
            [
              149.137052864188,
              -35.4518156261209
            ],
            [
              149.136551148229,
              -35.4522491398843
            ],
            [
              149.136385046701,
              -35.4523694476693
            ],
            [
              149.136217252332,
              -35.4524883347358
            ],
            [
              149.136064756218,
              -35.4526200653477
            ],
            [
              149.135983747247,
              -35.452701632826
            ],
            [
              149.135856835525,
              -35.4528504429859
            ],
            [
              149.135738526297,
              -35.4530037379181
            ],
            [
              149.135570440132,
              -35.4532324102887
            ],
            [
              149.135178929933,
              -35.4536849028679
            ],
            [
              149.135092350999,
              -35.454033514318
            ],
            [
              149.135072073395,
              -35.4548381681618
            ],
            [
              149.135314040334,
              -35.4554000319891
            ],
            [
              149.135533474872,
              -35.4558114321778
            ],
            [
              149.135622574053,
              -35.455977565529
            ],
            [
              149.135704884216,
              -35.4561458959556
            ],
            [
              149.135782451418,
              -35.456315760734
            ],
            [
              149.135847917002,
              -35.4564620796361
            ],
            [
              149.135921734801,
              -35.4566332096303
            ],
            [
              149.135981991188,
              -35.4568077158524
            ],
            [
              149.135999625446,
              -35.4568700999776
            ],
            [
              149.136115843419,
              -35.4575029997019
            ],
            [
              149.136125337484,
              -35.4576842270735
            ],
            [
              149.136120173716,
              -35.4578299301172
            ],
            [
              149.135908679201,
              -35.4590809623142
            ],
            [
              149.135892225008,
              -35.459261795319
            ],
            [
              149.135878422715,
              -35.4594427490471
            ],
            [
              149.135867720182,
              -35.4596238426152
            ],
            [
              149.135868408292,
              -35.4596759452624
            ],
            [
              149.135877252822,
              -35.4598584028868
            ],
            [
              149.135916289434,
              -35.4600368986463
            ],
            [
              149.135959709483,
              -35.4602148182735
            ],
            [
              149.136006749433,
              -35.4603814964793
            ],
            [
              149.136064374439,
              -35.4605571155373
            ],
            [
              149.136131402578,
              -35.4607300205306
            ],
            [
              149.136212017607,
              -35.4608990051236
            ],
            [
              149.136289688283,
              -35.4610377253892
            ],
            [
              149.136730577421,
              -35.4616768969184
            ],
            [
              149.13676394683,
              -35.4617269567704
            ],
            [
              149.136976029433,
              -35.4620451168378
            ],
            [
              149.13752117293,
              -35.4625995999708
            ],
            [
              149.13781500138,
              -35.4631405269436
            ],
            [
              149.137897104581,
              -35.4633092197491
            ],
            [
              149.137967240772,
              -35.4634812012593
            ],
            [
              149.137996152936,
              -35.4635818039019
            ],
            [
              149.13799712638,
              -35.4641503353786
            ],
            [
              149.138000938301,
              -35.4642326764337
            ],
            [
              149.13796740058,
              -35.4643847579429
            ],
            [
              149.137929390679,
              -35.4645492183196
            ],
            [
              149.137905797002,
              -35.4648705581166
            ],
            [
              149.138058698105,
              -35.4655231391572
            ],
            [
              149.138089335926,
              -35.4657028600306
            ],
            [
              149.138101417838,
              -35.4658838274314
            ],
            [
              149.138114353751,
              -35.4660648761477
            ],
            [
              149.13812927618,
              -35.4662457886872
            ],
            [
              149.138148403662,
              -35.4664264130473
            ],
            [
              149.138170615433,
              -35.4666068267826
            ],
            [
              149.138186439963,
              -35.4667160584298
            ],
            [
              149.138176954997,
              -35.4668982481831
            ],
            [
              149.13818150606,
              -35.466988843455
            ],
            [
              149.138191806564,
              -35.467079133097
            ],
            [
              149.138228783958,
              -35.4672479617733
            ],
            [
              149.138336054506,
              -35.4676000028576
            ],
            [
              149.138393949213,
              -35.4677750288077
            ],
            [
              149.138455465775,
              -35.4679492053447
            ],
            [
              149.138522742959,
              -35.4681220293938
            ],
            [
              149.13860139398,
              -35.468310888107
            ],
            [
              149.138952746779,
              -35.4687938937364
            ],
            [
              149.139123287401,
              -35.4690728444426
            ],
            [
              149.139357082707,
              -35.4694220549657
            ],
            [
              149.139473723532,
              -35.4695764802931
            ],
            [
              149.139600620651,
              -35.4697095310108
            ],
            [
              149.139722155761,
              -35.4698767891
            ],
            [
              149.139848658574,
              -35.4700256537522
            ],
            [
              149.139977710093,
              -35.4701730820868
            ],
            [
              149.140118556718,
              -35.4703258856193
            ],
            [
              149.141602530938,
              -35.471764399257
            ],
            [
              149.141976202031,
              -35.4721501770706
            ],
            [
              149.142331507095,
              -35.4725397116771
            ],
            [
              149.142633920703,
              -35.472890209061
            ],
            [
              149.143065483196,
              -35.4734178112335
            ],
            [
              149.143531970991,
              -35.4740481739454
            ],
            [
              149.143640356752,
              -35.4742064357707
            ],
            [
              149.143747558354,
              -35.4743651981105
            ],
            [
              149.143852402089,
              -35.4745249568989
            ],
            [
              149.143956853924,
              -35.4746848812082
            ],
            [
              149.144060121583,
              -35.4748453060424
            ],
            [
              149.144158465964,
              -35.475007810523
            ],
            [
              149.14425542996,
              -35.4751708974561
            ],
            [
              149.144350427299,
              -35.4753348161549
            ],
            [
              149.14439618634,
              -35.4754171818566
            ],
            [
              149.144489671847,
              -35.4755816231104
            ],
            [
              149.144580309537,
              -35.4757470803784
            ],
            [
              149.144668716201,
              -35.4759133335617
            ],
            [
              149.144754678946,
              -35.4760804585676
            ],
            [
              149.144823635389,
              -35.4762188433693
            ],
            [
              149.144983972347,
              -35.4765569067746
            ],
            [
              149.145061229945,
              -35.4767268375208
            ],
            [
              149.145145528346,
              -35.4769203425195
            ],
            [
              149.146285183886,
              -35.479608101435
            ],
            [
              149.146360040728,
              -35.4797848366783
            ],
            [
              149.149904426125,
              -35.4881521397554
            ],
            [
              149.151120132871,
              -35.4910216555462
            ],
            [
              149.151133190667,
              -35.4910524753198
            ],
            [
              149.151291886807,
              -35.4914719664952
            ],
            [
              149.151419249784,
              -35.4918985436185
            ],
            [
              149.151514812174,
              -35.4923306428011
            ],
            [
              149.151547141007,
              -35.4925101105482
            ],
            [
              149.151571092428,
              -35.4926903497364
            ],
            [
              149.151586418971,
              -35.4928500172706
            ],
            [
              149.151610034353,
              -35.4932004313609
            ],
            [
              149.151514976255,
              -35.4982732873867
            ],
            [
              149.151451184286,
              -35.4987522385436
            ],
            [
              149.151444793201,
              -35.4991154763718
            ],
            [
              149.151484406779,
              -35.499888204204
            ],
            [
              149.151431369495,
              -35.5026210856301
            ],
            [
              149.151369449607,
              -35.5058114559684
            ],
            [
              149.151337348951,
              -35.5063775984089
            ],
            [
              149.151275161503,
              -35.5070209476277
            ],
            [
              149.151268043825,
              -35.5070646133211
            ],
            [
              149.15125575964,
              -35.5072017263786
            ],
            [
              149.151226906607,
              -35.5073814847034
            ],
            [
              149.151197616708,
              -35.5075611949219
            ],
            [
              149.151170084756,
              -35.5077410973325
            ],
            [
              149.151136401742,
              -35.5079203287992
            ],
            [
              149.15108368422,
              -35.5081957484283
            ],
            [
              149.150958990187,
              -35.5087468409956
            ],
            [
              149.150861870247,
              -35.50911421267
            ],
            [
              149.150813648468,
              -35.5092913289154
            ],
            [
              149.15076284934,
              -35.5094678844286
            ],
            [
              149.15070734257,
              -35.509643415089
            ],
            [
              149.150651834474,
              -35.5098189457473
            ],
            [
              149.150591181801,
              -35.5099933574726
            ],
            [
              149.150528174623,
              -35.5101672576626
            ],
            [
              149.150464020608,
              -35.5103369017477
            ],
            [
              149.150400351171,
              -35.5105107100146
            ],
            [
              149.150331636187,
              -35.5106831054918
            ],
            [
              149.150260625975,
              -35.5108548576521
            ],
            [
              149.150186883978,
              -35.5110258444662
            ],
            [
              149.150112087529,
              -35.5111965363306
            ],
            [
              149.150019944595,
              -35.5113968997915
            ],
            [
              149.147608441677,
              -35.5166309905574
            ],
            [
              149.144994788069,
              -35.522303018227
            ],
            [
              149.144986964166,
              -35.5223199849619
            ],
            [
              149.141351370414,
              -35.5302030893889
            ],
            [
              149.138581680091,
              -35.5362075325087
            ],
            [
              149.138374172232,
              -35.5361435781321
            ],
            [
              149.13786516523,
              -35.5372467113382
            ],
            [
              149.138044447704,
              -35.5373721598553
            ],
            [
              149.135217044339,
              -35.543484389691
            ],
            [
              149.132749137663,
              -35.5488186534259
            ],
            [
              149.132669678778,
              -35.5489882607001
            ],
            [
              149.132593394944,
              -35.5491586897651
            ],
            [
              149.132522609666,
              -35.5493305413546
            ],
            [
              149.132454356442,
              -35.5495030494391
            ],
            [
              149.132386955894,
              -35.549675776779
            ],
            [
              149.132322508364,
              -35.5498492694606
            ],
            [
              149.132256588946,
              -35.5500223815898
            ],
            [
              149.132194264487,
              -35.5501964234932
            ],
            [
              149.13213299049,
              -35.5503707379527
            ],
            [
              149.132052152442,
              -35.55061714551
            ],
            [
              149.132003131634,
              -35.5507912449518
            ],
            [
              149.13195366975,
              -35.5509708132079
            ],
            [
              149.131909433069,
              -35.5511484716775
            ],
            [
              149.131868017953,
              -35.551326591348
            ],
            [
              149.131829425572,
              -35.5515051740042
            ],
            [
              149.131810345845,
              -35.5516033070548
            ],
            [
              149.131775342722,
              -35.5517824337876
            ],
            [
              149.131740339488,
              -35.5519615614116
            ],
            [
              149.13170622209,
              -35.5521407797278
            ],
            [
              149.131674960511,
              -35.552320291879
            ],
            [
              149.131647878797,
              -35.5525002349087
            ],
            [
              149.131625205925,
              -35.5526806318131
            ],
            [
              149.131604514011,
              -35.5528612325609
            ],
            [
              149.131591218012,
              -35.5530242872322
            ],
            [
              149.131453575065,
              -35.5536032182476
            ],
            [
              149.131450606601,
              -35.5544685025047
            ],
            [
              149.13157624652,
              -35.555035311151
            ],
            [
              149.13162193973,
              -35.5554503363413
            ],
            [
              149.131642671298,
              -35.5556309020982
            ],
            [
              149.131666041449,
              -35.5558112093329
            ],
            [
              149.131693168075,
              -35.5559911481251
            ],
            [
              149.131722484385,
              -35.5561708714877
            ],
            [
              149.131749104561,
              -35.5563154793779
            ],
            [
              149.131783413658,
              -35.5564946492472
            ],
            [
              149.131822746798,
              -35.5566730748702
            ],
            [
              149.131863610847,
              -35.5568512750715
            ],
            [
              149.131905125589,
              -35.5570293781023
            ],
            [
              149.131945220616,
              -35.5572000628935
            ],
            [
              149.135397887139,
              -35.5696357241447
            ],
            [
              149.135451182301,
              -35.5698275747428
            ],
            [
              149.135214146114,
              -35.5697932470368
            ],
            [
              149.13538604276,
              -35.5704120362508
            ],
            [
              149.135602409284,
              -35.5703719136734
            ],
            [
              149.135736980136,
              -35.5708563276768
            ],
            [
              149.135749751417,
              -35.5709022900508
            ],
            [
              149.135435402087,
              -35.5709326738775
            ],
            [
              149.134703119509,
              -35.5710034494959
            ],
            [
              149.134752251667,
              -35.5711802693518
            ],
            [
              149.135847941046,
              -35.5712559743037
            ],
            [
              149.1364801222,
              -35.5735385636895
            ],
            [
              149.137509720109,
              -35.5772545433606
            ],
            [
              149.138118135735,
              -35.5794418610516
            ],
            [
              149.138830050948,
              -35.5820035295559
            ],
            [
              149.138887769674,
              -35.5825504294642
            ],
            [
              149.139821343732,
              -35.5859086404771
            ],
            [
              149.140056156915,
              -35.5864234003458
            ],
            [
              149.1401686467,
              -35.5868280145606
            ],
            [
              149.140667592875,
              -35.5886150462427
            ],
            [
              149.140826717089,
              -35.5890855852274
            ],
            [
              149.141052590063,
              -35.5896952981419
            ],
            [
              149.141220481402,
              -35.5900863303999
            ],
            [
              149.141441172021,
              -35.5905538638905
            ],
            [
              149.141697265058,
              -35.5910375967057
            ],
            [
              149.142681708063,
              -35.5927889915978
            ],
            [
              149.138387341963,
              -35.5921978368334
            ],
            [
              149.135138838415,
              -35.5917505454102
            ],
            [
              149.135164590553,
              -35.5916303644144
            ],
            [
              149.130345398745,
              -35.5909785209386
            ],
            [
              149.130056210985,
              -35.5924023324771
            ],
            [
              149.126034901347,
              -35.5918520184902
            ],
            [
              149.126465389203,
              -35.5897304712329
            ],
            [
              149.125187663638,
              -35.5895574565036
            ],
            [
              149.125617469178,
              -35.5874884800501
            ],
            [
              149.123602393098,
              -35.587212576765
            ],
            [
              149.123566028364,
              -35.5873914164727
            ],
            [
              149.116245253823,
              -35.5863449787962
            ],
            [
              149.113892570862,
              -35.5853798868092
            ],
            [
              149.112471684468,
              -35.5851851547592
            ],
            [
              149.111086506493,
              -35.586759506121
            ],
            [
              149.110763697685,
              -35.5869293140384
            ],
            [
              149.110453152756,
              -35.5871328831061
            ],
            [
              149.110108249579,
              -35.5870714937171
            ],
            [
              149.10920143151,
              -35.5863244486971
            ],
            [
              149.108895996138,
              -35.5853847387125
            ],
            [
              149.109148041644,
              -35.5840858166158
            ],
            [
              149.108574459293,
              -35.5840098060504
            ],
            [
              149.108668852726,
              -35.5838065022952
            ],
            [
              149.108917193062,
              -35.5832751215964
            ],
            [
              149.109702738666,
              -35.5822577203401
            ],
            [
              149.110070925542,
              -35.5814147780198
            ],
            [
              149.110615547441,
              -35.5806061130361
            ],
            [
              149.110663936163,
              -35.5796102302702
            ],
            [
              149.110792364763,
              -35.5780510201165
            ],
            [
              149.110676651006,
              -35.5763917102435
            ],
            [
              149.1107512683,
              -35.5745898480549
            ],
            [
              149.110906832405,
              -35.5727765611681
            ],
            [
              149.11106372675,
              -35.5715840305078
            ],
            [
              149.110973719779,
              -35.5701877619717
            ],
            [
              149.110715548273,
              -35.5688265126856
            ],
            [
              149.11041258974,
              -35.5674535832256
            ],
            [
              149.110480377595,
              -35.5665382506223
            ],
            [
              149.110738114704,
              -35.5653749238333
            ],
            [
              149.110461665616,
              -35.5634961182542
            ],
            [
              149.110121875748,
              -35.5630778780987
            ],
            [
              149.109895879666,
              -35.5623688986565
            ],
            [
              149.109454530967,
              -35.5616945246912
            ],
            [
              149.108458125535,
              -35.5608673089641
            ],
            [
              149.107507602708,
              -35.5604777692622
            ],
            [
              149.106355832686,
              -35.5601981525177
            ],
            [
              149.105335979868,
              -35.5601060526884
            ],
            [
              149.104652772169,
              -35.5601392191984
            ],
            [
              149.104209516876,
              -35.559764481627
            ],
            [
              149.104108780093,
              -35.5586983304259
            ],
            [
              149.104281448385,
              -35.5572584981987
            ],
            [
              149.104076325637,
              -35.5558605999584
            ],
            [
              149.103628250383,
              -35.5548319396197
            ],
            [
              149.102903214644,
              -35.5538512576714
            ],
            [
              149.101965119001,
              -35.5527609666403
            ],
            [
              149.101715748635,
              -35.5516790644061
            ],
            [
              149.10185804559,
              -35.5504634814147
            ],
            [
              149.102471300647,
              -35.5494193076989
            ],
            [
              149.102718019001,
              -35.54849644817
            ],
            [
              149.103038365871,
              -35.5468847289134
            ],
            [
              149.103301795377,
              -35.544984662482
            ],
            [
              149.103251934016,
              -35.5432656241484
            ],
            [
              149.103017832446,
              -35.5417438256976
            ],
            [
              149.102316184824,
              -35.5402827693102
            ],
            [
              149.101702367008,
              -35.5391420242718
            ],
            [
              149.101027337077,
              -35.5381635435006
            ],
            [
              149.10032268752,
              -35.5375974795703
            ],
            [
              149.099397892166,
              -35.5373543031369
            ],
            [
              149.097725711849,
              -35.5372597396873
            ],
            [
              149.095903479084,
              -35.5370667580082
            ],
            [
              149.09451391504,
              -35.5367765628315
            ],
            [
              149.092732513599,
              -35.5364939224737
            ],
            [
              149.091526106963,
              -35.5360942476595
            ],
            [
              149.090408725984,
              -35.5351830582016
            ],
            [
              149.089637495023,
              -35.5341961954092
            ],
            [
              149.088921937316,
              -35.5327394844205
            ],
            [
              149.08868837237,
              -35.532352652749
            ],
            [
              149.088202997972,
              -35.5319683300527
            ],
            [
              149.087268310967,
              -35.5316529690326
            ],
            [
              149.086223849435,
              -35.5314817756036
            ],
            [
              149.08536762272,
              -35.5313454231236
            ],
            [
              149.083989784886,
              -35.5308315051964
            ],
            [
              149.082452425826,
              -35.5301869010822
            ],
            [
              149.08089248266,
              -35.5296567459631
            ],
            [
              149.080272231819,
              -35.5295387814664
            ],
            [
              149.079694237777,
              -35.5293290452741
            ],
            [
              149.079144803766,
              -35.5289953717029
            ],
            [
              149.078735374699,
              -35.5287742678326
            ],
            [
              149.078306241769,
              -35.528585797398
            ],
            [
              149.077431888057,
              -35.5279509323359
            ],
            [
              149.076779603208,
              -35.5272083301139
            ],
            [
              149.076581838327,
              -35.5265657790074
            ],
            [
              149.076538323176,
              -35.5259417067459
            ],
            [
              149.076714935376,
              -35.524888798974
            ],
            [
              149.076683522677,
              -35.5238400627841
            ],
            [
              149.076393359475,
              -35.521971898484
            ],
            [
              149.076269490684,
              -35.5208223663951
            ],
            [
              149.076215282801,
              -35.5199267601815
            ],
            [
              149.076146580738,
              -35.5193635329679
            ],
            [
              149.076010956394,
              -35.5185192518608
            ],
            [
              149.075734785495,
              -35.5178051837733
            ],
            [
              149.07543043108,
              -35.5172635343673
            ],
            [
              149.075255169042,
              -35.5165955529227
            ],
            [
              149.075065743711,
              -35.5159946293487
            ],
            [
              149.075161832781,
              -35.5156853668489
            ],
            [
              149.075022724455,
              -35.5151458797534
            ],
            [
              149.074651836019,
              -35.5142301669322
            ],
            [
              149.074050535735,
              -35.5133923513574
            ],
            [
              149.073247557062,
              -35.512581677408
            ],
            [
              149.07282018089,
              -35.5118378514995
            ],
            [
              149.072557436798,
              -35.5114544272534
            ],
            [
              149.071713619025,
              -35.5100978918103
            ],
            [
              149.071224929548,
              -35.509278658784
            ],
            [
              149.07065776924,
              -35.5084543272269
            ],
            [
              149.070062326543,
              -35.5076716431768
            ],
            [
              149.069819241892,
              -35.5073067688298
            ],
            [
              149.069240710486,
              -35.5065675116161
            ],
            [
              149.068740810073,
              -35.5057273660496
            ],
            [
              149.068406466128,
              -35.5048921836467
            ],
            [
              149.068147350142,
              -35.5042862354885
            ],
            [
              149.067776367402,
              -35.5035198317942
            ],
            [
              149.067679561131,
              -35.5030084334793
            ],
            [
              149.067333422619,
              -35.502445874025
            ],
            [
              149.067068833394,
              -35.5017142951525
            ],
            [
              149.066597753417,
              -35.5007231698222
            ],
            [
              149.066118033998,
              -35.4998120765191
            ],
            [
              149.065812196753,
              -35.4988507003921
            ],
            [
              149.06567190128,
              -35.4978994305252
            ],
            [
              149.06594648632,
              -35.4968910087264
            ],
            [
              149.066699915826,
              -35.4960694552918
            ],
            [
              149.067727645545,
              -35.4954341378029
            ],
            [
              149.068499838757,
              -35.494997206927
            ],
            [
              149.068952309218,
              -35.4945305985944
            ],
            [
              149.069427149831,
              -35.4940685746375
            ],
            [
              149.069838072649,
              -35.4934639160737
            ],
            [
              149.070153751777,
              -35.4928250572156
            ],
            [
              149.070270237786,
              -35.4922499247191
            ],
            [
              149.070479641378,
              -35.4915602888467
            ],
            [
              149.070512734961,
              -35.4907328550285
            ],
            [
              149.070204587929,
              -35.4896549613728
            ],
            [
              149.069478598956,
              -35.4887230937308
            ],
            [
              149.068981515326,
              -35.488119517738
            ],
            [
              149.068470000252,
              -35.4876601422566
            ],
            [
              149.067760551326,
              -35.4868448762365
            ],
            [
              149.067377981016,
              -35.4863972401558
            ],
            [
              149.067138595647,
              -35.4858600418536
            ],
            [
              149.066835816384,
              -35.4849567046033
            ],
            [
              149.066555915571,
              -35.4839885565158
            ],
            [
              149.066404004193,
              -35.4832591732386
            ],
            [
              149.066392613702,
              -35.4824204950446
            ],
            [
              149.066339607022,
              -35.4814714349094
            ],
            [
              149.066235627882,
              -35.4807375221859
            ],
            [
              149.065943769723,
              -35.4799688206798
            ],
            [
              149.06557580655,
              -35.4793927461355
            ],
            [
              149.064748668829,
              -35.478723964947
            ],
            [
              149.064228010072,
              -35.4783045902943
            ],
            [
              149.06354965212,
              -35.4778260730155
            ],
            [
              149.062582627689,
              -35.4771635589334
            ],
            [
              149.061826642145,
              -35.4765578121047
            ],
            [
              149.061124224707,
              -35.4759700626515
            ],
            [
              149.06040209898,
              -35.4752122546948
            ],
            [
              149.059929887651,
              -35.4743235700564
            ],
            [
              149.059679702502,
              -35.473466964616
            ],
            [
              149.059842829377,
              -35.4725251104207
            ],
            [
              149.060226352387,
              -35.4716817574291
            ],
            [
              149.060769271489,
              -35.470824726738
            ],
            [
              149.061361492653,
              -35.4699035943319
            ],
            [
              149.061817805149,
              -35.4690590332944
            ],
            [
              149.062178362083,
              -35.4681931528956
            ],
            [
              149.062530414908,
              -35.4676409946187
            ],
            [
              149.063063420874,
              -35.4670295428633
            ],
            [
              149.063456291888,
              -35.4660875800426
            ],
            [
              149.06386600558,
              -35.4646527247053
            ],
            [
              149.063790331213,
              -35.4631888870098
            ],
            [
              149.063009930745,
              -35.461961848199
            ],
            [
              149.06190482017,
              -35.4609044671211
            ],
            [
              149.06057739836,
              -35.4602888648776
            ],
            [
              149.059114699075,
              -35.4596225643467
            ],
            [
              149.057508957557,
              -35.4586233868519
            ],
            [
              149.05621775657,
              -35.4576635411224
            ],
            [
              149.055396776927,
              -35.4568341816202
            ],
            [
              149.054773505065,
              -35.455768168751
            ],
            [
              149.054600519718,
              -35.4544912750845
            ],
            [
              149.054877306304,
              -35.4533003715382
            ],
            [
              149.055305894595,
              -35.4519753948117
            ],
            [
              149.056099584965,
              -35.4510310470832
            ],
            [
              149.057424861036,
              -35.4503878567366
            ],
            [
              149.058787795358,
              -35.4503061954849
            ],
            [
              149.059931854799,
              -35.4505383299839
            ],
            [
              149.061809317045,
              -35.4508929762278
            ],
            [
              149.063059097339,
              -35.4512427362987
            ],
            [
              149.063938230083,
              -35.4515448865688
            ],
            [
              149.064838114991,
              -35.4515850313143
            ],
            [
              149.06669029417,
              -35.4521001223158
            ],
            [
              149.06843850639,
              -35.4524422898704
            ],
            [
              149.070030221029,
              -35.4526414838492
            ],
            [
              149.071453269734,
              -35.4526390482157
            ],
            [
              149.072766234519,
              -35.4524310818966
            ],
            [
              149.073746226115,
              -35.4520785407243
            ],
            [
              149.074236526831,
              -35.4516006247833
            ],
            [
              149.074484625317,
              -35.4507178225765
            ],
            [
              149.074460054443,
              -35.4496110294627
            ],
            [
              149.074692215195,
              -35.4487783436418
            ],
            [
              149.074520191428,
              -35.4475634823445
            ],
            [
              149.074511389664,
              -35.4460714025914
            ],
            [
              149.074308818082,
              -35.4452051550013
            ],
            [
              149.073639643967,
              -35.4442293854469
            ],
            [
              149.072939979606,
              -35.4431122240098
            ],
            [
              149.072541152705,
              -35.4420670004426
            ],
            [
              149.071920154797,
              -35.4409532157997
            ],
            [
              149.071389209553,
              -35.440207627358
            ],
            [
              149.070885098745,
              -35.4395461080461
            ],
            [
              149.070505726564,
              -35.4389750974605
            ],
            [
              149.070572275343,
              -35.4384382875251
            ],
            [
              149.07037976091,
              -35.4378305911325
            ],
            [
              149.070161218962,
              -35.4371682925191
            ],
            [
              149.069826895151,
              -35.4364412529516
            ],
            [
              149.069279152319,
              -35.435846800051
            ],
            [
              149.068578058898,
              -35.4353024387214
            ],
            [
              149.067821038783,
              -35.4349186104027
            ],
            [
              149.067187007506,
              -35.434350595986
            ],
            [
              149.066557124609,
              -35.4338743224173
            ],
            [
              149.065927238639,
              -35.4332258183954
            ],
            [
              149.065109618002,
              -35.4327423244735
            ],
            [
              149.064721958405,
              -35.4325059285203
            ],
            [
              149.064105735591,
              -35.4319970102416
            ],
            [
              149.063473483281,
              -35.4313804881047
            ],
            [
              149.063093284169,
              -35.4309215677958
            ],
            [
              149.063077917799,
              -35.4305002466022
            ],
            [
              149.062950237333,
              -35.4300773526481
            ],
            [
              149.062586781113,
              -35.4294466472817
            ],
            [
              149.062474448102,
              -35.4290810647992
            ],
            [
              149.062123613555,
              -35.4288806932853
            ],
            [
              149.061462849466,
              -35.4287277696007
            ],
            [
              149.060854007617,
              -35.428491456152
            ],
            [
              149.060278527797,
              -35.4282483651828
            ],
            [
              149.059638857036,
              -35.428182212707
            ],
            [
              149.059154598748,
              -35.428368789051
            ],
            [
              149.058678355107,
              -35.4285205726981
            ],
            [
              149.058222654682,
              -35.4284159437843
            ],
            [
              149.057492440965,
              -35.4282934888192
            ],
            [
              149.05655830963,
              -35.4283659565178
            ],
            [
              149.055870707426,
              -35.4286208228157
            ],
            [
              149.055009164674,
              -35.4283575395324
            ],
            [
              149.054113816328,
              -35.4280812849187
            ],
            [
              149.053008399046,
              -35.4276282763065
            ],
            [
              149.052043991686,
              -35.4270749007965
            ],
            [
              149.051505585608,
              -35.4266982827382
            ],
            [
              149.05132856216,
              -35.426331090092
            ],
            [
              149.051215495177,
              -35.4259311590475
            ],
            [
              149.051103797709,
              -35.4256225236743
            ],
            [
              149.051237965859,
              -35.4250986780084
            ],
            [
              149.051324114438,
              -35.4245494338011
            ],
            [
              149.051620566878,
              -35.4242231723466
            ],
            [
              149.051891354301,
              -35.423882318617
            ],
            [
              149.052254537635,
              -35.4229572490185
            ],
            [
              149.052194391316,
              -35.4220672976687
            ],
            [
              149.052749522073,
              -35.4210368938604
            ],
            [
              149.053288417615,
              -35.4203472510363
            ],
            [
              149.05394701976,
              -35.4197256961074
            ],
            [
              149.054252005193,
              -35.4191533856744
            ],
            [
              149.054738666605,
              -35.4182249283123
            ],
            [
              149.054824997361,
              -35.4172723762233
            ],
            [
              149.054694925376,
              -35.4162004908805
            ],
            [
              149.054468030902,
              -35.4152289489731
            ],
            [
              149.054000050131,
              -35.4142703844978
            ],
            [
              149.053471277411,
              -35.4138549263844
            ],
            [
              149.052723337605,
              -35.413676031377
            ],
            [
              149.051854623326,
              -35.4139011087261
            ],
            [
              149.051098621914,
              -35.4140956796134
            ],
            [
              149.050333833334,
              -35.4141184725679
            ],
            [
              149.049818062214,
              -35.4143473814328
            ],
            [
              149.048184003857,
              -35.4146273019823
            ],
            [
              149.047578841675,
              -35.4146488540564
            ],
            [
              149.047085766313,
              -35.414465427114
            ],
            [
              149.045868731149,
              -35.4137864465363
            ],
            [
              149.044809345809,
              -35.4130629765028
            ],
            [
              149.044272385275,
              -35.4124255051
            ],
            [
              149.04391064294,
              -35.4116719022902
            ],
            [
              149.043545993822,
              -35.4113177285703
            ],
            [
              149.043228481266,
              -35.411002924681
            ],
            [
              149.042822108864,
              -35.4106341600103
            ],
            [
              149.042145225013,
              -35.4101780481289
            ],
            [
              149.041628691833,
              -35.4098706834404
            ],
            [
              149.040944210312,
              -35.4099395389517
            ],
            [
              149.040043534705,
              -35.4100456668596
            ],
            [
              149.039475336345,
              -35.4102119983501
            ],
            [
              149.03869090993,
              -35.4100257253665
            ],
            [
              149.038042754248,
              -35.4101019455168
            ],
            [
              149.03692413205,
              -35.4099675602785
            ],
            [
              149.036047503848,
              -35.4095734642127
            ],
            [
              149.035376065244,
              -35.409129209727
            ],
            [
              149.034891196883,
              -35.4089428465397
            ],
            [
              149.034540960662,
              -35.4087536591957
            ],
            [
              149.033944733705,
              -35.4083398417995
            ],
            [
              149.033161467506,
              -35.4082543810299
            ],
            [
              149.032060149683,
              -35.4076861809174
            ],
            [
              149.03084932635,
              -35.4071513350133
            ],
            [
              149.029730980677,
              -35.4065967253445
            ],
            [
              149.028813129297,
              -35.4061428310883
            ],
            [
              149.028043176185,
              -35.4059103429754
            ],
            [
              149.027074286306,
              -35.4060479277576
            ],
            [
              149.0260633442,
              -35.4062029954383
            ],
            [
              149.024873909591,
              -35.4060995113854
            ],
            [
              149.024262061951,
              -35.4059671955138
            ],
            [
              149.024009584925,
              -35.4056140305026
            ],
            [
              149.023561023653,
              -35.4050497266039
            ],
            [
              149.023042379569,
              -35.4046728869057
            ],
            [
              149.021949626636,
              -35.4039046974981
            ],
            [
              149.021103517012,
              -35.4035014779628
            ],
            [
              149.020567836537,
              -35.4031477914725
            ],
            [
              149.019624210653,
              -35.4027114033658
            ],
            [
              149.018576576528,
              -35.4022923207861
            ],
            [
              149.01760116654,
              -35.4019155825207
            ],
            [
              149.016990436581,
              -35.4015190755815
            ],
            [
              149.016277478838,
              -35.4013946573518
            ],
            [
              149.015258275883,
              -35.4009440905159
            ],
            [
              149.014533635931,
              -35.4004799842587
            ],
            [
              149.013879349998,
              -35.4001815190458
            ],
            [
              149.013169371332,
              -35.3998508774566
            ],
            [
              149.012314220332,
              -35.3996672290677
            ],
            [
              149.011535465008,
              -35.3996182175079
            ],
            [
              149.010692643345,
              -35.3991895992545
            ],
            [
              149.010359456793,
              -35.3988702019295
            ],
            [
              149.009920714307,
              -35.3985029483766
            ],
            [
              149.009275487264,
              -35.3977758279057
            ],
            [
              149.008641389169,
              -35.3969567764298
            ],
            [
              149.008040762348,
              -35.3962729984366
            ],
            [
              149.007711455383,
              -35.3956860154305
            ],
            [
              149.007726770987,
              -35.3948816565816
            ],
            [
              149.007999524165,
              -35.3941212817581
            ],
            [
              149.008274247085,
              -35.3937776404799
            ],
            [
              149.008632835247,
              -35.3935011421216
            ],
            [
              149.009366624242,
              -35.3931237037426
            ],
            [
              149.010125499861,
              -35.3927687911288
            ],
            [
              149.010497176207,
              -35.3925869173649
            ],
            [
              149.010865660705,
              -35.3924961580803
            ],
            [
              149.011871501913,
              -35.3921740375812
            ],
            [
              149.012733268332,
              -35.3919215784115
            ],
            [
              149.013349371617,
              -35.3915926960987
            ],
            [
              149.013490448027,
              -35.3911837066232
            ],
            [
              149.013979078125,
              -35.3905758909639
            ],
            [
              149.01445503975,
              -35.3899016511707
            ],
            [
              149.014588510015,
              -35.3894392174319
            ],
            [
              149.014377061892,
              -35.3889733735621
            ],
            [
              149.014260695006,
              -35.3883571082704
            ],
            [
              149.014199632909,
              -35.3881076427823
            ],
            [
              149.034456691602,
              -35.3753221889871
            ],
            [
              149.033051221874,
              -35.3607877825212
            ],
            [
              149.034304871215,
              -35.360594501324
            ],
            [
              149.035837533487,
              -35.3607372241978
            ],
            [
              149.037148434954,
              -35.3613693840858
            ],
            [
              149.041023939042,
              -35.3621105969909
            ],
            [
              149.041515107356,
              -35.3623178577374
            ],
            [
              149.041933897104,
              -35.3627672755352
            ],
            [
              149.041341634493,
              -35.3634606263527
            ],
            [
              149.042241392143,
              -35.3650446637205
            ],
            [
              149.042491846701,
              -35.3651233382957
            ],
            [
              149.04249079402,
              -35.3651255873048
            ],
            [
              149.042740068809,
              -35.3652184357392
            ],
            [
              149.043216626759,
              -35.3649504414415
            ],
            [
              149.044059596675,
              -35.3645473404217
            ],
            [
              149.044884326422,
              -35.3637696306987
            ],
            [
              149.045435589103,
              -35.3636857699663
            ],
            [
              149.04669609977,
              -35.364317990982
            ],
            [
              149.04847352101,
              -35.3645168643869
            ]
          ]
        ]
      },
      "properties": {
        "OBJECTID": 44,
        "DISTRICT_CODE": 6,
        "DISTRICT_NAME": "TUGGERANONG",
        "DISTRICT_SHORT": "TUGG",
        "ID": 16,
        "LAST_UPDATE_DATE": "Mon, 29 Aug 1994 00:00:00 GMT",
        "GlobalID": "f9ca3583-4623-4274-88eb-b1caee1aed0a"
      }
    }
}