{
  "type": "FeatureCollection",
  "crs": {
    "type": "name",
    "properties": {
      "name": "EPSG:4326"
    }
  },
  "features": 
    {
      "type": "Feature",
      "id": 42,
      "geometry": {
        "type": "Polygon",
        "coordinates": [
          [
            [
              149.039643494133,
              -35.3270817815155
            ],
            [
              149.039941918688,
              -35.3270985301763
            ],
            [
              149.040241023231,
              -35.32709576879
            ],
            [
              149.040538911557,
              -35.3270735148698
            ],
            [
              149.040833695175,
              -35.3270319095038
            ],
            [
              149.041123505286,
              -35.3269712164595
            ],
            [
              149.041228420762,
              -35.3269441807273
            ],
            [
              149.041487000709,
              -35.3268654021645
            ],
            [
              149.041737831908,
              -35.3267712902181
            ],
            [
              149.041979562681,
              -35.3266623520541
            ],
            [
              149.042073086325,
              -35.3266149267356
            ],
            [
              149.042246172272,
              -35.32651859332
            ],
            [
              149.042412448015,
              -35.3264145150132
            ],
            [
              149.042571398186,
              -35.3263030144218
            ],
            [
              149.042629303343,
              -35.3262591353117
            ],
            [
              149.042686071814,
              -35.3262142697363
            ],
            [
              149.042741678583,
              -35.3261684374673
            ],
            [
              149.042858741377,
              -35.3260699067844
            ],
            [
              149.0430735509,
              -35.3258891021072
            ],
            [
              149.043613145543,
              -35.3254349218275
            ],
            [
              149.044009933241,
              -35.325100937833
            ],
            [
              149.044257907636,
              -35.3252988067672
            ],
            [
              149.044494381349,
              -35.325487496785
            ],
            [
              149.044743702939,
              -35.3256864372071
            ],
            [
              149.044959333707,
              -35.3258584945727
            ],
            [
              149.044974389918,
              -35.3258704549923
            ],
            [
              149.044989491767,
              -35.3258823767076
            ],
            [
              149.045004639104,
              -35.3258942596015
            ],
            [
              149.045418028359,
              -35.3261917618358
            ],
            [
              149.045859998938,
              -35.3264602551851
            ],
            [
              149.046327528606,
              -35.3266979035332
            ],
            [
              149.046429574776,
              -35.3267441402147
            ],
            [
              149.04653259402,
              -35.3267889042517
            ],
            [
              149.046636554699,
              -35.3268321818955
            ],
            [
              149.047123152818,
              -35.3270108158996
            ],
            [
              149.047625644197,
              -35.3271569421824
            ],
            [
              149.048140801188,
              -35.3272696221352
            ],
            [
              149.048665314743,
              -35.3273481319869
            ],
            [
              149.049195815679,
              -35.3273919674555
            ],
            [
              149.04972002038,
              -35.3274009860162
            ],
            [
              149.050243463583,
              -35.3273761461364
            ],
            [
              149.050762893924,
              -35.3273176021308
            ],
            [
              149.051275084981,
              -35.3272257176658
            ],
            [
              149.051272221796,
              -35.3272169766154
            ],
            [
              149.050588143917,
              -35.3251281999744
            ],
            [
              149.052151673798,
              -35.3240520598723
            ],
            [
              149.051923507885,
              -35.3219252176271
            ],
            [
              149.052999978957,
              -35.3177658577781
            ],
            [
              149.05355646907,
              -35.3175324113004
            ],
            [
              149.054160720833,
              -35.317374469147
            ],
            [
              149.054780712022,
              -35.3172475214581
            ],
            [
              149.055373009153,
              -35.3171532062806
            ],
            [
              149.055987870224,
              -35.3170988962368
            ],
            [
              149.05673082579,
              -35.3168450843445
            ],
            [
              149.057445122519,
              -35.316295668078
            ],
            [
              149.057528554424,
              -35.3160652743136
            ],
            [
              149.057618410396,
              -35.3157300615998
            ],
            [
              149.05786568844,
              -35.3155192499688
            ],
            [
              149.058135328217,
              -35.3153783652707
            ],
            [
              149.058613047766,
              -35.3151252799458
            ],
            [
              149.059226929226,
              -35.3149368457376
            ],
            [
              149.060139682085,
              -35.3145962428437
            ],
            [
              149.060776747138,
              -35.3143931908375
            ],
            [
              149.061914511353,
              -35.3139680312647
            ],
            [
              149.062609181421,
              -35.3137615196455
            ],
            [
              149.063073304754,
              -35.3136030542985
            ],
            [
              149.06345392862,
              -35.3133803652987
            ],
            [
              149.064128476705,
              -35.3130235250934
            ],
            [
              149.064864095469,
              -35.3124221423519
            ],
            [
              149.065967537177,
              -35.3118853848129
            ],
            [
              149.06645357249,
              -35.3114818439596
            ],
            [
              149.06675036593,
              -35.3113746349996
            ],
            [
              149.067052466306,
              -35.3111560270865
            ],
            [
              149.067407835662,
              -35.3110116556227
            ],
            [
              149.067818602154,
              -35.3105393807563
            ],
            [
              149.068072932701,
              -35.3104091161135
            ],
            [
              149.068262869921,
              -35.310179203673
            ],
            [
              149.068524444376,
              -35.3100337933424
            ],
            [
              149.06887614159,
              -35.3098409328538
            ],
            [
              149.06904824816,
              -35.309590749433
            ],
            [
              149.069320388781,
              -35.3093146507326
            ],
            [
              149.069672374171,
              -35.309073389569
            ],
            [
              149.069878553486,
              -35.3088124635
            ],
            [
              149.070518096118,
              -35.3079046674951
            ],
            [
              149.070520109048,
              -35.3078027345289
            ],
            [
              149.070624119356,
              -35.3075125680967
            ],
            [
              149.070785681903,
              -35.3071446834989
            ],
            [
              149.070800901662,
              -35.3066259125771
            ],
            [
              149.070858610055,
              -35.3063177446071
            ],
            [
              149.070958656467,
              -35.3061689858742
            ],
            [
              149.07104117896,
              -35.3058191670405
            ],
            [
              149.071020277779,
              -35.3055138323055
            ],
            [
              149.071160760358,
              -35.3051915610114
            ],
            [
              149.071194783991,
              -35.3049696549503
            ],
            [
              149.071175687666,
              -35.3047251532612
            ],
            [
              149.071075043852,
              -35.3042295146647
            ],
            [
              149.070886588545,
              -35.303773394762
            ],
            [
              149.070775764757,
              -35.3033323763868
            ],
            [
              149.070798868092,
              -35.3027725041016
            ],
            [
              149.07083967552,
              -35.3025076938754
            ],
            [
              149.070948717772,
              -35.3019032557466
            ],
            [
              149.07122266085,
              -35.3011505674661
            ],
            [
              149.071572490578,
              -35.300585930598
            ],
            [
              149.071709549558,
              -35.3004016434838
            ],
            [
              149.071784598972,
              -35.3002095463404
            ],
            [
              149.071848053702,
              -35.2999515740746
            ],
            [
              149.071936610522,
              -35.2997425269928
            ],
            [
              149.072064207356,
              -35.299558511643
            ],
            [
              149.072437342855,
              -35.2997475180025
            ],
            [
              149.073526103902,
              -35.3002990043475
            ],
            [
              149.073602233425,
              -35.3003414341954
            ],
            [
              149.073673563243,
              -35.3003891412136
            ],
            [
              149.073739550667,
              -35.3004417624433
            ],
            [
              149.073799693649,
              -35.3004988975379
            ],
            [
              149.073853534603,
              -35.3005601118075
            ],
            [
              149.073900663887,
              -35.3006249395272
            ],
            [
              149.07394072292,
              -35.3006928874792
            ],
            [
              149.07397340691,
              -35.3007634387056
            ],
            [
              149.07399846717,
              -35.3008360564407
            ],
            [
              149.07401571302,
              -35.3009101881958
            ],
            [
              149.074025013226,
              -35.3009852699611
            ],
            [
              149.074026297009,
              -35.3010607304978
            ],
            [
              149.07401955458,
              -35.3011359956837
            ],
            [
              149.074004837214,
              -35.3012104928813
            ],
            [
              149.073982256863,
              -35.3012836552945
            ],
            [
              149.073951985305,
              -35.3013549262811
            ],
            [
              149.073914252835,
              -35.3014237635881
            ],
            [
              149.073869346516,
              -35.3014896434772
            ],
            [
              149.073155140484,
              -35.3024377747286
            ],
            [
              149.073041051957,
              -35.3026051467698
            ],
            [
              149.072945193055,
              -35.3027800337923
            ],
            [
              149.07286829354,
              -35.3029611046301
            ],
            [
              149.072810938871,
              -35.3031469810393
            ],
            [
              149.072773565751,
              -35.3033362481881
            ],
            [
              149.072756458795,
              -35.303527465425
            ],
            [
              149.072759748362,
              -35.3037191772453
            ],
            [
              149.072783409555,
              -35.3039099243688
            ],
            [
              149.072827262411,
              -35.3040982548489
            ],
            [
              149.072890973261,
              -35.3042827351241
            ],
            [
              149.07297405727,
              -35.3044619609317
            ],
            [
              149.073075882123,
              -35.3046345679969
            ],
            [
              149.073195672834,
              -35.3047992424193
            ],
            [
              149.073332517641,
              -35.3049547306755
            ],
            [
              149.077204170468,
              -35.308971857389
            ],
            [
              149.077527340255,
              -35.3092826158692
            ],
            [
              149.077877833241,
              -35.3095727944168
            ],
            [
              149.078253705039,
              -35.309840783032
            ],
            [
              149.082686633691,
              -35.3127707581976
            ],
            [
              149.082687040891,
              -35.3127703824685
            ],
            [
              149.082984745686,
              -35.3129671385547
            ],
            [
              149.082220163028,
              -35.313225839453
            ],
            [
              149.081482333107,
              -35.3135323248109
            ],
            [
              149.08077569281,
              -35.3138847517853
            ],
            [
              149.079415234041,
              -35.3146239703178
            ],
            [
              149.078273914058,
              -35.3151531271008
            ],
            [
              149.077082776303,
              -35.3156025210591
            ],
            [
              149.07585010038,
              -35.3159690280347
            ],
            [
              149.074584455064,
              -35.3162501000213
            ],
            [
              149.070893708722,
              -35.3169357088109
            ],
            [
              149.070034982662,
              -35.317128348756
            ],
            [
              149.069200417728,
              -35.3173825085372
            ],
            [
              149.068396560014,
              -35.3176961947398
            ],
            [
              149.067629714979,
              -35.3180669470264
            ],
            [
              149.066905898016,
              -35.3184918574175
            ],
            [
              149.066180203502,
              -35.3189590633165
            ],
            [
              149.066171555747,
              -35.3189646309711
            ],
            [
              149.066140382237,
              -35.3189847002951
            ],
            [
              149.065940774306,
              -35.3191099320418
            ],
            [
              149.065737408146,
              -35.3192310341877
            ],
            [
              149.065530410904,
              -35.3193479310082
            ],
            [
              149.06546908723,
              -35.3193813762865
            ],
            [
              149.065407466184,
              -35.3194144524034
            ],
            [
              149.065345551074,
              -35.319447157583
            ],
            [
              149.065332611862,
              -35.3194539261814
            ],
            [
              149.065319660054,
              -35.3194606785792
            ],
            [
              149.06530669568,
              -35.3194674147606
            ],
            [
              149.064805692119,
              -35.3197109297545
            ],
            [
              149.064288320291,
              -35.3199302544318
            ],
            [
              149.063756317072,
              -35.3201246524236
            ],
            [
              149.063614456391,
              -35.3201714711193
            ],
            [
              149.063471742883,
              -35.3202165153445
            ],
            [
              149.063328209591,
              -35.3202597746692
            ],
            [
              149.063291719434,
              -35.3209722696362
            ],
            [
              149.063001357468,
              -35.3266260514162
            ],
            [
              149.062980840464,
              -35.328894739192
            ],
            [
              149.06315210349,
              -35.3311591431173
            ],
            [
              149.063514339991,
              -35.3334083880695
            ],
            [
              149.063529294031,
              -35.3334810818806
            ],
            [
              149.063544447802,
              -35.3335537479126
            ],
            [
              149.063559801225,
              -35.3336263857973
            ],
            [
              149.064213346709,
              -35.3361195778178
            ],
            [
              149.065101764989,
              -35.3385635171957
            ],
            [
              149.06621968483,
              -35.3409433714707
            ],
            [
              149.068322781984,
              -35.3449475056094
            ],
            [
              149.068696907071,
              -35.3457060505192
            ],
            [
              149.069029265446,
              -35.3464775427358
            ],
            [
              149.069319191165,
              -35.3472604391692
            ],
            [
              149.069411816325,
              -35.3475408772236
            ],
            [
              149.069498993812,
              -35.3478224851897
            ],
            [
              149.06958070158,
              -35.348105192031
            ],
            [
              149.069596427554,
              -35.3481620133932
            ],
            [
              149.06961193255,
              -35.3482188755068
            ],
            [
              149.06962721641,
              -35.3482757777949
            ],
            [
              149.06969196389,
              -35.3485271285554
            ],
            [
              149.069752396274,
              -35.3487791995831
            ],
            [
              149.069808501598,
              -35.3490319411514
            ],
            [
              149.070046649989,
              -35.3504957590852
            ],
            [
              149.07013989469,
              -35.351970545461
            ],
            [
              149.070087620038,
              -35.3534466876048
            ],
            [
              149.069890158845,
              -35.3549145634886
            ],
            [
              149.069548790433,
              -35.3563646044485
            ],
            [
              149.069276983606,
              -35.3572309577801
            ],
            [
              149.06896170295,
              -35.3580873691939
            ],
            [
              149.068603485773,
              -35.3589323754083
            ],
            [
              149.067770034185,
              -35.360566149965
            ],
            [
              149.066776298154,
              -35.3621386352237
            ],
            [
              149.065628922737,
              -35.3636393012884
            ],
            [
              149.064335583045,
              -35.3650580985799
            ],
            [
              149.062904933021,
              -35.3663855252156
            ],
            [
              149.062893929723,
              -35.3663855301222
            ],
            [
              149.062027567537,
              -35.3663863762481
            ],
            [
              149.06176764002,
              -35.366492980395
            ],
            [
              149.061260261904,
              -35.3667010690956
            ],
            [
              149.059636512165,
              -35.3668867179624
            ],
            [
              149.05873685046,
              -35.366875295363
            ],
            [
              149.057051075933,
              -35.3662473026477
            ],
            [
              149.05635806699,
              -35.3656600306303
            ],
            [
              149.056143772791,
              -35.3655376979071
            ],
            [
              149.055670470458,
              -35.3654084796983
            ],
            [
              149.055357064922,
              -35.3649961997684
            ],
            [
              149.054936890706,
              -35.3653257910758
            ],
            [
              149.05418960457,
              -35.3655866165331
            ],
            [
              149.051441904861,
              -35.3659844907752
            ],
            [
              149.051254162864,
              -35.3655533802568
            ],
            [
              149.051023185498,
              -35.3651365960908
            ],
            [
              149.050750582491,
              -35.3647370417812
            ],
            [
              149.05043825347,
              -35.3643575007623
            ],
            [
              149.049840688377,
              -35.3636925178172
            ],
            [
              149.04847352101,
              -35.3645168643869
            ],
            [
              149.04669609977,
              -35.364317990982
            ],
            [
              149.045435589103,
              -35.3636857699663
            ],
            [
              149.044884326422,
              -35.3637696306987
            ],
            [
              149.044059596675,
              -35.3645473404217
            ],
            [
              149.043216626759,
              -35.3649504414415
            ],
            [
              149.042740068809,
              -35.3652184357392
            ],
            [
              149.04249079402,
              -35.3651255873048
            ],
            [
              149.042491846701,
              -35.3651233382957
            ],
            [
              149.042241392143,
              -35.3650446637205
            ],
            [
              149.041341634493,
              -35.3634606263527
            ],
            [
              149.041933897104,
              -35.3627672755352
            ],
            [
              149.041515107356,
              -35.3623178577374
            ],
            [
              149.041023939042,
              -35.3621105969909
            ],
            [
              149.037148434954,
              -35.3613693840858
            ],
            [
              149.035837533487,
              -35.3607372241978
            ],
            [
              149.034304871215,
              -35.360594501324
            ],
            [
              149.033051221874,
              -35.3607877825212
            ],
            [
              149.032283084959,
              -35.3587732723388
            ],
            [
              149.032884757225,
              -35.3581833881063
            ],
            [
              149.031399347262,
              -35.3562760757166
            ],
            [
              149.03145365615,
              -35.3561143723804
            ],
            [
              149.031845206591,
              -35.354972004025
            ],
            [
              149.03157969189,
              -35.3547708463723
            ],
            [
              149.031296711483,
              -35.3544745784583
            ],
            [
              149.028971647532,
              -35.3536827752448
            ],
            [
              149.027178837199,
              -35.3535157078718
            ],
            [
              149.027083904645,
              -35.353503391842
            ],
            [
              149.026990634488,
              -35.3534843741535
            ],
            [
              149.026899730226,
              -35.3534587982481
            ],
            [
              149.026811877511,
              -35.3534268570334
            ],
            [
              149.026727738974,
              -35.3533887914279
            ],
            [
              149.02664794923,
              -35.3533448885432
            ],
            [
              149.026573110092,
              -35.3532954795187
            ],
            [
              149.026503786029,
              -35.3532409370236
            ],
            [
              149.026440499907,
              -35.3531816724461
            ],
            [
              149.026383729051,
              -35.3531181327895
            ],
            [
              149.026333901639,
              -35.3530507973016
            ],
            [
              149.026291393476,
              -35.3529801738586
            ],
            [
              149.02625652516,
              -35.3529067951352
            ],
            [
              149.026229559662,
              -35.3528312145861
            ],
            [
              149.026210700346,
              -35.3527540022718
            ],
            [
              149.026200089433,
              -35.3526757405584
            ],
            [
              149.02619780693,
              -35.3525970197257
            ],
            [
              149.026203870029,
              -35.3525184335145
            ],
            [
              149.026218232975,
              -35.3524405746486
            ],
            [
              149.026240787416,
              -35.3523640303641
            ],
            [
              149.026271363215,
              -35.3522893779805
            ],
            [
              149.026309729739,
              -35.3522171805466
            ],
            [
              149.026355597599,
              -35.3521479825935
            ],
            [
              149.026408620828,
              -35.3520823060282
            ],
            [
              149.026887416545,
              -35.3515422070547
            ],
            [
              149.026946086433,
              -35.3514812982227
            ],
            [
              149.027010578834,
              -35.3514244779181
            ],
            [
              149.027080470899,
              -35.3513721186753
            ],
            [
              149.027155304383,
              -35.3513245637792
            ],
            [
              149.027169060409,
              -35.3513165223461
            ],
            [
              149.026572026347,
              -35.3506310288872
            ],
            [
              149.026564014665,
              -35.3506208328984
            ],
            [
              149.026557118934,
              -35.3506101032823
            ],
            [
              149.02655139171,
              -35.3505989218138
            ],
            [
              149.026546876642,
              -35.3505873737112
            ],
            [
              149.02654360814,
              -35.3505755469873
            ],
            [
              149.026541611115,
              -35.350563531778
            ],
            [
              149.026540900785,
              -35.3505514196559
            ],
            [
              149.026541482564,
              -35.3505393029322
            ],
            [
              149.026589798416,
              -35.3500859519544
            ],
            [
              149.026492424152,
              -35.3499741471677
            ],
            [
              149.025540686021,
              -35.35053052947
            ],
            [
              149.024870591045,
              -35.3507076727015
            ],
            [
              149.02415586011,
              -35.3507042801704
            ],
            [
              149.023786766778,
              -35.3507041400354
            ],
            [
              149.023378794021,
              -35.3498454268073
            ],
            [
              149.023317075943,
              -35.3497156403327
            ],
            [
              149.023418021927,
              -35.3497049382712
            ],
            [
              149.023517531559,
              -35.3496873940899
            ],
            [
              149.023614915165,
              -35.3496631293835
            ],
            [
              149.02370949781,
              -35.3496323123244
            ],
            [
              149.023800623973,
              -35.3495951564973
            ],
            [
              149.023887662092,
              -35.3495519194187
            ],
            [
              149.023970008941,
              -35.3495029007517
            ],
            [
              149.024047093809,
              -35.3494484402293
            ],
            [
              149.024118382459,
              -35.3493889152991
            ],
            [
              149.025799883709,
              -35.3478637451554
            ],
            [
              149.022436789664,
              -35.3371905004568
            ],
            [
              149.026065540175,
              -35.3253060702778
            ],
            [
              149.028298396632,
              -35.3256970057953
            ],
            [
              149.030394192278,
              -35.3261114724807
            ],
            [
              149.031845519999,
              -35.3263984651331
            ],
            [
              149.034813310299,
              -35.326651716286
            ],
            [
              149.036221938824,
              -35.3267771570314
            ],
            [
              149.03660172913,
              -35.3268109745856
            ],
            [
              149.039643494133,
              -35.3270817815155
            ]
          ]
        ]
      },
      "properties": {
        "OBJECTID": 42,
        "DISTRICT_CODE": 4,
        "DISTRICT_NAME": "WESTON CREEK",
        "DISTRICT_SHORT": "WEST",
        "ID": 94,
        "LAST_UPDATE_DATE": "Mon, 19 Jun 2023 11:10:24 GMT",
        "GlobalID": "60dba4a8-b6e5-493a-ba02-7ef17d2e464a"
      }
    }
}
