{
  "type": "FeatureCollection",
  "crs": {
    "type": "name",
    "properties": {
      "name": "EPSG:4326"
    }
  },
  "features": 
    {
      "type": "Feature",
      "id": 41,
      "geometry": {
        "type": "Polygon",
        "coordinates": [
          [
            [
              149.116674253921,
              -35.3286504302901
            ],
            [
              149.11668649703,
              -35.3286567164466
            ],
            [
              149.116699355458,
              -35.3286621148447
            ],
            [
              149.116712733592,
              -35.3286665853425
            ],
            [
              149.116726531951,
              -35.3286700946976
            ],
            [
              149.116740647934,
              -35.3286726168148
            ],
            [
              149.116754976574,
              -35.3286741329398
            ],
            [
              149.116769411325,
              -35.3286746317989
            ],
            [
              149.116555565132,
              -35.3312868994876
            ],
            [
              149.116096774987,
              -35.336890934033
            ],
            [
              149.127365111302,
              -35.3518181728065
            ],
            [
              149.118950337038,
              -35.3595039825394
            ],
            [
              149.125200508381,
              -35.380481446044
            ],
            [
              149.113489839311,
              -35.3833398810262
            ],
            [
              149.111751099985,
              -35.3838635835001
            ],
            [
              149.110475353832,
              -35.3838704268299
            ],
            [
              149.10967978704,
              -35.3837451227109
            ],
            [
              149.109016092279,
              -35.3837807142111
            ],
            [
              149.107297279862,
              -35.3840790180634
            ],
            [
              149.10546939111,
              -35.3842618683954
            ],
            [
              149.104997717293,
              -35.383776541296
            ],
            [
              149.104508041759,
              -35.3826894916968
            ],
            [
              149.103869963772,
              -35.3815966024423
            ],
            [
              149.103264534602,
              -35.3811719826239
            ],
            [
              149.101815814682,
              -35.3807632130836
            ],
            [
              149.100996656068,
              -35.3801849293695
            ],
            [
              149.10070258872,
              -35.3798968065544
            ],
            [
              149.099708043106,
              -35.3787727149271
            ],
            [
              149.096775201239,
              -35.3776175551639
            ],
            [
              149.094014788251,
              -35.3774812398145
            ],
            [
              149.093513866502,
              -35.3774726673565
            ],
            [
              149.092402425813,
              -35.3775105829097
            ],
            [
              149.090177933834,
              -35.3779437711438
            ],
            [
              149.085985018367,
              -35.377504590322
            ],
            [
              149.084523627947,
              -35.3776489415959
            ],
            [
              149.083273609211,
              -35.3781942721933
            ],
            [
              149.082422707026,
              -35.3782374117613
            ],
            [
              149.081621466777,
              -35.3779435292042
            ],
            [
              149.081214574082,
              -35.3764246276786
            ],
            [
              149.081927265191,
              -35.3747724664468
            ],
            [
              149.08165506034,
              -35.3720359595931
            ],
            [
              149.080707615762,
              -35.3704467134102
            ],
            [
              149.078954652459,
              -35.3683078425677
            ],
            [
              149.078686720115,
              -35.3676807900311
            ],
            [
              149.078152127442,
              -35.3669916143127
            ],
            [
              149.077619665768,
              -35.3663785934779
            ],
            [
              149.062904933021,
              -35.3663855252156
            ],
            [
              149.064335583045,
              -35.3650580985799
            ],
            [
              149.065628922737,
              -35.3636393012884
            ],
            [
              149.066776298154,
              -35.3621386352237
            ],
            [
              149.067770034185,
              -35.360566149965
            ],
            [
              149.068603485773,
              -35.3589323754083
            ],
            [
              149.06896170295,
              -35.3580873691939
            ],
            [
              149.069276983606,
              -35.3572309577801
            ],
            [
              149.069548790433,
              -35.3563646044485
            ],
            [
              149.069890158845,
              -35.3549145634886
            ],
            [
              149.070087620038,
              -35.3534466876048
            ],
            [
              149.07013989469,
              -35.351970545461
            ],
            [
              149.070046649989,
              -35.3504957590852
            ],
            [
              149.069808501598,
              -35.3490319411514
            ],
            [
              149.069752396274,
              -35.3487791995831
            ],
            [
              149.06969196389,
              -35.3485271285554
            ],
            [
              149.06962721641,
              -35.3482757777949
            ],
            [
              149.06961193255,
              -35.3482188755068
            ],
            [
              149.069596427554,
              -35.3481620133932
            ],
            [
              149.06958070158,
              -35.348105192031
            ],
            [
              149.069498993812,
              -35.3478224851897
            ],
            [
              149.069411816325,
              -35.3475408772236
            ],
            [
              149.069319191165,
              -35.3472604391692
            ],
            [
              149.069029265446,
              -35.3464775427358
            ],
            [
              149.068696907071,
              -35.3457060505192
            ],
            [
              149.068322781984,
              -35.3449475056094
            ],
            [
              149.06621968483,
              -35.3409433714707
            ],
            [
              149.065101764989,
              -35.3385635171957
            ],
            [
              149.064213346709,
              -35.3361195778178
            ],
            [
              149.063559801225,
              -35.3336263857973
            ],
            [
              149.063544447802,
              -35.3335537479126
            ],
            [
              149.063529294031,
              -35.3334810818806
            ],
            [
              149.063514339991,
              -35.3334083880695
            ],
            [
              149.06315210349,
              -35.3311591431173
            ],
            [
              149.062980840464,
              -35.328894739192
            ],
            [
              149.063001357468,
              -35.3266260514162
            ],
            [
              149.063291719434,
              -35.3209722696362
            ],
            [
              149.063328209591,
              -35.3202597746692
            ],
            [
              149.063471742883,
              -35.3202165153445
            ],
            [
              149.063614456391,
              -35.3201714711193
            ],
            [
              149.063756317072,
              -35.3201246524236
            ],
            [
              149.064288320291,
              -35.3199302544318
            ],
            [
              149.064805692119,
              -35.3197109297545
            ],
            [
              149.06530669568,
              -35.3194674147606
            ],
            [
              149.065319660054,
              -35.3194606785792
            ],
            [
              149.065332611862,
              -35.3194539261814
            ],
            [
              149.065345551074,
              -35.319447157583
            ],
            [
              149.065407466184,
              -35.3194144524034
            ],
            [
              149.06546908723,
              -35.3193813762865
            ],
            [
              149.065530410904,
              -35.3193479310082
            ],
            [
              149.065737408146,
              -35.3192310341877
            ],
            [
              149.065940774306,
              -35.3191099320418
            ],
            [
              149.066140382237,
              -35.3189847002951
            ],
            [
              149.066171555747,
              -35.3189646309711
            ],
            [
              149.066180203502,
              -35.3189590633165
            ],
            [
              149.066905898016,
              -35.3184918574175
            ],
            [
              149.067629714979,
              -35.3180669470264
            ],
            [
              149.068396560014,
              -35.3176961947398
            ],
            [
              149.069200417728,
              -35.3173825085372
            ],
            [
              149.070034982662,
              -35.317128348756
            ],
            [
              149.070893708722,
              -35.3169357088109
            ],
            [
              149.074584455064,
              -35.3162501000213
            ],
            [
              149.07585010038,
              -35.3159690280347
            ],
            [
              149.077082776303,
              -35.3156025210591
            ],
            [
              149.078273914058,
              -35.3151531271008
            ],
            [
              149.079415234041,
              -35.3146239703178
            ],
            [
              149.08077569281,
              -35.3138847517853
            ],
            [
              149.081482333107,
              -35.3135323248109
            ],
            [
              149.082220163028,
              -35.313225839453
            ],
            [
              149.082984745686,
              -35.3129671385547
            ],
            [
              149.083788827691,
              -35.3127537788606
            ],
            [
              149.084610991998,
              -35.3125932700507
            ],
            [
              149.085446077396,
              -35.3124866196607
            ],
            [
              149.086288841649,
              -35.3124344971254
            ],
            [
              149.089714582918,
              -35.3123342097801
            ],
            [
              149.091135928543,
              -35.3126753278776
            ],
            [
              149.09200469616,
              -35.3128838199595
            ],
            [
              149.091187606041,
              -35.3151987394144
            ],
            [
              149.087237887242,
              -35.326386845917
            ],
            [
              149.088105284862,
              -35.3266806341677
            ],
            [
              149.095441428382,
              -35.327289011346
            ],
            [
              149.098290429664,
              -35.3275250393879
            ],
            [
              149.10016526994,
              -35.3276800327031
            ],
            [
              149.100417150632,
              -35.327915208912
            ],
            [
              149.10049689368,
              -35.3279835008623
            ],
            [
              149.100583502944,
              -35.3280459242769
            ],
            [
              149.100676337652,
              -35.3281020173122
            ],
            [
              149.100774710969,
              -35.3281513649596
            ],
            [
              149.100877895078,
              -35.3281936021162
            ],
            [
              149.100985126566,
              -35.3282284162866
            ],
            [
              149.101095612072,
              -35.3282555498948
            ],
            [
              149.101208534156,
              -35.3282748021905
            ],
            [
              149.101323057349,
              -35.3282860307339
            ],
            [
              149.101438334334,
              -35.3282891524503
            ],
            [
              149.10155351222,
              -35.3282841442445
            ],
            [
              149.101667738845,
              -35.3282710431716
            ],
            [
              149.10178016909,
              -35.3282499461628
            ],
            [
              149.101889971125,
              -35.3282210093082
            ],
            [
              149.101996332571,
              -35.3281844467017
            ],
            [
              149.102098466505,
              -35.328140528857
            ],
            [
              149.104980124298,
              -35.3267687067681
            ],
            [
              149.10506944491,
              -35.3267237556648
            ],
            [
              149.105155978557,
              -35.3266752813528
            ],
            [
              149.1052395185,
              -35.3266233996471
            ],
            [
              149.106104182718,
              -35.3260586123384
            ],
            [
              149.106192425095,
              -35.3260060039945
            ],
            [
              149.106285968439,
              -35.3259599560535
            ],
            [
              149.106384088586,
              -35.3259208249904
            ],
            [
              149.106486025941,
              -35.3258889137333
            ],
            [
              149.106590991366,
              -35.3258644693185
            ],
            [
              149.10669817228,
              -35.3258476809784
            ],
            [
              149.106806738957,
              -35.3258386786767
            ],
            [
              149.106915850942,
              -35.3258375321023
            ],
            [
              149.107024663559,
              -35.3258442501301
            ],
            [
              149.107982155032,
              -35.3259382280262
            ],
            [
              149.108075525133,
              -35.3259439374126
            ],
            [
              149.108169144307,
              -35.3259427902114
            ],
            [
              149.108262264371,
              -35.3259347955915
            ],
            [
              149.108354141133,
              -35.3259200174447
            ],
            [
              149.108444040337,
              -35.3258985738753
            ],
            [
              149.108531243533,
              -35.3258706362555
            ],
            [
              149.10861505382,
              -35.3258364278561
            ],
            [
              149.108694801414,
              -35.3257962220621
            ],
            [
              149.108769849,
              -35.3257503401874
            ],
            [
              149.10883959683,
              -35.3256991489068
            ],
            [
              149.108903487512,
              -35.3256430573255
            ],
            [
              149.108961010465,
              -35.3255825137094
            ],
            [
              149.109011706001,
              -35.3255180019025
            ],
            [
              149.109055168996,
              -35.32545003746
            ],
            [
              149.10909105213,
              -35.3253791635276
            ],
            [
              149.109119068661,
              -35.3253059465013
            ],
            [
              149.109138994713,
              -35.3252309715005
            ],
            [
              149.109377211425,
              -35.3240918864475
            ],
            [
              149.109390305232,
              -35.3240242141729
            ],
            [
              149.109401336046,
              -35.3239562953611
            ],
            [
              149.109410297014,
              -35.3238881722468
            ],
            [
              149.109483581442,
              -35.3232572543349
            ],
            [
              149.109486892366,
              -35.3232320177943
            ],
            [
              149.109490955344,
              -35.3232068551611
            ],
            [
              149.109495767943,
              -35.3231817814863
            ],
            [
              149.109584388437,
              -35.3238090909023
            ],
            [
              149.109594655024,
              -35.3238614970582
            ],
            [
              149.10961049269,
              -35.3239129628183
            ],
            [
              149.109631779277,
              -35.3239630911915
            ],
            [
              149.109658350596,
              -35.3240114955023
            ],
            [
              149.109690001694,
              -35.3240578023734
            ],
            [
              149.109726488429,
              -35.3241016546058
            ],
            [
              149.109767529361,
              -35.3241427139348
            ],
            [
              149.109812807915,
              -35.3241806636387
            ],
            [
              149.109861974828,
              -35.3242152109826
            ],
            [
              149.109914650843,
              -35.3242460894759
            ],
            [
              149.10997042963,
              -35.324273060929
            ],
            [
              149.110028880928,
              -35.3242959172898
            ],
            [
              149.110089553855,
              -35.3243144822491
            ],
            [
              149.110151980393,
              -35.3243286126009
            ],
            [
              149.110215678997,
              -35.3243381993466
            ],
            [
              149.111641695995,
              -35.3245001301242
            ],
            [
              149.111873604581,
              -35.3245197536028
            ],
            [
              149.112106616652,
              -35.3245261175607
            ],
            [
              149.112339604819,
              -35.3245191912109
            ],
            [
              149.1127184158,
              -35.324497096414
            ],
            [
              149.112850107377,
              -35.3244851118992
            ],
            [
              149.112980232017,
              -35.3244646381927
            ],
            [
              149.113107976261,
              -35.3244358032844
            ],
            [
              149.113232541539,
              -35.3243987874336
            ],
            [
              149.113353149152,
              -35.3243538220404
            ],
            [
              149.113483369177,
              -35.3243000841394
            ],
            [
              149.113535682926,
              -35.3242807494199
            ],
            [
              149.113589822726,
              -35.3242651524533
            ],
            [
              149.11364539182,
              -35.3242534075399
            ],
            [
              149.113701982975,
              -35.3242456007504
            ],
            [
              149.113759181471,
              -35.3242417892954
            ],
            [
              149.113816568137,
              -35.3242420011065
            ],
            [
              149.113873722421,
              -35.3242462346311
            ],
            [
              149.113930225478,
              -35.3242544588442
            ],
            [
              149.113985663232,
              -35.3242666134754
            ],
            [
              149.114039629414,
              -35.3242826094508
            ],
            [
              149.114091728539,
              -35.3243023295457
            ],
            [
              149.114141578805,
              -35.3243256292438
            ],
            [
              149.114188814887,
              -35.3243523377956
            ],
            [
              149.11423309062,
              -35.3243822594705
            ],
            [
              149.11427408153,
              -35.3244151749905
            ],
            [
              149.114369410023,
              -35.3244985709955
            ],
            [
              149.11441069493,
              -35.3245379499896
            ],
            [
              149.114447703412,
              -35.3245800877328
            ],
            [
              149.114480162326,
              -35.3246246732321
            ],
            [
              149.114507832104,
              -35.3246713774283
            ],
            [
              149.114530508524,
              -35.3247198556249
            ],
            [
              149.114548024215,
              -35.324769750032
            ],
            [
              149.114560249894,
              -35.3248206924069
            ],
            [
              149.114567095319,
              -35.3248723067717
            ],
            [
              149.114588363195,
              -35.3251388578864
            ],
            [
              149.114597145996,
              -35.3252062360979
            ],
            [
              149.114612653493,
              -35.3252727951886
            ],
            [
              149.114634780857,
              -35.3253380851518
            ],
            [
              149.114663378499,
              -35.3254016645603
            ],
            [
              149.114698253083,
              -35.325463103551
            ],
            [
              149.114739168835,
              -35.3255219867314
            ],
            [
              149.115883212595,
              -35.3270214527509
            ],
            [
              149.116029912777,
              -35.3272863427525
            ],
            [
              149.116076769238,
              -35.3273828213934
            ],
            [
              149.11611230374,
              -35.3274824940128
            ],
            [
              149.116136198902,
              -35.3275844704896
            ],
            [
              149.11624674239,
              -35.3282161180657
            ],
            [
              149.116257101087,
              -35.328260661822
            ],
            [
              149.116272395363,
              -35.3283042406406
            ],
            [
              149.116292496612,
              -35.3283464880552
            ],
            [
              149.116317235805,
              -35.328387048795
            ],
            [
              149.116346404908,
              -35.3284255817725
            ],
            [
              149.116379758635,
              -35.3284617629518
            ],
            [
              149.11641701651,
              -35.3284952880736
            ],
            [
              149.116457865222,
              -35.3285258752141
            ],
            [
              149.116501961263,
              -35.3285532671555
            ],
            [
              149.116674253921,
              -35.3286504302901
            ]
          ]
        ]
      },
      "properties": {
        "OBJECTID": 41,
        "DISTRICT_CODE": 3,
        "DISTRICT_NAME": "WODEN VALLEY",
        "DISTRICT_SHORT": "WODE",
        "ID": 18,
        "LAST_UPDATE_DATE": "Mon, 29 Aug 1994 00:00:00 GMT",
        "GlobalID": "f1e5942d-11dd-45ae-b8c5-3e3a1759066b"
      }
    }
}